id,name,province,city,district,address,phone,geo_lat,geo_lng,google_map_id,gaode_map_id,place_id,map_type
1,安顺阳光妇科医院,贵州省,安顺市,西秀区,中华北路与西水路交叉口路西,,105.924767,26.251054,ChIJd57sOyAtxzYRrivDzjfGwxM,B03550I6R8,B03550I6R8,gaode
2,安阳协和医院,河南省,安阳市,龙安区,文明大道西段85号,0372-3661777,114.334916,36.090769,ChIJ_7MijgcI3DUR6nw4IdmvNyo,B0174021QW,B0174021QW,gaode
3,蚌埠澳美佳女子医院,安徽省,蚌埠市,龙子湖区,蚌埠市龙子湖区交通路143号,+86 552 315 1111,117.377263,32.950353,ChIJ89b5MHFFyTURZ2gzoGoCqyE,,ChIJ89b5MHFFyTURZ2gzoGoCqyE,google
4,包头都市妇产医院,内蒙古自治区,包头市,昆都仑区,阿尔丁大街神华蓝天商厦对面(市政府阿尔丁广场西南道6号),0472-5988666;0472-5143311,109.838867,40.653687,ChIJkX5vgR3uDzYRYre4gEBCpTE,B01D8028NG,B01D8028NG,gaode
5,包头生殖健康服务中心,内蒙古自治区,包头市,昆都仑区,乌兰道7号小肥羊大厦往东50米,0472-5914999;4000120982,109.838068,40.659398,ChIJvUJ-_ePxDzYRhqr7ZuU5zJg,B01D801UP4,B01D801UP4,gaode
6,包头现代女子妇产医院,内蒙古自治区,包头市,青山区,钢铁大街36号(万达广场斜对面),0472-6969098;0472-6969120,109.855748,40.655514,ChIJNXPt1vjxDzYRAlpTE_yxaWg,B01D801W6W,B01D801W6W,gaode
7,包头新世纪男科医院,内蒙古自治区,包头市,青山区,少先路21号,0472-5999999;0472-5109199,109.870359,40.651305,ChIJgf5pCQnyDzYRXOm_5przyNI,B01D80P1XQ,B01D80P1XQ,gaode
8,宝鸡市第三人民医院,陕西省,宝鸡市,金台区,宏文路48号,0917-3412538;0917-3131325;13571162120,107.210141,34.367326,ChIJD9Xkr2XeYDYR4UwDazyjVEQ,B03950PBWS,B03950PBWS,gaode
9,宝鸡远大肛肠医院,陕西省,宝鸡市,渭滨区,迎宾路1号火车站向东50米,0917-3533101,107.154276,34.372044,ChIJeRE2dqbdYDYRMJ4UBoKpdUM,B03950PK0Q,B03950PK0Q,gaode
10,保定白癜风医院,河北省,保定市,莲池区,三丰中路379号(果品批发市场对过),0312-5930000;0312-5936666;4000312026,115.493689,38.847368,ChIJVdm6d-qP5TUROxFpVjH9vWw,B0FFF6OQPJ,B0FFF6OQPJ,gaode
11,保定东大肛肠医院,河北省,保定市,莲池区,天威东路1266号(客运中心站)南行300米,0312-5071007;0312-5071003,115.542571,38.846561,ChIJP_X9u2eP5TURkQJaTM3JZ-s,B01380QQB1,B01380QQB1,gaode
12,保定京津医院,河北省,保定市,唐县,中山北大街28号,0312-7551940,114.992841,38.758778,ChIJu3KT921d5TURciK796OociY,B013803GPE,B013803GPE,gaode
13,保定牡丹妇婴医院,河北省,保定市,莲池区,东风东路335号,0312-6796666;18633205622,115.516924,38.865588,ChIJway-yH6F5TURawWk_S-T2m0,B013803AU8,B013803AU8,gaode
14,保定世纪协和医院,河北省,保定市,莲池区,裕华西路666号,0312-2012222;0312-5918111,115.484515,38.8602,ChIJ-4K4nPqP5TURUodxNBxHHQU,B013800F9I,B013800F9I,gaode
15,保定现代女子医院,河北省,保定市,竞秀区,七一西路555号(竞秀公园西行),0312-5957777,115.457214,38.882481,ChIJV-u2Y6Sa5TURjY9_FdG644E,B013800K1C,B013800K1C,gaode
16,北京艾丽斯妇科医院,北京市,北京市,海淀区,北四环西路9号,010-88565656;010-62800867,116.334853,39.987199,ChIJTVVScQZU8DURxkNQntNPIgk,B000A87FLV,B000A87FLV,gaode
17,北京宝岛妇产医院,北京市,北京市,海淀区,新街口外大街1号,010-62006666;4006100120,116.369475,39.967203,ChIJOw3-U4JT8DURQyjh6XzAaQI,B000A8X5CW,B000A8X5CW,gaode
18,北京北海医院,北京市,北京市,东城区,地安门外大街甲158号,010-64032828;010-64019060;4006783451,116.396699,39.935033,ChIJmVdpDyJT8DUR7KymsuRbOR0,B000A374ED,B000A374ED,gaode
19,北京大学吴阶平泌尿外科医学中心,北京市,北京市,石景山区,晋元庄路9号院,010-56278877;010-68294978,116.203156,39.928332,ChIJjyQ-7zlF8DURyL8Egjl-Iog,B000A879UH,B000A879UH,gaode
20,北京德胜门中医院,北京市,北京市,西城区,德胜门外大街200号(德胜门箭楼东北角),010-84044848;010-57175152,116.380156,39.952177,ChIJA8Xr0QxT8DURT5P-ukWjoJc,B000A835WY,B000A835WY,gaode
21,北京东大肛肠医院,北京市,北京市,朝阳区,东大桥路5号(蓝岛大厦南侧),010-85619199;010-85639299,116.449382,39.921855,ChIJDcFbCeSs8TURraEySqgELUE,B000A3A2E7,B000A3A2E7,gaode
22,北京丰益肛肠医院,北京市,北京市,丰台区,西三环丰益桥西100米,010-52227272;010-52227999;18911407357,116.313891,39.857759,ChIJ8SIC8JlO8DUR9-7rUNTmb2Y,B000A80LD8,B000A80LD8,gaode
23,北京凤凰妇科医院,北京市,北京市,朝阳区,将台西路18号,010-84560052;010-84568003,116.487599,39.971221,ChIJcWHR8Lir8TURhtvg5eNtf78,B0FFF3MB61,B0FFF3MB61,gaode
24,北京肛肠医院,北京市,北京市,丰台区,西三环丰益桥西100米,010-52227272;010-52227999;18911407357,116.313891,39.857759,ChIJgU0-_XBT8DURKOLyG4t2XDQ,B000A80LD8,B000A80LD8,gaode
25,北京国际医疗中心,北京市,北京市,朝阳区,亮马桥路50号燕莎中心办公楼(近燕莎友谊商城),010-64651561,116.465893,39.949843,ChIJZ0GjT4Cs8TURBZjbMAS1LuM,B000A74B38,B000A74B38,gaode
26,北京海华医院,北京市,北京市,丰台区,育菲园东里4号,010-63772222;010-63772399,116.321651,39.847214,ChIJOYPrJ6FO8DURzlfg6Lipqlk,B000A85JLM,B000A85JLM,gaode
27,北京海军总医院,北京市,北京市,海淀区,阜成路6号,010-88999899;010-66958114;010-88018688,116.324031,39.921989,ChIJOYAzf_ZR8DURZn05hF9UZKQ,B000A8VNNJ,B000A8VNNJ,gaode
28,北京恒安中医院,北京市,北京市,朝阳区,南磨房路14号院2,010-67300912;010-67320389,116.479124,39.883613,ChIJf_SWmJCt8TUR_q_jwA64b20,B000A7FBYE,B000A7FBYE,gaode
29,北京华大中医院,北京市,北京市,朝阳区,劲松中街405号,010-62322888;010-87798566;010-56156282,116.455569,39.882737,ChIJeRIBIHut8TUREMEyadf-bp0,B000A9V4Z1,B000A9V4Z1,gaode
30,北京华府妇儿医院,北京市,北京市,朝阳区,百子湾南二路18号,010-50951111;010-50951120,116.491763,39.896802,ChIJ__a8Asit8TURlk7Q6XSHpj4,B0FFFAHY9A,B0FFFAHY9A,gaode
31,北京华美美莱整形医院,北京市,北京市,朝阳区,朝阳门外大街227号美莱大厦,010-56935555;010-56935488;4008980000,116.441576,39.924782,,B000A8ZN8T,B000A8ZN8T,gaode
32,北京华医中西医结合皮肤病医院,北京市,北京市,海淀区,西四环北路29号(四季青政府向北侧),010-68685858,116.274945,39.955468,ChIJF9DH9lRQ8DUR2vqw7fSTRpc,B000A8W8FS,B000A8W8FS,gaode
33,北京慧慈医院,北京市,北京市,平谷区,新开街7号,010-69976333;010-69961996,117.122257,40.1422,ChIJAWnIGfdg8TURf9OhCwhA0O4,B000A5655C,B000A5655C,gaode
34,北京慧中医院,北京市,北京市,朝阳区,建华南路6号地杰长安驿B座31层(乘坐地铁一号线到永安里站下车C口出西行400米),010-65662528,116.444927,39.90716,,B0FFF2VYBV,B0FFF2VYBV,gaode
35,北京建国医院,北京市,北京市,朝阳区,西大望路2号,010-65856606,116.478277,39.914616,ChIJhciE_FGs8TURVuhhGZqVyXw,B000A7BFC6,B000A7BFC6,gaode
36,北京健宫医院,北京市,北京市,西城区,菜市口南大街儒福里6号,010-83521777;010-63532299,116.375751,39.880918,ChIJVc2otXVN8DURWlVNtdM5n0k,B000A7HWMR,B000A7HWMR,gaode
37,北京京北医院,北京市,北京市,海淀区,龙岗路6号(清河桥东),010-62991999;010-62905150,116.350116,40.029304,ChIJ8aIf9bhV8DURhwc3oAIE1Pc,B000A07FB1,B000A07FB1,gaode
38,北京京城皮肤病医院,北京市,北京市,朝阳区,北沙滩桥北双泉堡甲4号,010-83838389;010-64888999,116.36546,40.008575,ChIJkeI2WFFU8DURxK_B2j-Wc48,B000A805XC,B000A805XC,gaode
39,北京军都医院,北京市,北京市,西城区,德胜门外黄寺大街乙25号,010-82960408;010-82960452;4000600890,116.382538,39.96312,ChIJXfg16HpT8DUR4L7Jr-ZpfOY,B000A80YTH,B000A80YTH,gaode
40,北京丽都医疗美容医院,北京市,北京市,朝阳区,慧忠北里103号洛克时代中心,010-58396898;010-58396888;4000007070,116.407289,40.001686,ChIJ6SQUL9hU8DURudpTqAJ3y4E,B000A87FZ8,B000A87FZ8,gaode
41,北京玛丽妇婴医院,北京市,北京市,朝阳区,和平里北街5号(东土城路北口),010-64272076;010-64216666,116.431,39.959839,ChIJv0-J9ler8TURh_ecool4JLk,B000A7JMKW,B000A7JMKW,gaode
42,北京麦瑞骨科医院,北京市,北京市,朝阳区,北苑路甲1号,010-64479999;010-64479913,116.418567,40.023324,ChIJq8kJT0tV8DURmiEQVzv5Cm8,B000A87FTC,B000A87FTC,gaode
43,北京美联臣医疗美容医院,北京市,北京市,朝阳区,东三环南路乙52-2号,010-87729730;010-87728888,116.462098,39.88708,ChIJjdf5HnSt8TURceq8sHpp-KE,B000A84ZOG,B000A84ZOG,gaode
44,北京民众体检中心,北京市,北京市,朝阳区,外馆东街51号凯景铭座3层301号,010-64408928;010-64408788;18600773547,116.403529,39.962323,ChIJR7zEE1lT8DURl9gBatfymOI,B000A7Z3ZY,B000A7Z3ZY,gaode
45,北京民众眼科医院,北京市,北京市,朝阳区,林萃西里22号(近科荟路),010-82727552;010-82726600,116.371733,40.012111,ChIJjwU3rKpV8DURtU0B1xSnoUo,B000A83FQ0,B000A83FQ0,gaode
46,北京年轮骨科医院,北京市,北京市,朝阳区,八里庄北里88号,010-59101155;4006666120,116.495091,39.922008,ChIJBXjIYCqv8TURDk5sYAtPMaM,B0FFF2SI7Y,B0FFF2SI7Y,gaode
47,北京前海股骨头医院,北京市,北京市,西城区,地安门西大街丙28号,010-66551166;4006655166,116.385172,39.932927,ChIJl1ZpTh1T8DURORzxmzx17T4,B000A7Z17U,B000A7Z17U,gaode
48,北京瑞京糖尿病医院,北京市,北京市,丰台区,石榴庄南里15号,010-88229999,116.415146,39.844383,ChIJq_GYoe2y8TURaf8lSryGegQ,B0FFGMW2G8,B0FFGMW2G8,gaode
49,北京圣保罗男子医院,北京市,北京市,朝阳区,北京市朝阳区东三环南路乙52楼,+86 10 6772 7772,116.462118,39.887222,ChIJP3Ki4Hat8TURFr9XWSZ3vWE,,ChIJP3Ki4Hat8TURFr9XWSZ3vWE,google
50,北京圣贝国际牙科,北京市,北京市,朝阳区,南磨房路16号院甲2号,010-81581999,116.476902,39.883054,ChIJCwbZ9Jqt8TURUY6JJWUrRlA,B000A8WEMP,B000A8WEMP,gaode
51,北京天安中医医院,北京市,北京市,东城区,和平里中街31号,010-56943988,116.416562,39.957439,ChIJ57yOeFNT8DUR27q124a7NT0,B000AA7KH8,B000AA7KH8,gaode
52,北京天伦不孕不育医院,北京市,北京市,朝阳区,朝阳门南大街12号,010-85631116,116.4357,39.918447,ChIJiUmKPyet8TURFUUr_RQcEaM,B000A3D74A,B000A3D74A,gaode
53,北京天桥医院,北京市,北京市,西城区,西城区北纬路11号,+86 10 8313 4045,116.396433,39.883802,ChIJg40wmGdN8DURluQoxwPSoCo,,ChIJg40wmGdN8DURluQoxwPSoCo,google
54,北京天使儿童医院,北京市,北京市,朝阳区,广渠路大郊亭2号,010-61226161,116.492624,39.892835,ChIJ2-uonNqt8TUROuTLsrYo0Ok,B000ABCLP7,B000ABCLP7,gaode
55,北京五洲女子医院,北京市,北京市,朝阳区,朝阳区西大望路24号,+86 10 8776 9392,116.476807,39.892154,ChIJBeaq3KKt8TURlJU2OhfZSVk,,ChIJBeaq3KKt8TURlJU2OhfZSVk,google
56,北京武警总队第三医院,北京市,北京市,丰台区,小屯路10号,010-68692678;010-59063600,116.25381,39.886564,ChIJP576SXVP8DURh2JGpyNdPiw,B000A8VWDG,B000A8VWDG,gaode
57,北京西直河仁安医院,北京市,北京市,朝阳区,西直河村村委会南院,010-67367115;010-67367112,116.529977,39.844036,ChIJ1e8Zn-6x8TURjXz7qDWlamE,B0FFGK9B2A,B0FFGK9B2A,gaode
58,北京祥云京城皮肤病医院,北京市,北京市,丰台区,马家堡路69号院,010-56309999;010-56309888,116.37837,39.841907,ChIJZ_ZE9PNM8DURaIYWp4gcxXg,B000AA0IWX,B000AA0IWX,gaode
59,北京燕都医院,北京市,北京市,石景山区,鲁谷大街重兴嘉园1号楼,010-82786455;010-88730120;4006628228,116.229563,39.892316,ChIJpTW5GoBF8DUR39PS6lQWq6k,B000A9Q3VB,B000A9Q3VB,gaode
60,北京阳光丽人妇科医院,北京市,北京市,西城区,赵登禹路富国街2号(近少年儿童活动中心),010-66167776,116.367325,39.931114,ChIJC6JBn1ZS8DUR5j2QD30wNkU,B0FFFW4869,B0FFFW4869,gaode
61,北京众安康中医骨科医院,北京市,北京市,朝阳区,北京市朝阳区八里庄87-89号,+86 10 5910 1111,116.494397,39.922711,ChIJ2ZjaXD6s8TURxTm2_qg6zH0,,ChIJ2ZjaXD6s8TURxTm2_qg6zH0,google
62,毕节现代医院,贵州省,毕节市,七星关区,砂石路1号,0857-8635555,105.286964,27.301868,ChIJg7oVIueQwTYR9Jaf4JBufEA,B03590PBTB,B03590PBTB,gaode
63,仓山东大门诊部,福建省,福州市,仓山区,福峡路城门卫生所附近,0591-83407999,119.360161,25.995484,,B024F05YTK,B024F05YTK,gaode
64,仓山橘园洲门诊部,福建省,福州市,仓山区,橘园洲工业区洪湾路35号,0591-83052988,119.244859,26.055882,ChIJqY2EyG9QQDQRjc31Su8wBxk,B024F059D3,B024F059D3,gaode
65,沧州九龙男科医院,河北省,沧州市,新华区,清池北大道附近,0317-5299999,116.868004,38.323824,ChIJ-13Bseq-7jURTFvUfjvxr9o,B0FFG58PCE,B0FFG58PCE,gaode
66,昌邑市博爱医院,山东省,潍坊市,昌邑市,天水路389号,0536-7128111,119.39845,36.845316,ChIJ1efBCEH_lDURMvtA9ZO0phc,B02180JZ6M,B02180JZ6M,gaode
67,常熟东方妇科医院,江苏省,苏州市,常熟市,枫林路151号,0512-51531111,120.74502,31.656709,ChIJQfVS8zLPszURCtVlsuR9vGg,B02000J4LO,B02000J4LO,gaode
68,常熟仁爱医院,江苏省,苏州市,常熟市,虞山镇虞山北路8号,0512-51533999,120.73905,31.65489,ChIJw78jFsvIszUR8jOAR-feats,B0FFF2EVHI,B0FFF2EVHI,gaode
69,巢湖康平妇产医院,安徽省,合肥市,巢湖市,团结东路新一中隔壁,0551-82355160;0551-82355666,117.882702,31.597901,ChIJgTGF6EsgyzURAmCQAgoELFo,B023502D1V,B023502D1V,gaode
70,巢湖市妇幼保健所,安徽省,合肥市,巢湖市,东风西路463号附近,,117.85662,31.598986,ChIJF1_7b0ogyzURnKUtosWgWrc,B0FFFYV1H3,B0FFFYV1H3,gaode
71,郴州福康医院,湖南省,郴州市,北湖区,国庆北路21号福康医院(汽车总站旁),0735-5555120;0735-2221576;18673459400,113.027244,25.805166,ChIJL7aWTuhHHjQRyOQFq8hYzUE,B02DF002QU,B02DF002QU,gaode
72,成都安琪儿妇产医院,四川省,成都市,武侯区,高攀路3号(毗邻机场路东沿线火车南站东路口),028-81922222;028-81219999;4006819222,104.080446,30.608089,ChIJeeyK-ZTF7zYRB799lsKbUME,B001C7WGD0,B001C7WGD0,gaode
73,成都博爱医院,四川省,成都市,锦江区,大慈寺路1号(东风大桥桥头),028-68999999;028-64656055,104.087717,30.6534,ChIJZ-QlJUPF7zYR2ra82VliFRE,B001C7RRE6,B001C7RRE6,gaode
74,成都博大男科医院,四川省,成都市,武侯区,逸都路1号附16号(伊藤洋华堂对面),4008729996,104.021021,30.644506,ChIJxT-5vo_E7zYRy7c0puiPjI0,B0FFF2I21M,B0FFF2I21M,gaode
75,成都博润白癜风医院,四川省,成都市,武侯区,佳灵路6号(红牌楼家乐福对面),028-88199999;18200495526,104.027906,30.633929,ChIJhbjcgorE7zYRvTQOLbSFzw8,B001C8TQO2,B001C8TQO2,gaode
76,成都东大肛肠医院,四川省,成都市,武侯区,科华北路1号,028-85030105,104.076566,30.633515,ChIJNbCzTQvF7zYR-XOqnle10c8,B001C7V2T9,B001C7V2T9,gaode
77,成都华美整形医院,四川省,成都市,武侯区,二环路南三段7号附1号,028-62988882;028-62988875,104.0595,30.62021,,B001C7WHJJ,B001C7WHJJ,gaode
78,成都丽人女子医院,四川省,成都市,青羊区,人民中路二段43号(骡马市太平洋百货对面),,104.066612,30.670129,ChIJS2vYFTLF7zYR5y3hrLLSfdY,B0FFG4HMZX,B0FFG4HMZX,gaode
79,成都龙都医院,四川省,成都市,龙泉驿区,龙都南路203号(近龙泉驿区公安局),028-84883911;028-84883811,104.266956,30.569169,ChIJ780dwqPM7zYRZXBPspWtN00,B001C8NNMT,B001C8NNMT,gaode
80,成都玛丽亚妇产医院,四川省,成都市,双流县,天府大道南段2039号(海昌极地海洋世界旁),028-85896666,104.075625,30.494459,ChIJ1St-DSnb7zYRHvzLujczQko,B0FFGEE3OF,B0FFGEE3OF,gaode
81,成都欧亚男科医院,四川省,成都市,青羊区,一环路西一段161号附8号,028-66599999;028-87030666;18780290535,104.041173,30.65357,ChIJh7eXDejE7zYR-Fi5UTnR9xA,B001C09IR2,B001C09IR2,gaode
82,成都郫县天康医院,四川省,成都市,郫县,岷江街16号,028-87855972;028-87855906,103.966526,30.752825,ChIJGzlAAkrc7zYR7Vu9pUo-zbo,B001C7XJZ8,B001C7XJZ8,gaode
83,成都仁品耳鼻喉医院,四川省,成都市,青羊区,青华路51号附12号,4000885191,104.023937,30.662033,ChIJWUkNBbzE7zYR0lGsCQosMzs,B001C80FF3,B001C80FF3,gaode
84,成都瑞恩糖尿病医院,四川省,成都市,青羊区,锣锅巷98号,028-86610000;4000669190,104.073274,30.668741,ChIJEfOvJTTF7zYRtUM9YZqYvcM,B001C7WOVP,B001C7WOVP,gaode
85,成都圣贝牙科医院,四川省,成都市,武侯区,桂溪西街60号,028-86060808,104.079056,30.601543,ChIJT-TISJfE7zYRuVDUZAVutHg,B0FFF2WVPU,B0FFF2WVPU,gaode
86,成都市济民女子医院,四川省,成都市,金牛区,成都市金牛区一环路北三段25号,,104.074643,30.685577,ChIJvQ-N0Mfa7zYRIeKGl72J-1Q,,ChIJvQ-N0Mfa7zYRIeKGl72J-1Q,google
87,成都市青羊区第二人民医院,四川省,成都市,青羊区,鼓楼北四街99号成都市青羊区第二人民医院内,,104.076693,30.670347,ChIJm9JdhjXF7zYRBTod3t6kvwI,B0FFGPUKLS,B0FFGPUKLS,gaode
88,成都市西区医院,四川省,成都市,金牛区,蜀汉路1号(二环路羊西线路口),028-87565120;028-87565060,104.030372,30.683061,ChIJ33LziTXb7zYReqSdlKdljus,B001C80TME,B001C80TME,gaode
89,成都蜀都乳腺医院,四川省,成都市,青羊区,八宝街130号(新城市广场斜对面),028-88155555,104.058425,30.672058,ChIJ5QfFmyvF7zYRxuJvWO_AjWQ,B001C7YEXZ,B001C7YEXZ,gaode
90,成都曙光生殖健康医院,四川省,成都市,青羊区,一环路宫十字路口(青羊横街15号),028-87792169,104.04035,30.65888,ChIJWSxcFsPE7zYRyqQQl-apdA8,B0FFGSSGHV,B0FFGSSGHV,gaode
91,成都维多利亚女子医院,四川省,成都市,武侯区,成都市武侯区一环路南一段27号,+86 28 8543 2999,104.080843,30.636141,ChIJ9z5asXPF7zYRRBN4Vpc431I,,ChIJ9z5asXPF7zYRRBN4Vpc431I,google
92,成都新世纪肛肠医院,四川省,成都市,金牛区,一环路北二段1号,028-83176998;028-83407463;13550227132,104.061107,30.686222,ChIJA3UlmdDa7zYRc1E4XmczsMA,B001C7YPXK,B001C7YPXK,gaode
93,成都阳光妇科医院,四川省,成都市,金堂县,淮口镇淮口镇淮州大道200号(金堂县淮口镇国土资源管理所西),028-84916120,104.56289,30.711649,ChIJcypI34vE7zYRezy7ozYSaQg,B0FFFX25B8,B0FFFX25B8,gaode
94,成都养和堂综合门诊部,四川省,成都市,青羊区,蜀都大道十二桥路30号,028-65779888,104.043615,30.664374,,B0FFGMGWRK,B0FFGMGWRK,gaode
95,成都永康医院,四川省,成都市,锦江区,莲花中路6号附82号(近牛市口),13540120393,104.099001,30.637426,ChIJwy7GhEnF7zYRwQFsuUiPB_U,B001C928UI,B001C928UI,gaode
96,成都长征医院,四川省,成都市,崇州市,金带街226-228号,028-82217120,103.66401,30.629911,ChIJWbTh1AHF7zYResddS3PJW-k,B001C7ZYNA,B001C7ZYNA,gaode
97,成都中仁泌尿外科医院,四川省,成都市,锦江区,一环路东四段79号,028-66755555,104.094648,30.648127,ChIJOztIr2DF7zYR3qGFwOpuofA,B0FFFW8OFJ,B0FFFW8OFJ,gaode
98,城阳坤如玛丽妇儿医院,山东省,青岛市,城阳区,艳阳路116号,0532-89085333;15053219972;4008515889,120.403868,36.319071,ChIJ239ofRpvljURjo46yls9aL0,B0FFFCNNM8,B0FFFCNNM8,gaode
99,赤峰阳光泌尿专科医院,内蒙古自治区,赤峰市,松山区,玉龙大街54号,0476-2880000,118.906273,42.266065,ChIJKatkJ7goH14R3mAeZvKInFU,B01DC0JKLS,B01DC0JKLS,gaode
100,重庆爱德华医院,重庆市,重庆市,沙坪坝区,天陈路27号,023-65346666;023-65366999,106.459144,29.552898,ChIJa0lZWsHL7DYRUcEWLl0Qgx0,B001796O0A,B001796O0A,gaode
101,重庆奥林肛肠医院,重庆市,重庆市,九龙坡区,兴隆湾144号,023-86378788;023-86079898;18623392376,106.507452,29.521517,ChIJJSRS6ObK7DYRRWrAQ_uvu2E,B00178ZWMF,B00178ZWMF,gaode
102,重庆东大肛肠医院,重庆市,重庆市,渝北区,新溉大道3号(新牌坊转盘),023-86889299;023-86889899;4000236702,106.521613,29.600908,ChIJBXL56MXM7DYRVwl9lj_regE,B00178368O,B00178368O,gaode
103,重庆都市俪人医院,重庆市,重庆市,渝北区,松石北路58号,023-67663999;023-67610300,106.505648,29.583642,ChIJN9mLiZnM7DYRoEmsOymCQnU,B001709YFR,B001709YFR,gaode
104,重庆肛泰肛肠医院,重庆市,重庆市,江北区,江北区邦兴·北都,,106.531294,29.572736,ChIJAQDwWqrM7DYRkCbNcZuX-V0,,ChIJAQDwWqrM7DYRkCbNcZuX-V0,google
105,重庆国宾妇产医院,重庆市,重庆市,渝中区,上清寺路39号,023-86899999;023-86899288;4008807669,106.544945,29.55806,ChIJ2cru2680kzYRf50Vn1DGWnA,B001785J3D,B001785J3D,gaode
106,重庆国防医院,重庆市,重庆市,南岸区,南滨西路1号,023-68619888,106.555487,29.498305,ChIJWx03_4UzkzYRUmRRSNtCaTE,B0FFFAFBI2,B0FFFAFBI2,gaode
107,重庆和睦医院,重庆市,重庆市,江北区,洋河三村5号中信银行大厦,023-67778041;023-67636763;4000320789,106.529067,29.58443,ChIJq4DDJ7LM7DYR3kHJZZz7RsA,B0FFGOYDW5,B0FFGOYDW5,gaode
108,重庆红楼医院,重庆市,重庆市,渝中区,长江二路39号附甲15号(近大黄路竞地花园),023-63638188;023-68716871;13788831002,106.523732,29.53979,ChIJNX1GnjrL7DYRdLCunK5ANfI,B00170241B,B00170241B,gaode
109,重庆红十字会医院,重庆市,重庆市,江北区,建新东路28号附5号,023-88915999,106.53951,29.57385,ChIJyfl2KLLM7DYRzHr-k8VWbHM,B001783THL,B001783THL,gaode
110,重庆华山医院,重庆市,重庆市,渝北区,"红锦大道21号(渝通宾馆对面,红旗河沟枢纽站旁)",,106.525166,29.58715,ChIJlyg9M7fM7DYRTF02yjy-Qe0,B0FFG2120U,B0FFG2120U,gaode
111,重庆坤如玛丽医院,重庆市,重庆市,九龙坡区,南华街777号,023-61560038;023-61560471;13638317111,106.485503,29.522429,ChIJp0OaxrDM7DYRZaIn7YtoQJU,B00178UJ4S,B00178UJ4S,gaode
112,重庆生殖健康医院,重庆市,重庆市,江北区,渝澳大道读书梁一村9号,023-89182998;023-89182806;18502326194,106.521235,29.580122,ChIJ_aiio6XM7DYRYrbC75qH878,B00170AD0F,B00170AD0F,gaode
113,重庆万州和美妇产医院,重庆市,重庆市,万州区,白岩路末端中庆花园1号,023-62501542;023-58723999;15223523981,108.36532,30.814394,ChIJJYtQTOxojjYRBhpnBK3BROU,B00178UZMT,B00178UZMT,gaode
114,重庆五洲女子医院,重庆市,重庆市,九龙坡区,谢家湾正街3号6幢,023-68816687;023-68812999;13652358957,106.514094,29.527805,ChIJYQzrhN_K7DYRfDeKUftkpZQ,B00170L9N4,B00170L9N4,gaode
115,重庆现代妇产医院,重庆市,重庆市,黔江区,重庆市黔江区新华大道东段718号,,108.798535,29.523209,ChIJGdV-tQUAkTYRuoBWci2W84c,,ChIJGdV-tQUAkTYRuoBWci2W84c,google
116,重庆现代女子医院,重庆市,重庆市,南岸区,南坪东路8号附5号,023-62908322;023-62901999;023-62808918,106.573004,29.529203,ChIJ-xI31-Q0kzYRSJbHaDo1Sys,B001709INT,B001709INT,gaode
117,重庆协和医院,重庆市,重庆市,九龙坡区,渝州路60号重庆协和医院内,,106.485796,29.532248,ChIJwUvZxarL7DYRxlNDlGbGvMk,B0FFGU5DXM,B0FFGU5DXM,gaode
118,重庆新桥医院,重庆市,重庆市,沙坪坝区,新桥正街183号,023-68755000;023-68755114;023-68755745,106.437774,29.522072,ChIJbzHnr4nJ7DYReAXY0gzcelE,B001702698,B001702698,gaode
119,重庆新视界眼科医院,重庆市,重庆市,九龙坡区,渝州路79号后工星座B楼,023-68158888;4000230202,106.496658,29.5356,ChIJ-YPlXwHL7DYRIjEKklUVvVI,B0FFFRGCQT,B0FFFRGCQT,gaode
120,重庆阳光医院,重庆市,重庆市,彭水苗族土家族自治县,汉关路79号,023-78491120;023-44819999,108.17379,29.294071,ChIJP16AA67M7DYR-nxtbdLsqDc,B00170IDZD,B00170IDZD,gaode
121,慈溪圣爱医院,浙江省,宁波市,慈溪市,新江路243号(三北西大街与新江路交叉口),0574-63916391;0574-66308019;4008629998,121.233733,30.177476,ChIJdyujeRY_TTQRgtlEzLVwTHQ,B023E100M3,B023E100M3,gaode
122,慈溪同济医院,浙江省,宁波市,慈溪市,浒崇公路80号(教场山汽车站旁),0574-63976699,121.243815,30.183693,ChIJnQmw7UY_TTQRR1n_k2GDXkQ,B023E06123,B023E06123,gaode
123,达州陆军医院,四川省,达州市,达川区,,4000658053,107.50275,31.19891,ChIJ0RRdfb1NjDYRxOKImhCNLQA,B0FFFF76SN,B0FFFF76SN,gaode
124,大港海港医院,天津市,天津市,滨海新区,育秀街137号,022-63229222;022-63219333,117.467524,38.836132,ChIJUUusge3B7TUR5-50OwnVk5U,B00160A3YC,B00160A3YC,gaode
125,大连武警医院,辽宁省,大连市,中山区,高原街35号,0411-82682795,121.668967,38.884143,ChIJsSiYFuOKhTURyardJ_AUqNM,B0FFG40YC1,B0FFG40YC1,gaode
126,大连新世纪医院,辽宁省,大连市,甘井子区,大连市甘井子区千山路60号,+86 411 8650 6565,121.590258,38.980679,ChIJtU2MxQRfjzUROWA8XKtGCMM,,ChIJtU2MxQRfjzUROWA8XKtGCMM,google
127,大连阳光医院,辽宁省,大连市,西岗区,拥警街4号,0411-84320952;0411-84317000,121.601663,38.906928,ChIJE8yazEZgjzURPqaqv12kLGw,B019B0AP0W,B019B0AP0W,gaode
128,大同新时代妇科医院,山西省,大同市,城区,新建北路307号,0352-2433999;13643425078,113.289268,40.110769,ChIJoch7sJ3U4jUR7JC6bCMsi84,B016000K01,B016000K01,gaode
129,戴南人民医院,江苏省,泰州市,兴化市,戴南镇新泽路6号,0523-80951399,120.137431,32.727819,ChIJhzzTr44qtzURK7-R08A4jFw,B020B0ODFX,B020B0ODFX,gaode
130,德阳耳鼻喉专科医院,四川省,德阳市,旌阳区,泰山北路58号二段,0838-2203298;0838-3028888,104.394748,31.135012,ChIJW0Xgs53J8TYRGKWogu6UzIg,B034601N70,B034601N70,gaode
131,德阳新华西医院,四川省,德阳市,旌阳区,,0838-2221699,104.381927,31.125576,ChIJI7Dc_3zJ8TYRaKphQnSckSE,B034601QUJ,B034601QUJ,gaode
132,电白阳光医院,广东省,茂名市,电白区,水东镇水东镇三角圩广南路10号,0668-5121111;4000113120;0668-5700120,110.995598,21.531428,ChIJxfkdQVahrDYRX4LUO2S8phQ,B029C02RWT,B029C02RWT,gaode
133,东莞常平医院,广东省,东莞市,东莞市,常平镇常板石大道82号,0769-83912333;0769-83996766,114.017664,22.966875,ChIJodOG-m6CAzQRhdZbrltC4jA,B03017UWPS,B03017UWPS,gaode
134,东莞东方泌尿专科医院,广东省,东莞市,东莞市,东城中路与东纵大道交汇处(大地大厦对面),0769-27285999;0769-27285199,113.778713,23.040823,ChIJnZR_fEd1AzQR6jKyKqlpVbA,B03017V7ME,B03017V7ME,gaode
135,东莞港湾医院,广东省,东莞市,东莞市,长安镇沙头管理区358省道沙头牌坊,0769-87088999,113.768739,22.794197,ChIJZS9pnCuWAzQRkE58t-oc6UE,B03017WHZD,B03017WHZD,gaode
136,东莞玛丽亚妇产医院,广东省,东莞市,东莞市,莞太路(广彩城酒店旁),0769-22990165;0769-22993333,113.729291,22.999442,ChIJh03yaEOgAzQRsRgOrPR7UGo,B03017U5UL,B03017U5UL,gaode
137,东莞南国妇儿医院,广东省,东莞市,东莞市,东进路129号,0769-38899999,114.017633,22.912672,ChIJC9t5FpaDAzQRV0TiQwuSpq0,B03017W5N2,B03017W5N2,gaode
138,东莞南华妇科医院,广东省,东莞市,东莞市,大朗富民北路163号,4006150120;0769-82226999,113.9134,22.960087,ChIJa-cLOASdAzQRbFAaYuZLlao,B03018IOXP,B03018IOXP,gaode
139,东莞曙光妇科医院,广东省,东莞市,东莞市,临海南路与金丰路交汇处东北50米,0769-81563888,113.626445,22.846032,ChIJN5-B4yO7AzQREuAaHXg55uo,B03018MM76,B03018MM76,gaode
140,东莞塘厦康桥综合门诊部,广东省,东莞市,东莞市,东莞市塘厦镇沿河东路,+86 769 8685 3777,114.104533,22.81202,ChIJJ4LWR7aHAzQRcB2_uQlVe14,,ChIJJ4LWR7aHAzQRcB2_uQlVe14,google
141,东莞同仁妇科医院,广东省,东莞市,东莞市,大岭山镇振华路51号(与教育路交汇处),0769-81586666,113.844011,22.905067,ChIJYaoq3CqZAzQRJJyHJDufUjM,B0FFF3B78M,B0FFF3B78M,gaode
142,东莞同仁妇科医院,广东省,东莞市,东莞市,大岭山镇振华路51号(与教育路交汇处),0769-81586666,113.844011,22.905067,ChIJyyczAEWZAzQRS2znRtMZIqE,B0FFF3B78M,B0FFF3B78M,gaode
143,东莞万福妇产医院,广东省,东莞市,东莞市,虎门长德路180号,0769-82887999;4000361120,113.695461,22.814334,ChIJ0ekCmvO8AzQRDAQ7ZWDP3Ws,B03017UNGF,B03017UNGF,gaode
144,东莞现代妇科医院,广东省,东莞市,东莞市,环城东路桑园路段圃园路口,0769-22011111;0769-22013188,113.800729,23.059268,ChIJ8WM-lwJ1AzQR5vxtZzN7se0,B03017V6GR,B03017V6GR,gaode
145,东莞现代妇科医院,广东省,东莞市,东莞市,环城东路桑园路段圃园路口,0769-22011111;0769-22013188,113.800729,23.059268,ChIJ8WM-lwJ1AzQR5vxtZzN7se0,B03017V6GR,B03017V6GR,gaode
146,东莞长安乌沙医院,广东省,东莞市,东莞市,长安镇乌沙社区李屋大道乌沙派出所旁,0769-85538120;0769-85328288,113.782304,22.794032,ChIJnXJZtzSWAzQRF1_5lTBkb-k,B030105GTF,B030105GTF,gaode
147,东营同济医院,山东省,东营市,东营区,北二路785号,0546-5096666;0546-7080998,118.495747,37.473153,ChIJp2vpsY1P6zUR8H4MdnbR3I0,B022201QIR,B022201QIR,gaode
148,东营中西医结合医院,山东省,东营市,东营区,北二路717号胜利油田党校东邻,0546-8236738;0546-8237738,118.513011,37.473756,ChIJFdMI-sBP6zUR-KpXXm4JDqM,B022200B54,B022200B54,gaode
149,鄂尔多斯市女子妇产医院,内蒙古自治区,鄂尔多斯市,东胜区,铁西公园往南300米玺建祥集团对面,0477-8356999,109.965767,39.810716,ChIJU5HEYNlqDjYRuIa9KsPzGNA,B01DD14M20,B01DD14M20,gaode
150,鄂尔多斯同仁医院,内蒙古自治区,鄂尔多斯市,东胜区,宝日陶亥东街(伊克昭公园往东200米),0477-8351999,110.018608,39.820007,ChIJRQPGcmtqDjYRF6UXCPPjjRM,B0FFFOHBBI,B0FFFOHBBI,gaode
151,佛山都市专科医院,广东省,佛山市,禅城区,文昌西路13号(火车站西侧),0757-82829999;4000138120,113.102788,23.048715,ChIJdcH2Uk5ZAjQRDBFKNAdFa_Q,B0FFF3LMDN,B0FFF3LMDN,gaode
152,佛山肛泰肛肠医院,广东省,佛山市,禅城区,文华北路151号(桂园市场斜对面),0757-86118611;0757-86116222,113.128153,23.030789,ChIJO0zb_NhbAjQRjpFqyzKbLBE,B02F50UWWD,B02F50UWWD,gaode
153,佛山均安仓门社区卫生站,广东省,佛山市,顺德区,仓门常平路商业街50号,0757-25512777,113.159535,22.696168,ChIJR9yQmLs5AjQRfSmSasWrpq4,B02F508MPJ,B02F508MPJ,gaode
154,佛山三水区女子医院,广东省,佛山市,顺德区,"西南广海大道西1号一, 二, 四, 5楼",+86 632 10071,112.897,23.1561,ChIJSXM9gP2JAjQRF2UmjNjn5Q8,,ChIJSXM9gP2JAjQRF2UmjNjn5Q8,google
155,涪陵博生和美妇产医院,重庆市,重庆市,涪陵区,滨江路锦天名都外滩1号,023-62501542;023-72272060,107.396231,29.710628,,B001786W5V,B001786W5V,gaode
156,涪陵三峡医院,重庆市,重庆市,涪陵区,太极大道2号(四环路口),023-72243333;023-72225108,107.400091,29.6944,ChIJtU0BypGskzYReJ-KAIJKTTM,B00170HYRL,B00170HYRL,gaode
157,福安爱婴美妇产医院,福建省,宁德市,福安市,新华北路53号(福安人民法院旁边),0593-8999999;0593-6765888,119.643394,27.097839,ChIJXdRWGvzCRjQRr5ISzYHMokQ,B0FFFVDWHW,B0FFFVDWHW,gaode
158,福安协和医院,福建省,宁德市,福安市,"棠发路, 棠旺街, 福安市, 宁德市",+86 593 638 3533,119.658634,27.086615,ChIJp9XtUqzDRjQRd0JP57pSPZs,,ChIJp9XtUqzDRjQRd0JP57pSPZs,google
159,福鼎同济生殖专科医院,福建省,宁德市,福鼎市,富民山庄A幢1号,0593-7966120,120.21775,27.306345,ChIJ0XLpRA8rRDQRiozwzv6YM_A,B025101WJ8,B025101WJ8,gaode
160,福建省军区机关医院,福建省,福州市,鼓楼区,五凤街道白龙支路18号,,119.27571,26.101946,ChIJxbKIrNVQQDQRK1SP13s5H1g,B024F0U9I1,B024F0U9I1,gaode
162,福清阳光医院,福建省,福州市,福清市,玉屏街道田乾路46号,0591-85878966,119.386795,25.720968,ChIJveUCkG4zQDQRmaLKv2EUxT0,B024F01173,B024F01173,gaode
163,福清中山医院,福建省,福州市,福清市,江滨路与西门街交叉口东北100米,0591-85283066,119.373835,25.719009,ChIJR1h8GHUzQDQRPwS9I-rZ_Zg,B024F05BKL,B024F05BKL,gaode
164,福州博爱中医院,福建省,福州市,晋安区,福马路424号(省肿瘤医院往五里亭方向100米),4001109696,119.33997,26.07509,ChIJm5Lnzu5TQDQR-flQrgwJu_4,B0FFGMKI2K,B0FFGMKI2K,gaode
165,福州东南妇幼医院,福建省,福州市,台江区,光明路1号,0591-83827951;0591-22969999,119.33988,26.055394,ChIJeb5R_s5TQDQRpNWR6F656m4,B024F05ME2,B024F05ME2,gaode
166,福州福兴妇产医院,福建省,福州市,晋安区,福马路480号,0591-88055555;0591-88055116,119.353591,26.072434,ChIJ6UHA8JNTQDQROJi7zkRr7N4,B024F04173,B024F04173,gaode
167,福州肛泰肛肠医院,福建省,福州市,仓山区,则徐大道318号,0591-88820000;0591-88032199,119.330718,26.030025,ChIJ6eETjCFSQDQRUxC-p_ALt0E,B024F05UYY,B024F05UYY,gaode
168,福州格莱美美容医院,福建省,福州市,鼓楼区,"东大路6号(省立医院对面,五四路口站)",0591-87622222;4000519166,119.308872,26.087119,ChIJsxQxXE9RQDQRShDCbnneZoc,B0FFFGX8JE,B0FFFGX8JE,gaode
169,福州鼓楼医院,福建省,福州市,鼓楼区,五一北路123号(鼓楼交警支队旁),0591-87619721;0591-87677120;4008990333,119.310443,26.08053,ChIJBxDSgkNRQDQRMiTTJZ1GnM4,B024F032EG,B024F032EG,gaode
170,福州和睦佳妇产医院,福建省,福州市,仓山区,三高路113号,0591-87458888;4000005993;0591-38120000,119.327956,26.03589,ChIJzxjI-iZSQDQRsNtja22RXTE,B024F0U127,B024F0U127,gaode
171,福州和平肛肠医院,福建省,福州市,晋安区,东门塔头路68号,0591-88359999;4006668598,119.319766,26.088961,ChIJmc8esVZRQDQR4LtsERdngk4,B024F00535,B024F00535,gaode
172,福州晋安中科皮肤门诊部,福建省,福州市,晋安区,前横南路中段2号(前屿东路),0591-88355555,119.348617,26.069007,ChIJP91mNJVTQDQRisvlMXMBxYc,B024F0XOJ3,B024F0XOJ3,gaode
173,福州空军医院,福建省,福州市,仓山区,洪山桥郭厝里90号,,119.246924,26.072863,ChIJdRJMuX1QQDQR9NWVqP2PwSA,B0FFFFDN3D,B0FFFFDN3D,gaode
174,福州美莱华美美容医院,福建省,福州市,晋安区,岳峰镇塔头路177号,0591-22966666,119.32196,26.089027,ChIJafrEgFZRQDQRXHs1yFGISwI,B024F0TV56,B024F0TV56,gaode
175,福州泌尿专科医院,福建省,福州市,鼓楼区,湖东路155号,0591-88180000,119.302189,26.092547,ChIJSzUd4UlRQDQR6b2AZzGHP-I,B024F04W27,B024F04W27,gaode
177,福州市阳光门诊部,福建省,福州市,马尾区,琅岐镇政府附近,0591-83907888,119.582154,26.085129,,B024F0622Z,B024F0622Z,gaode
178,福州台江医院,福建省,福州市,台江区,五一南路293号,0591-83268888;0591-87453766;4000591266,119.314421,26.05644,ChIJC9DYqc9TQDQRTRukwaqnNdk,B024F0TSXF,B024F0TSXF,gaode
179,福州武警整形医院,福建省,福州市,鼓楼区,北环西路159号,0591-38102999,119.290473,26.104854,ChIJBWv9YNJWQDQRHl3b-JMvWCQ,B024F0ZC9N,B024F0ZC9N,gaode
180,福州现代妇产医院,福建省,福州市,鼓楼区,北环西路66号,0591-88211111;0591-88501660,119.295,26.108603,ChIJh4MP3c5WQDQRx6dDt58swMA,B024F05NZE,B024F05NZE,gaode
181,福州誉盛医院,福建省,福州市,晋安区,福光路102-114号,0591-83968111;0591-88056666,119.359351,26.073061,ChIJhR9UfJBTQDQR7g6lUoof3Ac,B024F05YTA,B024F05YTA,gaode
182,福州总医院第二附属医院,福建省,宁德市,蕉城区,宁德市蕉城区蕉城南路,+86 593 716 5582,119.539814,26.638698,ChIJcfrlgY4lQTQR-x_ZnFIz1GM,,ChIJcfrlgY4lQTQR-x_ZnFIz1GM,google
183,福州左海医院,福建省,福州市,鼓楼区,铜盘路21-3号,0591-87836222;0591-87836111,119.28812,26.100819,ChIJB6-SPS1RQDQRptql6Z2BLeQ,B024F00797,B024F00797,gaode
184,富源阳光医院,云南省,曲靖市,富源县,胜境街276号附近,,104.255297,25.658858,ChIJY2PbPfEAxTYR71cI-188kVE,B0FFGB08GS,B0FFGB08GS,gaode
185,赣南妇婴医院,江西省,赣州市,章贡区,五洲大道14号,0797-8158888,114.960342,25.824323,,B0FFG3XYXL,B0FFG3XYXL,gaode
186,赣南中西医结合医院,江西省,赣州市,章贡区,赞贤路6号,0797-2189999;0797-8400120,114.939685,25.83393,ChIJM-V9n5pXGDQRxVv3OyBs6yI,B031D0QVHT,B031D0QVHT,gaode
187,赣州现代泌尿专科医院,江西省,赣州市,章贡区,站前大道(火车站北侧20米),0797-8189595;0797-8183588,114.962698,25.821414,ChIJbadflnJXGDQRVjdtCO_Tcpo,B031D02I21,B031D02I21,gaode
188,公主岭市公安创作医院,吉林省,四平市,公主岭市,四平市公主岭市河南大街,,124.831212,43.50391,ChIJA0cofvOkOV4RQi7PzVSW2iM,,ChIJA0cofvOkOV4RQi7PzVSW2iM,google
189,巩义阳光医院,河南省,郑州市,巩义市,新华路2号,0371-64399120,112.983876,34.739833,ChIJUWDJnNvq1zURNdrNQMYGDE0,B0173077IF,B0173077IF,gaode
190,广东民安医院,广东省,广州市,越秀区,犀牛路7号,020-62823999;020-87777120,113.296954,23.132964,ChIJz4Q1MS__AjQReM3vzBv_dAM,B00140BZH9,B00140BZH9,gaode
191,广西壮族自治区南宁市中南医院,广西壮族自治区,南宁市,青秀区,茅桥路3,,108.362741,22.833914,ChIJ22lvF7vuszYR6svTPPuvWk4,B030300391,B030300391,gaode
192,广州艾玛妇产医院,广东省,广州市,增城区,广深大道东111号,020-82885555,113.631525,23.120275,ChIJ-UZf9i8JAzQRgFfdksaZQWQ,B00141JD6N,B00141JD6N,gaode
193,广州东大肛肠医院,广东省,广州市,越秀区,德政中路356号,020-83852666;020-62622222;4006355120,113.275515,23.125575,ChIJc8V4q8j4AjQRxqUj5clNCa8,B00140UOFL,B00140UOFL,gaode
194,广州东方俪人医院,广东省,广州市,番禺区,市桥环城中路85号,020-84888565,113.367238,22.940099,,B0FFGVNHJO,B0FFGVNHJO,gaode
195,广州番禺玛莉亚肛肠医院,广东省,广州市,番禺区,广州市番禺区市广路316号,+86 20 3999 5888,113.354932,22.958983,ChIJYwNyBhlTAjQRptIaQyTKR7c,,ChIJYwNyBhlTAjQRptIaQyTKR7c,google
196,广州花都人爱医院,广东省,广州市,花都区,建设北路138号,020-86967333;020-86884666,113.205946,23.397147,ChIJ_-1oERfmAjQRq-3X4foACqY,B00140U8K1,B00140U8K1,gaode
197,广州华美整形美容医院,广东省,广州市,天河区,黄埔大道西493号,020-61999999;020-85513666;4006260666,113.342216,23.126852,ChIJ97iJH6z_AjQRA_IypyjYuaM,B00140T3XO,B00140T3XO,gaode
198,广州华侨医院分院济慈康复医院,广东省,广州市,增城区,水南大道一路1号,020-32282333;020-32281595,113.55528,23.104056,ChIJUwd6_jMGAzQR78aBH-DFMu0,B00140UG9E,B00140UG9E,gaode
199,广州健安医院,广东省,广州市,增城区,广深大道中36-44号,020-82608206,113.618705,23.121641,ChIJ6d_kxa-MAzQR0BL4UoybTnA,B00140HFDO,B00140HFDO,gaode
200,广州江南医院,广东省,广州市,海珠区,南敦和路3号,020-84286688;020-84452095,113.312558,23.091542,ChIJEY3jmYpVAjQRl3yu6-505Hc,B00140AFKH,B00140AFKH,gaode
201,广州军区机关医院,广东省,广州市,越秀区,达道西路7号,020-87678799;020-37873129,113.300887,23.117198,ChIJB1eabzj_AjQRFJF_v2fjJXE,B00141SV8L,B00141SV8L,gaode
202,广州军区体育医院,广东省,广州市,天河区,广州大道中1268广州体育学院,020-38024310;020-38024321,113.320787,23.143717,,B00140USAC,B00140USAC,gaode
203,广州美莱美容医院,广东省,广州市,天河区,林和西横路222号,4006859999,113.32236,23.145452,ChIJ6XR1MgX5AjQRGAuTxAephJc,B0FFF9S0L4,B0FFF9S0L4,gaode
204,广州南粤医院,广东省,广州市,番禺区,市桥环城中路85号(星海公园斜对面),020-84888555;020-84888565,113.367216,22.939827,ChIJya3VAttSAjQRPtGYbcAx9Ms,B0FFFCLTRJ,B0FFFCLTRJ,gaode
205,广州女子医院,广东省,广州市,荔湾区,陆居路42号,020-81891166;020-81579990,113.236774,23.099233,ChIJfQ9EidRXAjQR03-ZM3K90yk,B00140MGYK,B00140MGYK,gaode
206,广州圣贝口腔,广东省,广州市,越秀区,广州大道中611号(索菲特大酒店正对面),020-37590555;020-87320999,113.314461,23.13834,ChIJpdHLpOH-AjQRDC8cFrOPdFU,B0FFF3UZ6O,B0FFF3UZ6O,gaode
207,广州圣亚泌尿外科医院,广东省,广州市,越秀区,广州大道中601号,020-28296666;020-28292333,113.314586,23.137713,ChIJNduyyOH-AjQRnXhqY1z3JYk,B00140UW9E,B00140UW9E,gaode
208,广州现代医院,广东省,广州市,天河区,濂泉路42号,020-22221111,113.308579,23.156888,ChIJ-zIeQcf-AjQRkhDwdjMVzDA,B00140CAZL,B00140CAZL,gaode
209,广州新世纪白癜风防治研究院,广东省,广州市,白云区,三元里大道896号(永腾商务大厦对面),020-86301999;4008766020,113.250533,23.175279,ChIJw0HR73H5AjQRFuZUNGX7AXQ,B00141J15L,B00141J15L,gaode
210,广州伊丽莎白妇产医院,广东省,广州市,荔湾区,康王中路484号,020-81329999;020-31029661,113.247518,23.120993,ChIJSTfoWoz4AjQRIZwtDzx6Bqs,B00140WBPA,B00140WBPA,gaode
211,广州益寿医院,广东省,广州市,白云区,三元里棠下益寿路68号(近地铁三元里站),020-22356666,113.249028,23.171126,ChIJg6wg6nL5AjQRG8qUyNXZ-GM,B0FFFAJHIJ,B0FFFAJHIJ,gaode
212,广州银翔医院,广东省,广州市,越秀区,环市东路475号,020-28101166;020-37655536;020-87667869;020-87669359,113.301378,23.134808,ChIJESY7LyH_AjQRP5J-NTiLZ0M,B0FFF81124,B0FFF81124,gaode
213,广州远东美容医院,广东省,广州市,白云区,广州市白云区远景路54号,+86 20 2609 7676,113.257823,23.172761,ChIJgbNc-mv5AjQROQbAfajYYQY,,ChIJgbNc-mv5AjQROQbAfajYYQY,google
214,广州粤海医院,广东省,广州市,白云区,石井海军陆战学院旁,020-28046126;020-22357222,113.239988,23.20888,ChIJ3Rhrscz7AjQRuBfA1h0Tbmo,B00141K637,B00141K637,gaode
215,广州长安医院,广东省,广州市,天河区,天河路502-2号,020-22222222;4006684220,113.336039,23.132695,ChIJ9fOKs6r_AjQRJly1TeOiyes,B0014033E5,B0014033E5,gaode
216,广州长泰门诊部,广东省,广州市,天河区,广州市天河区长兴路,,113.35184,23.168281,ChIJdWInZnH-AjQRBKn6KXvcZC8,,ChIJdWInZnH-AjQRBKn6KXvcZC8,google
217,广州长泰医疗健康超市门诊部,广东省,广州市,天河区,广州市天河区中山大道中1003号,+86 20 6100 2222,113.414447,23.119427,ChIJz67q50wAAzQRbb07sWPjBiA,,ChIJz67q50wAAzQRbb07sWPjBiA,google
218,贵阳博爱医院,贵州省,贵阳市,云岩区,枣山路120号,0851-88100999;0851-88101827,106.697397,26.585363,ChIJ-dXUm7dnvzYRsWzK0J9hNUo,B03530031B,B03530031B,gaode
219,贵阳东大肛肠医院,贵州省,贵阳市,南明区,解放路172号(陈家坡十字路口),0851-85566752;0851-96800,106.718831,26.561108,ChIJnTsnvfxnvzYR9hHQdxG-egk,B0FFF5PFXX,B0FFF5PFXX,gaode
220,贵阳和美妇产医院,贵州省,贵阳市,南明区,四方河路10号(山水黔城斜对面),0851-88332065;0851-88332003;4001887886,106.693067,26.530663,ChIJ_1aLiWxdvzYRddTeoKhKslY,B03530OYM9,B03530OYM9,gaode
221,贵阳和谐阳光医院,贵州省,贵阳市,云岩区,三桥南路42号,0851-84822111;18585865184,106.667719,26.58143,ChIJHZIhMgxnvzYRHJyr427iwcw,B035301EYM,B035301EYM,gaode
222,贵阳丽都医疗美容医院,贵州省,贵阳市,南明区,沙冲南路226号卧龙山庄1-2层,0851-83712666,106.69433,26.529976,ChIJZwmqfmtdvzYR_Z2PpLCa96U,B0FFF3KASF,B0FFF3KASF,gaode
223,贵阳马王庙医院,贵州省,贵阳市,乌当区,贵阳市乌当区马王街,,106.65318,26.583273,ChIJlT0f-hVnvzYRwa86s7is5zY,,ChIJlT0f-hVnvzYRwa86s7is5zY,google
224,贵阳现代女子医院,贵州省,贵阳市,云岩区,瑞金北路1号(紫林庵新华书店旁),0851-88133999;4001010373;13618585985,106.704687,26.582901,ChIJ4dEKHMZnvzYRj-ooC8UUnRg,B035301VJS,B035301VJS,gaode
225,贵阳长江医院,贵州省,贵阳市,云岩区,中华中路137号,0851-85814266;0851-85840000,106.711585,26.582736,ChIJmzqKVcVnvzYRflcuII5hwiQ,B035301HJW,B035301HJW,gaode
226,贵州退休医师医院,贵州省,贵阳市,南明区,兴关路48号,0851-85563366;0851-85568900;18786007151,106.713203,26.564304,ChIJbQK6muVnvzYRF5vLu-D96JU,B035301L32,B035301L32,gaode
227,桂林阳光医疗,广西壮族自治区,桂林市,七星区,穿山路七号,0773-5855777,110.305099,25.273206,ChIJDRJvkcH1pDYRsDnO0HdIA54,B03050VG22,B03050VG22,gaode
228,哈尔滨和美妇产医院,黑龙江省,哈尔滨市,南岗区,赣水路13号(福顺天天大酒店对面),0451-87256888;0451-88895888,126.671955,45.743272,ChIJWz70uLF_RF4Ri1uxvZ8YESA,B01C30KBED,B01C30KBED,gaode
229,哈尔滨欧亚男科医院,黑龙江省,哈尔滨市,南岗区,南通大街133号,0451-86134299;0451-86138888,126.671526,45.777845,ChIJjU-P4AaARF4R4_yiGkZ0v08,B01C30J7OJ,B01C30J7OJ,gaode
230,哈尔滨市生殖保健中心,黑龙江省,哈尔滨市,南岗区,宣化街207-211号(近第二职业中学),0451-55511928;0451-88760066,126.668373,45.756883,ChIJP_-P0cF_RF4RpFlKpM8SJCs,B01C305FVD,B01C305FVD,gaode
231,哈尔滨维多利亚妇产医院,黑龙江省,哈尔滨市,道里区,新阳路38-2号,0451-58931388;0451-58931377;13206650958,126.617469,45.761165,ChIJJ6PEm3qAQ14RrxWMukOlNUU,B01C30JLP1,B01C30JLP1,gaode
232,哈尔滨武警黄金医院,黑龙江省,哈尔滨市,南岗区,保健副路3号,0451-51981001,126.637151,45.703769,ChIJEaWChB-CQ14R2dMDq0YnaWQ,B01C319B4S,B01C319B4S,gaode
233,哈尔滨协和不孕不育医院,黑龙江省,哈尔滨市,南岗区,一曼街177号(近市国土资源局),0451-88119979;0451-88115555,126.645645,45.76705,ChIJ63PJ3PV_RF4RW8NXtiOZGZk,B01C30J8TU,B01C30J8TU,gaode
234,哈密红十字会医院,新疆维吾尔自治区,哈密地区,哈密市,阿牙路75号,0902-2258415,93.524133,42.823674,ChIJEciTbWzC5TcR_F-2fA8f95Y,B038600836,B038600836,gaode
235,海门瑞金医院,江苏省,南通市,海门市,叠石桥现代大道999号,0513-81233111;0513-83655137,121.085958,31.968071,ChIJO5Mw6PuPsTURDrq2IAPIUgI,B02010U4AW,B02010U4AW,gaode
236,杭集镇卫生院镇北分院,江苏省,扬州市,邗江区,扬州市邗江区宁通高速公路杭集段北侧,,119.539174,32.388117,ChIJD9ntpGaPtjURdFD-Yq67HPo,,ChIJD9ntpGaPtjURdFD-Yq67HPo,google
237,杭州阿波罗男子医院,浙江省,杭州市,下城区,体育场路58号,0571-85093333,120.182318,30.270665,ChIJU7-jeaKdTDQRiQI2273fUN4,B023B02YMI,B023B02YMI,gaode
238,杭州艾玛妇产医院,浙江省,杭州市,西湖区,古墩路666号,0571-56818009;0571-56868009;0571-56868888,120.097222,30.308482,ChIJe8FhH8djSzQRl8GGN89Wlcw,B023B0BE1D,B023B0BE1D,gaode
239,杭州博爱医院,浙江省,杭州市,拱墅区,湖墅南路138号,0571-88845888,120.154843,30.279913,ChIJzdt9U3diSzQRq7z4qGRYVJE,B023B03A0R,B023B03A0R,gaode
240,杭州富阳中山门诊部,浙江省,杭州市,富阳区,孙权路128号(大润发超市对面),0571-63135588,119.940506,30.053581,ChIJnS7gbe2cSzQRRxC_AdgCxV8,B023B05YIL,B023B05YIL,gaode
241,杭州肛泰肛肠医院,浙江省,杭州市,下城区,绍兴路400弄3号,0571-88300000;4008261188,120.166141,30.302729,ChIJoc9wjOidTDQRJND72ojZbS0,B023B0901R,B023B0901R,gaode
242,杭州格莱美医疗美容医院,浙江省,杭州市,下城区,体育场路335号,0571-28266666;0571-28981931,120.161141,30.270061,ChIJ9QKvSYCdTDQRc8QpEGxK4EQ,B023B169HS,B023B169HS,gaode
243,杭州广仁医院,浙江省,杭州市,江干区,新塘路327号,0571-86993939;0571-86786666;4006396999,120.20785,30.281032,ChIJedA8WDScTDQRKxan4_ZTU14,B023B061MK,B023B061MK,gaode
244,杭州和睦医院,浙江省,杭州市,拱墅区,莫干山路642号,0571-88181000;0571-88180666,120.121624,30.309398,ChIJzaZiLTBiSzQR35SE-ReIVss,B023B0234C,B023B0234C,gaode
245,杭州红房子妇产医院,浙江省,杭州市,下城区,体育场路286号,0571-28189999;0571-28179219,120.168068,30.27033,ChIJe8z5A4OdTDQRrFMp-sNLI1M,B023B0BIO1,B023B0BIO1,gaode
246,杭州虹桥医院,浙江省,杭州市,上城区,清泰街2号,0571-87828888;0571-87292626,120.18396,30.247645,ChIJm-FtYhOdTDQRe2toDTCWD_4,B023B02UCI,B023B02UCI,gaode
247,杭州建国医院,浙江省,杭州市,下城区,杭州市下城区建国北路149号,+86 571 8729 1999,120.180501,30.262718,ChIJwwPAanWdTDQRLcwnrNV1xRs,,ChIJwwPAanWdTDQRLcwnrNV1xRs,google
248,杭州江北新东方医院,浙江省,杭州市,萧山区,萧绍路999号萧山东方医院内,0571-82757599,120.277467,30.164752,,B023B14LJF,B023B14LJF,gaode
249,杭州玛莉亚妇女医院,浙江省,杭州市,上城区,秋涛路300号,0571-86521200;4008833120,120.193118,30.238261,ChIJzYk8SD2dTDQRPTGzAnprzQs,B023B08TGI,B023B08TGI,gaode
250,杭州强生泌尿外科医院,浙江省,杭州市,下城区,环城北路90号(近公交总公司),0571-85098899;0571-88043007;4006728383,120.180736,30.275385,ChIJ16n-kpedTDQRmdfaR1qvxr0,B023B0491T,B023B0491T,gaode
251,杭州仁德妇产医院,浙江省,杭州市,拱墅区,大关路303号,0571-88285555,120.15482,30.311499,ChIJSVgd3QFiSzQR0WDwYWa6hI8,B023B09X74,B023B09X74,gaode
252,杭州瑞丽医疗美容医院,浙江省,杭州市,下城区,中山北路290号浙江民航大厦1-4层,0571-85181111,120.169024,30.264951,ChIJFziWOHidTDQRo3qN-vMcwbc,B023B1DORM,B023B1DORM,gaode
253,杭州天目山妇产医院,浙江省,杭州市,西湖区,古墩路6号,0571-85129999;0571-85028055,120.103014,30.264361,ChIJnep8ORhjSzQR6TTEryWKhTg,B023B0A6EG,B023B0A6EG,gaode
254,杭州同济医院,浙江省,杭州市,西湖区,黄姑山路24号(近颐高旗舰广场),0571-88925222;0571-88219148;0571-88218888,120.134567,30.275576,ChIJlw8v9V9iSzQR0V529Esczjs,B023B06N03,B023B06N03,gaode
255,杭州萧山九龙男科医院,浙江省,杭州市,萧山区,育才路962号(汇宇花园旁),0571-82659999;4000913120,120.280279,30.148824,ChIJZ0CHCVyETDQRADwO5_wftvA,B023B0A418,B023B0A418,gaode
256,杭州萧山萧然女子医院,浙江省,杭州市,萧山区,江寺路63号,0571-22855227;0571-22811111,120.272291,30.163006,ChIJ7VMKjoyETDQRWd0fs6FymnI,B023B1BENX,B023B1BENX,gaode
257,杭州新东方女子医院,浙江省,杭州市,拱墅区,杭州市拱墅区莫干山路949号,,120.121289,30.308764,ChIJRdsWtTFiSzQRuRdXWzU_98k,,ChIJRdsWtTFiSzQRuRdXWzU_98k,google
258,杭州长安医院,浙江省,杭州市,上城区,江城路307号,0571-86816866;0571-86809716,120.172376,30.227616,ChIJ_QKAuU2dTDQRVUFnFLSq1h4,B023B05TD9,B023B05TD9,gaode
259,杭州真爱妇科医院,浙江省,杭州市,上城区,杭州市上城区江城路417号,+86 571 8606 3666,120.173598,30.23112,ChIJ7dP1-U6dTDQRlI8JTldQLTo,,ChIJ7dP1-U6dTDQRlI8JTldQLTo,google
260,合肥丹凤朝阳妇产医院,安徽省,合肥市,瑶海区,站西路和临泉路交叉口,0551-64250055;0551-64250033,117.306196,31.883631,ChIJxZVALlZkyzUR2tcFJyl1M7A,B022702U20,B022702U20,gaode
261,合肥肛泰肛肠医院,安徽省,合肥市,庐阳区,蒙城北路392号,0551-68676867;0551-65551516;4000706867,117.278213,31.891305,ChIJiczo7YdkyzURn6ORgyJaQ64,B0FFF3KEK2,B0FFF3KEK2,gaode
262,合肥丽人妇科医院,安徽省,合肥市,包河区,屯溪路349号,0551-63613581;0551-63612999,117.279171,31.84716,ChIJr4bM8ahmyzUR_x_-CiDXUZ8,B022703I7V,B022703I7V,gaode
263,合肥男科医院,安徽省,合肥市,肥西县,芙蓉路与松林路交汇处西北角,0551-68993655,117.199781,31.789399,ChIJv5bbq0lkyzUR4LntVp-ZmEk,B0FFGBCYO8,B0FFGBCYO8,gaode
264,合肥市中山医院,安徽省,合肥市,瑶海区,凤阳路8号,0551-64256999;0551-64251111,117.314506,31.873562,ChIJBdEGzVJkyzURAdY8Xq0_LC4,B022702M6Y,B022702M6Y,gaode
265,合肥喜得儿孕育医院,安徽省,合肥市,庐阳区,阜阳路与临泉路交叉口,0551-63412679;0551-62771111,117.287641,31.887426,ChIJp-ieyGFkyzUR9RIkMachv64,B02270JPID,B02270JPID,gaode
266,合肥新视界眼科医院,安徽省,合肥市,包河区,徽州大道689号(原美菱大道157号),0551-64663366;0551-62758888;4006651616,117.285086,31.837367,ChIJSxMsp6RmyzURMq2G8DKvdxg,B02271ADT6,B02271ADT6,gaode
267,合肥友好医院,安徽省,合肥市,包河区,徽州大道693号,0551-64669191;0551-64631202,117.285058,31.836871,ChIJo1btqKRmyzURC0YC4kVxh4o,B0227010DF,B0227010DF,gaode
268,河南公安医院,河南省,郑州市,金水区,顺河路7-1号,0371-69079528;4000068796,113.692628,34.759682,ChIJzxW_okJm1zUR5uKKcxJjRW8,B01730JCDP,B01730JCDP,gaode
269,河南省军区医院,河南省,郑州市,金水区,金水路18号,0371-81670469;0371-81671400,113.673611,34.76561,ChIJ7WJPWXdm1zURT3CDr0bOzpw,B017316H67,B017316H67,gaode
270,河南省医药科学研究院附属医院,河南省,郑州市,二七区,大学北路47号附近,,113.645622,34.751936,ChIJg8x4wHpl1zURRWnDQ-4TmPo,B0FFFWVY79,B0FFFWVY79,gaode
271,河南曙光中西医结合医院,河南省,郑州市,金水区,文化路73号(省财经学院对面),0371-63523333;0371-63523338,113.666097,34.802397,ChIJyflgcB5k1zURYVmBCBG4yXU,B017308RHD,B017308RHD,gaode
272,河南新郑妇产医院,河南省,郑州市,新郑市,新建路467号,0371-55842266;0371-62677222,113.73318,34.400313,ChIJ1Uh5fJEX1zURgsnfCIzk_Pw,B01730KCCH,B01730KCCH,gaode
273,河南中都皮肤病医院,河南省,郑州市,金水区,商都路18号河南中都皮肤病医院内,,113.740187,34.749519,ChIJz9dP25dn1zURbp0XxzGJDwM,B0FFGTNM12,B0FFGTNM12,gaode
274,黑龙江东北医院,黑龙江省,哈尔滨市,南岗区,文明街15号,0451-58886377;0451-82610088,126.652089,45.745307,ChIJMXmKaKJ_RF4ROi42d7L3Qgc,B01C30JWUK,B01C30JWUK,gaode
275,黑龙江东大肛肠医院,黑龙江省,哈尔滨市,南岗区,先锋路561号(南岗分局旁),0451-51818888;0451-82536248,126.676306,45.765649,ChIJx4siG-d_RF4R3Y9z-_gKz2k,B01C30KAOL,B01C30KAOL,gaode
276,黑龙江和平医院,黑龙江省,哈尔滨市,南岗区,哈尔滨市南岗区宣化街457号,+86 451 8252 0955,126.668632,45.767163,ChIJMRIgreV_RF4RWGXTlReymRU,,ChIJMRIgreV_RF4RWGXTlReymRU,google
277,黑龙江虹桥不孕不育医院,黑龙江省,哈尔滨市,道里区,尚志大街6号黑龙江虹桥不孕不育医院内,,126.624393,45.764308,ChIJZ2J7cHGAQ14RhEH7AaSd4GU,B0FFGRCNS9,B0FFGRCNS9,gaode
278,黑龙江玛丽亚妇产医院,黑龙江省,哈尔滨市,南岗区,宣化街2号,0451-82676666;0451-82807966,126.666309,45.74468,ChIJxf5ev7p_RF4RdFUOABEZB3c,B01C3054PR,B01C3054PR,gaode
279,黑龙江瑞京糖尿病医院,黑龙江省,哈尔滨市,南岗区,先锋路322号(原长城中学),0451-82366229;0451-58876359;4008088011,126.67975,45.765366,ChIJYU8HV-d_RF4R2hhjHHgEOk4,B01C31739G,B01C31739G,gaode
280,黑龙江省生殖保健中心,黑龙江省,哈尔滨市,道外区,承德街253-3号,0451-89999966,126.644607,45.776926,ChIJsQq7SASAQ14RHMlvimk1z9A,B01C30KAFP,B01C30KAFP,gaode
281,黑龙江武警医院,黑龙江省,哈尔滨市,道里区,新阳路558号,,126.59871,45.739822,ChIJBam7Zi9_RF4RBonkHemuAUE,B01C31B39K,B01C31B39K,gaode
282,黑龙江祥云皮肤病医院,黑龙江省,哈尔滨市,南岗区,先锋路565号,0451-51889999;0451-51789793,126.675273,45.765518,ChIJMdQXHed_RF4RQv-uT5bAqx0,B01C3182AZ,B01C3182AZ,gaode
283,黑龙江阳光女子专科医院,黑龙江省,哈尔滨市,南岗区,中山路228,0451-83198888;0451-58819845,126.655457,45.747985,ChIJscXhTr1_RF4RM9eo86PFvrw,B01C305570,B01C305570,gaode
284,黑龙江长庚耳鼻喉医院,黑龙江省,哈尔滨市,南岗区,通达街69号(原国脉大楼),0451-55587507;0451-55508888;4006286777,126.622789,45.737284,ChIJ7U8R0m9_RF4R_7Riq-j2pdE,B01C3179BD,B01C3179BD,gaode
285,呼和浩特东大肛肠医院,内蒙古自治区,呼和浩特市,玉泉区,石羊桥南路丽日花园综合楼,0471-6695555;0471-5979525,111.669851,40.791669,ChIJY-xaYwlIBjYRXBdWb20bOUo,B01D703BOG,B01D703BOG,gaode
286,呼和浩特五洲女子医院,内蒙古自治区,呼和浩特市,玉泉区,石羊桥路200号(近五塔寺),0471-3339344;0471-3339777,111.666323,40.800771,ChIJDVDXiXVIBjYRiaQbQMgWGNI,B01D701S9R,B01D701S9R,gaode
287,呼和浩特新视界眼科医院,内蒙古自治区,呼和浩特市,回民区,巴彦淖尔南路三联化工小区1号综合楼,0471-3256999;4006621616,111.636914,40.805096,ChIJFdqLcL5HBjYRu-DCaF4lWNM,B01D70P4TK,B01D70P4TK,gaode
288,湖北省荣军医院,湖北省,武汉市,洪山区,卓刀泉路208号,027-87800387;15072460061,114.377916,30.505839,ChIJO9v-w9S6LjQRxMi9bPUo79U,B001B15XJ4,B001B15XJ4,gaode
289,湖南郴州福康医院,湖南省,郴州市,北湖区,国庆北路21号福康医院(汽车总站旁),0735-5555120;0735-2221576;18673459400,113.027244,25.805166,ChIJL7aWTuhHHjQRyOQFq8hYzUE,B02DF002QU,B02DF002QU,gaode
290,湖南省军区机关医院,湖南省,长沙市,芙蓉区,八一路473号,4000731995,112.990795,28.197546,ChIJqzJ0CnBKJzQR1kPwD-thp8U,B02DB0V263,B02DB0V263,gaode
291,湖州曙光医疗美容医院,浙江省,湖州市,吴兴区,苕溪西路39号(全民健身中心对面),0572-2702222,120.105629,30.869076,ChIJa8frwP2otDURqC-ZCWpuZWY,B023C02Q9V,B023C02Q9V,gaode
292,湖州阳光妇科医院,浙江省,湖州市,吴兴区,太湖路41号(项王码头对面),0572-2191888,120.100842,30.879012,ChIJ4b4pVOWotDURWntimM7nhn0,B023C01VIP,B023C01VIP,gaode
293,华南耳鼻喉专科医院,广东省,佛山市,禅城区,佛山市禅城区文昌西路,,113.103839,23.04685,ChIJsSXBFU5ZAjQRniTvsU8H2Zk,,ChIJsSXBFU5ZAjQRniTvsU8H2Zk,google
294,淮安生殖医院,江苏省,淮安市,清河区,北京北路27-1号,0517-83654599;0517-83654999,119.008748,33.613725,ChIJ6ZCah_H0tzURWTDVJ3LXmcw,B020504V3X,B020504V3X,gaode
295,淮安中山医院,江苏省,淮安市,清河区,健康东路7号,,119.043448,33.602058,ChIJEzPr_8r0tzURSjd3e_5U9f8,B0FFF6XWR6,B0FFF6XWR6,gaode
296,淮北市中医院,安徽省,淮北市,相山区,人民中路186号,0561-3198018,116.790658,33.955368,ChIJwa7DSw9qzzURYibFKzxFvco,B02310050A,B02310050A,gaode
297,淮北阳光心理医院,安徽省,淮北市,相山区,孟山中路寇湾新村(东门)附近,0561-3118877,116.794051,33.919053,ChIJL50giIFqzzURG7J8iaJOycU,B023102CWF,B023102CWF,gaode
298,淮北友好妇产,安徽省,淮北市,相山区,孟山北路53号(三马路九州大厦南100米),0561-3899111,116.793284,33.966983,ChIJrTcRCf9pzzURYw5TcFqo-a8,B02310O2FX,B02310O2FX,gaode
299,黄冈泌尿专科医院,湖北省,黄冈市,黄州区,八一路5-5号,0713-8369111,114.870903,30.443351,ChIJvW1cAaWHLjQRF_mRZtDFt3I,B0FFGK31AK,B0FFGK31AK,gaode
300,黄石华中福康医院,湖北省,黄石市,西塞山区,黄石大道275号,0714-3099999;0714-3059999;4000163099,115.100472,30.209629,ChIJoxl6EwtoLjQR2b1H04d7Pp0,B02CA0MDQA,B02CA0MDQA,gaode
301,惠阳女子医院,广东省,惠州市,惠阳区,人民六路与演达路交叉口(琼苑大酒店右50米),,114.468643,22.775112,ChIJ29QJIVZmBDQRVaIOzOKx5lQ,B0FFF2HTQC,B0FFF2HTQC,gaode
302,惠州博罗现代医院,广东省,惠州市,博罗县,博义路90号(汽车西站往广州方向600米),0752-6226666;0752-6282120;15220700555,114.27415,23.171463,ChIJY9PVeqWbBDQRXPGoMrjGUG8,B02F0028KB,B02F0028KB,gaode
303,惠州东江泌尿专科医院,广东省,惠州市,惠城区,麦科特大道40号,0752-2282166;0752-2225888;4006009237,114.411461,23.075236,ChIJzWivYhOOBDQRABPFovquyHw,B02F00R9RS,B02F00R9RS,gaode
304,惠州仁德妇科医院,广东省,惠州市,惠城区,麦地路20号(天悦大酒店往汽车总站方向200米),0752-2370018;0752-2212222,114.402995,23.074917,ChIJG2kBhD-OBDQReQa9r0474qU,B02F003TAL,B02F003TAL,gaode
305,惠州伊丽莎白妇产医院,广东省,惠州市,惠城区,麦地东一路5号,0752-2762222,114.409371,23.064968,ChIJ-65G-WiOBDQRCp8SbV1PguA,B0FFF9LROC,B0FFF9LROC,gaode
306,吉安市第二人民医院,江西省,吉安市,吉州区,大巷口62号(距城南车站500米),0796-8313395;0796-8331387,114.983703,27.097131,ChIJXSxVCJMBIzQRak3_hXbUuWM,B031C005J0,B031C005J0,gaode
307,吉林省总队医院,吉林省,长春市,宽城区,农安南街766号,0431-82638825;0431-82628222;13578790133,125.296953,43.936794,ChIJPwaxUQJhOF4R-uf6_z9p69c,B01AF14RHX,B01AF14RHX,gaode
308,济南106医院,山东省,济南市,槐荫区,经十西路28722号,0531-69922232;0531-87296666,116.913388,36.650401,ChIJO_bjFmoOwjURGF5uugdA_Ok,B02130X3O1,B02130X3O1,gaode
309,济南艾玛妇产医院,山东省,济南市,历下区,窖头路1号,0531-82313333;0531-82313337,117.076959,36.655111,ChIJ_xh-AfoDwjURUGYfuC4hLPo,B0FFFQ7FII,B0FFFQ7FII,gaode
310,济南白癜风医院,山东省,济南市,天桥区,堤口路143号,0531-88753333;0531-55702177;4006913999,116.973501,36.67403,ChIJB6EotgoGwjURresuXtE8_sc,B02130UDY8,B02130UDY8,gaode
311,济南耳鼻喉眼科医院,山东省,济南市,市中区,英雄山路162号,0531-83178888,117.00501,36.618145,ChIJXSl0xUYFwjURrSFebFKKJe0,B0FFFPSPZ6,B0FFFPSPZ6,gaode
312,济南妇科医院,山东省,济南市,市中区,经十路21677号,0531-80969918;0531-80969999,116.992233,36.648964,ChIJN_jFMIIFwjURtOhhGuqturI,B0213052TJ,B0213052TJ,gaode
313,济南复元康复医院,山东省,济南市,历城区,祝舜路869号,0531-82621111;4000120170,117.088674,36.701133,ChIJZ75IOZ0GwjURyroqexFX2Jk,B02130XDWI,B02130XDWI,gaode
314,济南肛肠医院,山东省,济南市,市中区,英雄山路87,0531-82988881;0531-82988882;0531-82979999,117.000582,36.622952,ChIJUdtYRUIFwjUR3A37z2B1XYg,B021306R8U,B021306R8U,gaode
315,济南股骨头医院,山东省,济南市,市中区,段店南路124号,0531-87189799;0531-87901111;4000531781,116.934086,36.644029,ChIJeydTtksOwjURwLw37dTA7P0,B02130UCYA,B02130UCYA,gaode
316,济南骨科医院,山东省,济南市,市中区,英雄山路36-1号,0531-67966666;4000107799,116.997817,36.635708,ChIJD8Tq_m8FwjUR_Ewf3vKluuE,B021307X9Y,B021307X9Y,gaode
317,济南海峡美容整形医院,山东省,济南市,历城区,二环东路2828号(省图书馆北邻),0531-58710866;0531-58819999,117.074009,36.682997,ChIJPZS2HrQGwjURASJ7EiAg4_c,B0FFFEOI2M,B0FFFEOI2M,gaode
318,济南和谐妇科医院,山东省,济南市,历下区,黑虎泉北路61号(老东门附近),0531-66660197;0531-66660198,117.035765,36.672448,ChIJT7R8eCwEwjURjGf1Q7eOVK4,B02130W371,B02130W371,gaode
319,济南华夏医院,山东省,济南市,天桥区,北园大街598-1号(长途汽车总站东侧),0531-85922666;0531-85922338,116.999617,36.683782,ChIJIYWljuIFwjUR-AG6R-l39z8,B021305GE2,B021305GE2,gaode
320,济南九龙泌尿专科医院,山东省,济南市,天桥区,北园大街349号,0531-88982288;0531-66722222,117.032489,36.686227,ChIJ3af_NJIGwjURLeONdinoJGc,B021307UUI,B021307UUI,gaode
321,济南军区总医院,山东省,济南市,天桥区,师范路25号,0531-68812090;0531-51688195,116.982424,36.697026,ChIJ-we5TKkIwjUR9SEiiIOFDeY,B02130U2JB,B02130U2JB,gaode
322,济南坤如玛丽医院,山东省,济南市,天桥区,济南市天桥区少年路7号,,117.013301,36.672827,ChIJPaE_v9wFwjURpuWem3JnlS0,,ChIJPaE_v9wFwjURpuWem3JnlS0,google
323,济南六一儿童医院,山东省,济南市,历城区,二环东路3399-1号,0531-88786161,117.072832,36.676943,ChIJib5kBK4GwjUR2tr1A3MiHMI,B0FFFENODR,B0FFFENODR,gaode
324,济南美莱整形美容医院,山东省,济南市,历下区,文化东路76号(省杂技团西50米路南)省杂技团斜对面,0531-66598555;0531-66599555,117.048806,36.654653,ChIJua3ExTgEwjURGAGSJA-5BPg,B021307ALW,B021307ALW,gaode
325,济南美容整形医院,山东省,济南市,历下区,南门大街2号(泉城广场东临、泉城大酒店1层),0531-86078177;0531-86120677,117.027752,36.661098,ChIJNY_NycsFwjURvjaIlsluQzE,B021301E48,B021301E48,gaode
326,济南青华医院,山东省,济南市,市中区,英雄山路10-4号,0531-83189999;4006400989,116.997603,36.643467,ChIJDbcjg3cFwjURUVPIrTvySGY,B021306TIW,B021306TIW,gaode
327,济南仁品耳鼻喉专科医院,山东省,济南市,历城区,北园大街204号,4000282191,117.052179,36.692494,ChIJPSx-MusGwjURxAOpMWKv6bU,B02130U0F4,B02130U0F4,gaode
328,济南乳腺病医院,山东省,济南市,天桥区,少年路7号,0531-66677777;0531-67883376;18660816062,117.01328,36.672849,ChIJC76bF9sFwjURryD56UIVG2Q,B021307B6W,B021307B6W,gaode
329,济南神康医院,山东省,济南市,历城区,工业南路41号,0531-88190909,117.15348,36.697636,ChIJfaHiYjcAwjURF9ToheNCDn8,B021307BXD,B021307BXD,gaode
330,济南肾病医院,山东省,济南市,槐荫区,小清河北路西首新沙路1号,0531-55691111;0531-55691122;4000531222,116.946246,36.694273,ChIJg306vj8GwjURBF_ejWwT_50,B02130VTPP,B02130VTPP,gaode
331,济南圣玛丽亚妇产医院,山东省,济南市,市中区,二环南路1701号,0531-58696666,117.012661,36.597857,ChIJWQ-cxssawjUR9Loh3BO3f38,B0FFF3U2BX,B0FFF3U2BX,gaode
332,济南胃肠病医院,山东省,济南市,天桥区,北园大街328-1号,0531-66676999;0531-85897936,117.033561,36.685768,ChIJA0My9HkGwjURoLuoUupYASs,B02130YSO6,B02130YSO6,gaode
333,济南五洲医院,山东省,济南市,天桥区,无影山路21-2号,0531-85861199;0531-85909019;4000119095,116.976694,36.690327,ChIJD8WWKVMPwjURpKYX9aWRj_A,B021307WET,B021307WET,gaode
334,济南西京白癜风医院,山东省,济南市,历下区,趵突泉北路6号(五龙潭公园东门对面),0531-87989999;4001508766,117.016605,36.66645,ChIJE_3jJsQFwjURHM1y5z2tcPQ,B02130VQ98,B02130VQ98,gaode
335,济南现代皮肤病医院,山东省,济南市,历下区,健康路11号,0531-58816666;0531-86985688;4006123696,117.046101,36.64808,ChIJy77az0UEwjURbN3vZlVM55k,B021307EZ7,B021307EZ7,gaode
336,济南哮喘病医院,山东省,济南市,市中区,英雄山路412号(二环南路口东北侧),0531-66621115;0531-66621111;4006053105,117.002619,36.598531,ChIJIxYfTbEawjUR4aPnuMMS0Xw,B02130U19C,B02130U19C,gaode
337,济南协和肝病医院,山东省,济南市,天桥区,济泺路112-1号,0531-89006006;0531-85811138,116.994648,36.691879,ChIJh19VyQUGwjUR4TtKnXht4MA,B021307XW2,B021307XW2,gaode
338,济南血液病医院,山东省,济南市,历城区,祝舜路969号(上海花园北门对过),0531-86953333;4006780120,117.088413,36.70098,ChIJ79zt-CgBwjURJNmh6dsfstU,B0FFFEOR70,B0FFFEOR70,gaode
339,济南阳光女子医院,山东省,济南市,历下区,泺源大街168号,0531-86900055;0531-86900066;0531-86928282,117.016941,36.659355,ChIJibPt8bgFwjUR_UDvRcEY1Lw,B02130W0GK,B02130W0GK,gaode
340,济南银屑病医院,山东省,济南市,历城区,工业北路223-1号,0531-88012345;0531-68817120,117.083166,36.711763,ChIJ5aAettMAwjUR720-mAwG4g0,B02130VZVE,B02130VZVE,gaode
341,济南真爱妇科医院,山东省,济南市,市中区,大纬二路59号,0531-86266966,116.997558,36.657353,ChIJWf5rJZAFwjURO54xmHUnP_c,B021307SS8,B021307SS8,gaode
342,济南中德骨科医院,山东省,济南市,天桥区,济齐路22号,0531-85555120;0531-68690000,116.956786,36.678137,ChIJMcZDjj4PwjURIwRh1wb89DA,B021307VRE,B021307VRE,gaode
343,济南中山医院,山东省,济南市,历下区,燕子山路10-1号,0531-85922222,117.065018,36.66202,ChIJEznGBRsEwjURnTY1lRNyF6Y,B02130WENQ,B02130WENQ,gaode
344,济南中研皮肤病医院,山东省,济南市,槐荫区,经六路904号(槐荫区法院旁),0531-62337888;0531-55625813;15165002102,116.932549,36.657076,ChIJ6cBUGVQOwjURdLlios7UNSU,B0FFF5STE1,B0FFF5STE1,gaode
345,济南中医不孕不育医院,山东省,济南市,槐荫区,经六路延长线段北东路21号,0531-66779999;0531-81612602;4006566120,116.939478,36.656937,ChIJTe-jNaoPwjURQ8AvLAGP5c4,B021307Y7Y,B021307Y7Y,gaode
346,济南中医风湿病医院,山东省,济南市,天桥区,明湖西路111号,0531-55589999;4008008881,117.014391,36.676838,ChIJl2D9R9wFwjURjvWJD3jSMeQ,B02130VZ26,B02130VZ26,gaode
347,济南中医肝病医院,山东省,济南市,天桥区,无影山中路101号(天桥区法院对面),0531-88252222;0531-89829999,116.967897,36.683709,ChIJ6cqoT08PwjUR9K6I2S2c2qY,B021307X7K,B021307X7K,gaode
348,济南中医精神专科医院,山东省,济南市,历城区,济南二环东路3879号,0531-82955376;0531-82955375,117.072786,36.67245,ChIJtRJMqq4GwjURqyiFST0OftU,B0FFGMNTGZ,B0FFGMNTGZ,gaode
349,济南中医静脉曲张医院,山东省,济南市,历下区,工业南路93号,0531-86972999;0531-88193101;4000900120,117.086576,36.674801,ChIJG5QNPU4BwjURi01sf68eynA,B0FFF0EM8X,B0FFF0EM8X,gaode
350,济宁博仕医院,山东省,济宁市,任城区,建设北路(汽车北站北邻),0537-3929866;0537-3163120,116.596085,35.42978,ChIJyZoWTrt6xDURjhbLC-gHwlc,B0FFF70J7M,B0FFF70J7M,gaode
351,嘉兴博爱门诊部,浙江省,嘉兴市,南湖区,中山东路265号(近汽车西站斜对面),0573-82056999;4008871120,120.734311,30.759909,ChIJ_QImY0IlszURwwp7httmnKM,B0FFFD8LJB,B0FFFD8LJB,gaode
352,嘉兴海宁博爱医院,浙江省,嘉兴市,南湖区,中山东路1291号,0573-82056999;4008871120,120.734231,30.75989,ChIJNaf_PvvNTDQRHXscLkL9m1s,B023D02D80,B023D02D80,gaode
353,嘉兴曙光中西医结合医院,浙江省,嘉兴市,南湖区,中环南路与纺工路交叉口,0573-82535541;0573-82535566;0573-82535501,120.771925,30.737882,ChIJT6SLMYglszURNzTVuk679Mk,B023D01FAK,B023D01FAK,gaode
354,江门玛丽妇科医院,广东省,江门市,蓬江区,江门市蓬江区迎宾大道西,+86 750 323 3333,113.06899,22.591851,ChIJHTBWI8s8AjQRp2ic3Z508-c,,ChIJHTBWI8s8AjQRp2ic3Z508-c,google
355,江门市福康门诊部,广东省,江门市,蓬江区,建设路49号江门市老汽车总站往广州方向500米,0750-3270999;0750-3276181,113.081662,22.588535,ChIJGaMRJk0jAjQRLV6HMVqrluM,B02EE01RS5,B02EE01RS5,gaode
356,江苏海安华山医院,江苏省,南通市,海安县,"宁海南路28号(七战七捷纪念馆向北288米,新文峰向南58米)",0513-88916633,120.470353,32.537628,ChIJQ4qsgM8jsTURZPNVQuqGHIU,B0201037F6,B0201037F6,gaode
357,江苏省宜兴市十里牌医院,江苏省,无锡市,宜兴市,阳泉西路156号,0510-87229852;0510-87932074,119.824066,31.37905,ChIJSfqXg42MtDURDcEKTU3eSNQ,B01FE030RU,B01FE030RU,gaode
358,江苏施尔美整形美容医院,江苏省,南京市,秦淮区,太平南路389号凤凰和睿大厦101-201-301室,025-83533399;4006900188,118.791145,32.029289,ChIJoeWgZ_qMtTURO-ZdpBygp4o,B0FFG8WD7Q,B0FFG8WD7Q,gaode
359,江苏太仓新安康复医院,江苏省,苏州市,太仓市,陆渡镇郑和中路179号,0512-53453333,121.171018,31.472498,ChIJ9R4ES7M4sjURATeKsLJPbow,B020007ZPX,B020007ZPX,gaode
360,江苏泰州红房子母婴护理中心,江苏省,泰州市,姜堰区,嘉中名苑曲江路63号(人民医院对面),0523-88980518;17705268280,120.156364,32.506462,,B0FFFPKAOF,B0FFFPKAOF,gaode
361,江西省南昌军区医院,江西省,南昌市,东湖区,爱国路269号,0791-86821166,115.894911,28.693716,ChIJiTHn8qi5OjQRTdrHRVbXfSw,B03170TYAX,B03170TYAX,gaode
362,江西武警总队医院,江西省,南昌市,青云谱区,迎宾北大道808号,4000739120;0791-86279988,115.90642,28.616818,ChIJY9yhdu3GOjQREfgK9gxwzQg,B03170S131,B03170S131,gaode
363,江西新视界眼科医院,江西省,南昌市,西湖区,永叔路15号信达大厦,0791-88661188;0791-86861267;4000651818,115.903129,28.667484,ChIJ6V5XUKq5OjQRxKcelOcR6vQ,B03170SZQV,B03170SZQV,gaode
364,江阴东方女子医院,江苏省,无锡市,江阴市,绮山路88号,,120.286189,31.897064,ChIJdVgDhFL6szURm_nf0HUYCbg,B01FE0IGD9,B01FE0IGD9,gaode
365,江阴九龙医院,江苏省,无锡市,江阴市,人民东路629号,0510-86276666;4000913120,120.293947,31.898071,ChIJgf6gJav7szURPZ9Tsm3y3lo,B01FE0JUOL,B01FE0JUOL,gaode
366,焦作东大肛肠医院,河南省,焦作市,山阳区,建设中路70号(市博物馆西邻),0391-3997212;18348216979,113.249283,35.237651,ChIJ1R7rw9I22DUR2B--AvgxBTM,B018700UIM,B018700UIM,gaode
367,解放军第105医院,安徽省,合肥市,蜀山区,长江西路424号,0551-65966510,117.247517,31.853629,ChIJmbu98V5hyzUR4FCDf9IztOE,B022715XPG,B022715XPG,gaode
368,解放军第107医院,山东省,烟台市,芝罘区,只楚南路7号,0535-2933778,121.314146,37.530803,ChIJjX2BkENhkDURyxgV17z7pZ0,B02170RCID,B02170RCID,gaode
369,解放军第12医院,新疆维吾尔自治区,喀什地区,疏勒县,疏勒镇阔纳巴扎路13号,0998-6523456,76.068007,39.411552,,B03E60NGZN,B03E60NGZN,gaode
370,解放军第154医院,河南省,信阳市,浉河区,南湖路104号,0376-6332201,114.044374,32.131701,ChIJBzlc56is1DURwwXrIIWrb1o,B01780QVSY,B01780QVSY,gaode
371,解放军第155医院,河南省,开封市,禹王台区,医院前街3号中国人民解放军第一五五中心医院内,,114.343729,34.780253,ChIJ2c354QwI2jUR0uJCrM019W8,B0FFGEM67Z,B0FFGEM67Z,gaode
372,解放军第159医院,河南省,驻马店市,驿城区,风光路南段1号,0396-2957010;0396-2957011;0396-2957405,114.039074,32.955821,ChIJrdBDQxh61DURk21MqJ6mnbo,B018C0NQXW,B018C0NQXW,gaode
373,解放军第161医院,湖北省,武汉市,江岸区,黄浦大街68号,027-82906666;027-50169114,114.308818,30.614646,ChIJYaCEmcmoLjQRuZRWHgxNFVA,B001B16SHS,B001B16SHS,gaode
374,解放军第163医院,湖南省,长沙市,开福区,洪山桥1号,,113.016472,28.244851,ChIJ_-cA4xY2JzQRUQKj6A4ZRpE,B02DB0UDSO,B02DB0UDSO,gaode
375,解放军第169医院,湖南省,衡阳市,珠晖区,东风南路369号,0734-8466161;0734-8198169;0734-8483213,112.665183,26.871186,ChIJhWSLsSsHIDQRy1S094P1NKQ,B02DE0PWJ6,B02DE0PWJ6,gaode
376,解放军第184医院,江西省,鹰潭市,月湖区,湖东路4号,0701-6699184,117.054067,28.244475,,B02BD0M5XA,B02BD0M5XA,gaode
377,解放军第222医院,吉林省,吉林市,船营区,越山路340号,0432-62125222;0432-66961000,126.530994,43.856629,ChIJ-aJlxGQDSF4R7zGozv1sx5A,B01B00R9RO,B01B00R9RO,gaode
378,解放军第224医院,黑龙江省,佳木斯市,前进区,中山街437号,0454-5667778;0454-8780320;4006587120,130.376542,46.794693,,B01C60045C,B01C60045C,gaode
379,解放军第251医院,河北省,张家口市,桥东区,建国路13号,0313-8785000;0313-8785770;0313-8785012,114.899425,40.806796,ChIJC4Gxws3M-zURjZC5H_RCctI,B01390PAPI,B01390PAPI,gaode
380,解放军第253医院,内蒙古自治区,呼和浩特市,新城区,爱民路111号,0471-6514755,111.675416,40.843171,ChIJjX3EnKVIBjYRs7Rr9_couag,B01D70QJ5Q,B01D70QJ5Q,gaode
381,解放军第254医院,天津市,天津市,河北区,黄纬路60号,022-84683038;022-84683114,117.191445,39.162287,ChIJrSd-oQ7-7TURskKljzQAGlQ,B001614SST,B001614SST,gaode
382,解放军第263医院,北京市,北京市,通州区,永顺南街141号(近通州八里桥批发市场),010-66856510;010-52102063,116.647178,39.915133,ChIJG6g8F3um8TUR0I15TSruXC8,B000A8VXS7,B000A8VXS7,gaode
383,解放军第264医院,山西省,太原市,迎泽区,桥东街30号,0351-4926111;0351-4926026;0351-4988052,112.578222,37.856339,ChIJ84dJoKapCjYRCFhjrHpI9mk,B015F14SV6,B015F14SV6,gaode
384,解放军第273医院,新疆维吾尔自治区,巴音郭楞蒙古自治州,库尔勒市,铁门关路9号,0996-2331116,86.16389,41.780779,,B0FFF2GU3J,B0FFF2GU3J,gaode
385,解放军第285医院,河北省,邯郸市,邯郸县,南环路3号(渚河路邮政社区服务中心西50米),0310-8024413;0310-4459511,114.520805,36.586403,ChIJpyufh_c13DURHv42L6d32qQ,B01360NYPO,B01360NYPO,gaode
386,解放军第303医院,广西壮族自治区,南宁市,青秀区,植物路52号,0771-2870200;0771-2870303,108.332695,22.794967,ChIJecwfNMruszYRtZQFcQ0YH8k,B03030TJRA,B03030TJRA,gaode
387,解放军第307医院,北京市,北京市,丰台区,东大街8号,010-66947114,116.295623,39.861984,ChIJP-yUVelO8DUR-RLNX-KFSvc,B000A8W5A8,B000A8W5A8,gaode
388,解放军第309医院,北京市,北京市,海淀区,黑山扈路甲17号,010-66775961;010-62826979,116.265599,40.022733,ChIJq3vmWRdX8DURP4vrNmE_Gew,B0FFF2DZD3,B0FFF2DZD3,gaode
389,解放军第321医院,吉林省,白城市,洮北区,海明西路81号,0436-3322342,122.821318,45.611594,ChIJn9snR5_9al4RzEyENajws9w,B01B40M66B,B01B40M66B,gaode
390,解放军第322医院,山西省,大同市,城区,云中路2号,0352-3229999;0352-5783113,113.281584,40.087855,ChIJMZoD0IjT4jURZokIDv94ckE,B0FFGFEQHI,B0FFGFEQHI,gaode
391,解放军第324医院,重庆市,重庆市,江北区,建新东路29号(近十八中),023-68762120;023-68762100,106.540317,29.574785,ChIJ2ZESG1QzkzYRutE0Mju8DS4,B00178Z8DB,B00178Z8DB,gaode
392,解放军第371医院,河南省,新乡市,红旗区,文化街210号,0373-5081371,113.875416,35.289576,ChIJS1tkIUSR2TURVW9_Y-BaaxQ,B0FFGED91Y,B0FFGED91Y,gaode
393,解放军第411医院,上海市,上海市,虹口区,东江湾路15号大楼,021-56969799;021-65876866;021-81867114,121.480523,31.265135,ChIJ-507t6RxsjURl5SrtLSYIiM,B00156PNKT,B00156PNKT,gaode
394,解放军第422医院,广东省,湛江市,霞山区,海滨三路40号,0759-3232120;0759-2089999;0759-3566422,110.419763,21.224293,ChIJw8JuB08pUzERCCk6mymO-8w,B02F70OEKM,B02F70OEKM,gaode
395,解放军第44医院,贵州省,贵阳市,花溪区,黄河路64号,0851-83896999;0851-85723333,106.700256,26.520678,ChIJA039Bj5dvzYRwVRo_vhe5m4,B03530RLIJ,B03530RLIJ,gaode
396,解放军第451医院,陕西省,西安市,碑林区,友谊东路269号,029-84734114;029-84734017,108.967464,34.242504,ChIJ_QLYMJx6YzYRj-bJdnllnYA,B001D0ZLP1,B001D0ZLP1,gaode
397,解放军第452医院,四川省,成都市,锦江区,九眼桥顺江路18号,028-84523990;028-66004120,104.095059,30.63318,ChIJwxDqnnvF7zYRvSigr24xxQg,B001C8ORJX,B001C8ORJX,gaode
398,解放军第454医院,江苏省,南京市,秦淮区,马路街1号,025-80865515;025-80865000;025-86649838,118.798181,32.029387,ChIJERWqsPeMtTUROhIOou6uNbQ,B00190YYXX,B00190YYXX,gaode
399,解放军第457医院,湖北省,武汉市,江岸区,工农兵路15号,027-82961457,114.30478,30.620564,ChIJiUlipMioLjQRw7gvtgySEH0,B001B16QU1,B001B16QU1,gaode
400,解放军第458医院,广东省,广州市,越秀区,东风东路801号,020-61639514,113.313292,23.131926,ChIJvboRKRn_AjQRPufa5I-H5Cc,B00141SVWR,B00141SVWR,gaode
401,解放军第463医院,辽宁省,沈阳市,大东区,小河沿路46号,024-24342463,123.475341,41.794057,ChIJB05qHYKIL14R47h2MNWBGI4,B0018171W8,B0018171W8,gaode
402,解放军第464医院,天津市,天津市,南开区,红旗南路600号,022-58280906,117.182988,39.067955,ChIJcWcn07Hi7TURVUG08VLb6f4,B0FFF65TPV,B0FFF65TPV,gaode
403,解放军第474医院,新疆维吾尔自治区,乌鲁木齐市,新市区,北京中路754号,0991-5954114,87.553631,43.886149,ChIJLR6cXo4CBjgRoyJixZ_WqHk,B0FFF91CCQ,B0FFF91CCQ,gaode
404,解放军第476医院,福建省,福州市,仓山区,洪山桥郭厝里90号,0591-88611911;0591-88003807,119.247492,26.072843,,B0FFFU5GUW,B0FFFU5GUW,gaode
405,解放军第478医院,云南省,昆明市,官渡区,关上双桥路299号空军医院,4006239120,102.742689,25.008192,ChIJs4Ufzs6G0DYRVXipli2KAyk,B03670VNPA,B03670VNPA,gaode
406,解放军第534医院,河南省,洛阳市,涧西区,拥军路与瀛洲北路交汇处,0379-61833120,112.385689,34.636285,ChIJEy_dT3RleDYRSisy_Qy5ziE,B017B02WIZ,B017B02WIZ,gaode
407,解放军第535医院,湖南省,怀化市,鹤城区,迎丰东路535号(怀化学院对面),0745-2851555,110.018408,27.574036,ChIJh29ln8FBmDYRQQK427Xpc84,B02E90PN71,B02E90PN71,gaode
408,解放军第536医院,青海省,西宁市,城东区,门诊大楼1楼,,101.802471,36.603864,ChIJx_GnihwMUjYRtzcC26_ZHn4,B03CB0ZJDD,B03CB0ZJDD,gaode
409,解放军第5医院,宁夏回族自治区,银川市,兴庆区,胜利街893号,0951-2986114;0951-2986120,106.281284,38.431353,ChIJb922EnI8QDYRGJBVZvs7Qak,B0FFF6VZHF,B0FFF6VZHF,gaode
410,解放军第81医院,江苏省,南京市,秦淮区,常府街三十四标34号,025-84514181;025-80864419;025-85868181,118.794506,32.034824,ChIJPSb6afSMtTURgdLC8fb8aRE,B00190YYXU,B00190YYXU,gaode
411,解放军第88医院,山东省,泰安市,泰山区,虎山东路6号,0538-8839114,117.135988,36.206599,ChIJj32flK0pwjURPNf9bXvcPyY,B021A0NZWD,B021A0NZWD,gaode
412,解放军第97医院,江苏省,徐州市,云龙区,铜山路226号,0516-83349114;0516-83349120;0516-83349400,117.222545,34.262209,ChIJBWnPbDMGxjURHjmq7hZb63s,B02040R9SX,B02040R9SX,gaode
413,解放军火箭军总医院,北京市,北京市,西城区,新街口外大街16号,010-66343337,116.372333,39.956739,ChIJkdkO43lT8DUROTkpEsqw668,B000A8VWEZ,B000A8VWEZ,gaode
414,金华博康生殖医院,浙江省,金华市,金东区,人民东路1405号(近东关邮局),0579-82111599;0579-82115888;4000579727,119.678046,29.112368,ChIJVX45xZYTSTQRBhFRJ13Vmhg,B024315R18,B024315R18,gaode
415,晋城博大生殖医学专科医院,山西省,晋城市,城区,泽州路1918号(泽州路七天酒店旁),0356-2063999,112.855026,35.494491,ChIJOaydBGNu2DURTBujvqmWrPs,B01640MGFE,B01640MGFE,gaode
416,晋城市妇幼保健院长治分院,山西省,长治市,城区,延安南路108号,0355-3026371,113.115354,36.173005,ChIJcWvQ7_XF2DURkj_mJwmsfX0,B0FFGKDKU8,B0FFGKDKU8,gaode
417,晋城现代女子医院,山西省,晋城市,城区,建设北路1489号(12层粉红大楼),0356-2023333,112.849749,35.497491,ChIJ3W3cNmRu2DURsnsBTlgsVc4,B01640MFEM,B01640MFEM,gaode
418,荆州华康医院,湖北省,荆州市,荆州区,江津西路439号(荆州古城东门外100米),0716-8516000,112.220748,30.345266,ChIJifiZ09j0gjYREqY6x4l4VXc,B02CC010FD,B02CC010FD,gaode
419,九江玛丽亚医院,江西省,九江市,浔阳区,滨江路75号(原九九商城往前50米),0792-8239120;0792-8805999,115.980415,29.723366,ChIJIx0DvLnLMTQRXYHpQ2h8K_Q,B031801OHT,B031801OHT,gaode
420,九江新世纪男科医院,江西省,九江市,浔阳区,庐山路8号(原九九商城往前20米),0792-8107773;0792-8107771,115.981002,29.722784,ChIJK_UB67nLMTQR__3fpE6Vc7o,B03180U0GL,B03180U0GL,gaode
421,库乐勒仁爱妇产医院,新疆维吾尔自治区,巴音郭楞蒙古自治州,库尔勒市,建国北路巴音小区门口,0996-2080886;0996-8867777,86.1383,41.768449,,B03E40MAI3,B03E40MAI3,gaode
422,昆明东大肛肠医院,云南省,昆明市,官渡区,环城南路498号(双龙桥往东100米),0871-63545809;0871-68055555,102.716138,25.02353,ChIJyyd2zVWB0DYRBkjtUZQYfGM,B0367089LL,B0367089LL,gaode
423,昆明肛泰肛肠医院,云南省,昆明市,五华区,青年路1号近昆明动物园,0871-65220666;0871-68391120,102.714037,25.053943,ChIJ-ccWUn2B0DYRTDl-_gy3m-A,B03670W7MN,B03670W7MN,gaode
424,昆明骨科医院,云南省,昆明市,西山区,希望路与日兴东路路口,0871-67333349,102.712202,25.000996,ChIJ75VwCx6E0DYRpr-qy_SjSLs,B0367085KO,B0367085KO,gaode
425,昆明华美美莱整形医院,云南省,昆明市,五华区,青年路95号(红会医院斜对面),0871-66199999;0871-66151888,102.715026,25.049006,ChIJzyb-FmKB0DYRiXsG1DVQ6xQ,B036704VY5,B036704VY5,gaode
426,昆明丽都医疗美容医院,云南省,昆明市,五华区,龙泉路68号,0871-68880999;0871-68380999,102.708712,25.066397,ChIJo7sSTyuC0DYRnqhbakIOfEA,B03670859W,B03670859W,gaode
427,昆明西昌路医院,云南省,昆明市,西山区,昆明市西山区西昌路296号,,102.701865,25.030707,ChIJwzH84OuD0DYRsDiwEfrEshU,,ChIJwzH84OuD0DYRsDiwEfrEshU,google
428,昆明阳光医院,云南省,昆明市,西山区,昆明市西山区福康路福海乡田家地219,,102.680027,25.008511,ChIJB8S27G-E0DYRwVoI27fP30o,,ChIJB8S27G-E0DYRwVoI27fP30o,google
429,昆明中英安琪儿妇产医院,云南省,昆明市,五华区,滇缅大道199号,0871-67379999,102.689583,25.052916,ChIJYcn9ibiD0DYRQ_F_i1wYzwQ,B036711PNQ,B036711PNQ,gaode
430,昆山虹桥医院,江苏省,苏州市,昆山市,长江中路69号,0512-57395999;0512-57399999,120.98032,31.370115,ChIJ9Wffe9xNsjUR05fWTXBmfNs,B0200073ZF,B0200073ZF,gaode
431,昆山南站门诊部,江苏省,苏州市,昆山市,中华园路828号,0512-55123555,120.958334,31.356718,ChIJC3v6vI5NsjURPoDP8_5EUxQ,B0200176ZE,B0200176ZE,gaode
432,昆山阳光医院,江苏省,苏州市,昆山市,苏州市昆山市永记路,+86 512 5727 5666,120.955693,31.313483,ChIJVY8Tyk1SsjURfrPeBsNyH90,,ChIJVY8Tyk1SsjURfrPeBsNyH90,google
433,拉萨阳光泌尿生殖医院,西藏自治区,拉萨市,城关区,夺底北路42号(慈松塘路口),0891-6376666,91.146994,29.676935,ChIJ-dYOqO8zYTcR29X8kSHPbVo,B037B0OBO8,B037B0OBO8,gaode
434,兰州军康医院,甘肃省,兰州市,城关区,正宁路4号,0931-8107711;0931-8107733,103.822726,36.0488,ChIJTS1lbOKTWjYRVJuRLUGKWio,B03A30YU02,B03A30YU02,gaode
435,兰州仁和医院,甘肃省,兰州市,城关区,金昌南路3号五泉山公园下广场,0931-8110399;0931-8113156;4006460399,103.82852,36.041169,ChIJV_hX9d2TWjYRQ7eXY52CeGQ,B03A30AQ8A,B03A30AQ8A,gaode
436,兰州瑞京糖尿病医院,甘肃省,兰州市,城关区,火车站东路326号(客运站东侧),0931-8616999;4006468616,103.856523,36.035391,ChIJR4R01aKTWjYRCZiA_gVjlHM,B03A30XKPB,B03A30XKPB,gaode
437,兰州五洲皮肤病医院,甘肃省,兰州市,七里河区,南滨河中路131号小西湖公园北门西侧,0931-2611111;18793111390,103.795205,36.067237,ChIJseAmJsuWWjYRDX2la1ofHJA,B03A30XUQ1,B03A30XUQ1,gaode
438,兰州西京医院,甘肃省,兰州市,七里河区,西站东路27号,0931-2851120;0931-2916313,103.771855,36.066095,ChIJv1XSVtSQWjYRdPXLoHklx0Q,B03A30XPKB,B03A30XPKB,gaode
439,廊坊世纪协和医院,河北省,廊坊市,广阳区,新华路4号(火车站旁),0316-2042666;0316-2041666,116.708804,39.512687,ChIJ5120N1HD8TURVZrl1W6KGhM,B013C0130A,B013C0130A,gaode
440,廊坊万福医院,河北省,廊坊市,广阳区,新华路136号(广阳道和新华路交叉口),0316-5269999,116.70556,39.540014,ChIJpWL2SnzD8TURY2FeBDye12A,B013C01O5P,B013C01O5P,gaode
441,乐清柳台医院,浙江省,温州市,乐清市,柳市镇环城东路401号,0577-61756111;0577-61756120,120.910132,28.046629,ChIJrWl632idTzQRJtsTPJ9RqLo,B024103BLA,B024103BLA,gaode
442,连江中山医院,福建省,福州市,连江县,凤城镇玉荷西路623号,0591-26221200;4009028120,119.530974,26.19409,ChIJTaumdcEGQTQRP82bY6e2Q80,B024F0058C,B024F0058C,gaode
443,凉山妇产医院,四川省,凉山彝族自治州,西昌市,胜利东路96号,0834-2233333,102.256475,27.885499,ChIJvwW7P37v3TYRFtC8WaGbwsc,B034202WYK,B034202WYK,gaode
444,凉山华西医院,四川省,凉山彝族自治州,西昌市,凯乐路73号(长安菜市场后门旁),0834-2899999,102.238761,27.887471,ChIJp5ROOZzl3TYRYk_CjKwg0Ec,B034202U47,B034202U47,gaode
445,凉山生殖健康医院,四川省,凉山彝族自治州,西昌市,胜利南路111号(人才市场),0834-2681222;0834-3298888,102.255785,27.885141,ChIJK_2YEX7v3TYRfixm9Npppxo,B034202WW8,B034202WW8,gaode
446,凉山王氏骨科医院,四川省,凉山彝族自治州,西昌市,西郊乡航天大道三段36号,0834-2222120,102.258967,27.875377,ChIJfQ2aCmPv3TYRHQn0tWrBz28,B034201CTU,B034201CTU,gaode
447,辽宁省军区门诊部,辽宁省,沈阳市,皇姑区,北陵大街49号(近泰山东路),024-86272158,123.429095,41.838427,ChIJK8rFLvNiJV4RGeya63SBuO4,B0FFF5ATQR,B0FFF5ATQR,gaode
448,聊城东昌府三医院,山东省,聊城市,东昌府区,站前街79号,0635-8426120;0635-8423045,115.940191,36.432262,ChIJkcLKy4jewjURKdPRE2u4xCc,B027B02MFN,B027B02MFN,gaode
449,聊城仁爱医院,山东省,聊城市,东昌府区,兴华西路22号,0635-8263888;0635-8317999,115.98517,36.46278,ChIJEXV3rTfcwjURiDzI8QepbGU,B027B016D5,B027B016D5,gaode
450,临汾现代女子医院,山西省,临汾市,尧都区,五一西路34号建行小企业中心现代女子医院旁,0357-2313333;0357-2152263,111.516369,36.071415,ChIJkS4yZNPgdjYRYGQFyExgfWE,B01650A0ML,B01650A0ML,gaode
451,临沂丽人医院,山东省,临沂市,兰山区,金源路307号(临西一路与金四路交汇处),0539-2027888;0539-2968888,118.330672,35.041155,ChIJRwb2RLxJxzUREGddwIBKmHc,B021B0BWC4,B021B0BWC4,gaode
452,临沂中西医结合医院,山东省,临沂市,兰山区,"金雀山一路135号,乘车路线:12路,36路,38路(临沂七中斜对北,恒基酒店东侧)",0539-2908120;0539-2909999,118.322126,35.051129,ChIJ2ZB6T-tJxzURZk21Eu2Xvvc,B021B05AB0,B021B05AB0,gaode
453,浏阳恒生年轮骨科医院,湖南省,长沙市,岳麓区,集里淮川西街20号,0731-88827120,112.938794,28.228175,ChIJd-08SR_PJjQRu44KvtO2RZs,B0FFGSXEQY,B0FFGSXEQY,gaode
454,柳州东大肛肠医院,广西壮族自治区,柳州市,柳北区,广雅路29号(广雅路与雅儒路交汇处),0772-2808061;0772-2803197,109.403654,24.322412,ChIJmV7jDEgGsDYRt2D3akI06i4,B030402M89,B030402M89,gaode
455,柳州福康医院,广西壮族自治区,柳州市,鱼峰区,燎原路20-2号(白云小区旁),0772-3142999;0772-3112999,109.438629,24.293659,ChIJf6IZupoGsDYRq5k1dBl7C1I,B030401LZB,B030401LZB,gaode
456,六安艾玛妇产医院,安徽省,六安市,裕安区,磨子潭路东200米,,116.483217,31.726199,ChIJ25imKOLWzDURqd3bEJPZ2eE,B0FFFZT2G0,B0FFFZT2G0,gaode
457,龙岩牡丹妇产医院,福建省,龙岩市,新罗区,曹溪北路146号,0597-2966666,117.02768,25.068975,ChIJTx0TmeOaFjQRqVG575h2yyE,B0FFG7OTW2,B0FFG7OTW2,gaode
458,龙岩女子医院,福建省,龙岩市,新罗区,曹溪北路西50米,0597-2966666,117.027626,25.068911,ChIJhyPpIteaFjQRMpfv357r2JU,B02550OQYH,B02550OQYH,gaode
459,龙岩新阳光医院,福建省,龙岩市,新罗区,西安南路苏溪农贸市场A座,0597-2555555,117.026743,25.086636,ChIJyabai9maFjQR7jziOUdNy18,B02550O9RU,B02550O9RU,gaode
460,娄底阳光医院,湖南省,娄底市,娄星区,大汉大道东418号,0738-6793335;0738-6691120,112.000023,27.751287,ChIJDegdqFhQnjYRb4vP-7e7Xg4,B0FFF01QK4,B0FFF01QK4,gaode
461,泸州东大肛肠医院,四川省,泸州市,江阳区,澄溪口中平远路1号,0830-3171888;0830-3175000;4000484120,105.454452,28.881219,ChIJawtlsCy-6zYRHC_5YK9Fk9E,B033E017VL,B033E017VL,gaode
462,罗源中山门诊部,福建省,福州市,罗源县,"南大路, 罗源县, 福州市",+86 591 2682 0222,119.54741,26.484703,ChIJs4d4OmUiQTQR_oiHkJFJ-BI,,ChIJs4d4OmUiQTQR_oiHkJFJ-BI,google
463,洛阳博爱眼科医院,河南省,洛阳市,西工区,中州中路213号(原总工会大厦),0379-63698958;0379-63656666,112.45321,34.675861,ChIJWb0G1UlweDYRg4SyidDzh9E,B017B0OX0U,B017B0OX0U,gaode
464,洛阳东大肛肠医院,河南省,洛阳市,涧西区,中州西路与太原路交叉口(消防队西邻),0379-64909199;0379-64518189,112.403055,34.66371,ChIJ7Tos7pJveDYRoXqm8n1XLbI,B017B01I99,B017B01I99,gaode
465,洛阳牡丹妇产医院,河南省,洛阳市,涧西区,南昌路1号,0379-68611159;0379-65169999,112.401039,34.654823,ChIJAfd6totveDYRVMZXKT2qUD4,B017B01PH9,B017B01PH9,gaode
466,洛阳武警医院,河南省,郑州市,二七区,郑州市二七区康复中街,+86 371 6696 9787,113.648716,34.744627,ChIJ3Rw-7fNl1zUR661KgHD-lfs,,ChIJ3Rw-7fNl1zUR661KgHD-lfs,google
467,漯河东方医院,河南省,漯河市,源汇区,滨河路447号,0395-2912000;0395-2118333,114.040652,33.577934,ChIJEbgMiKWu1jURgYcPsoK4zos,B0FFF2BQOL,B0FFF2BQOL,gaode
468,马尾博爱门诊部,福建省,福州市,马尾区,儒江快安路,0591-83972533,119.421501,26.017951,ChIJwS-rZTKtQTQRcvqvVwinHJc,B024F056KI,B024F056KI,gaode
469,马尾福兴医院,福建省,福州市,马尾区,"480 福马路, 福州市",+86 591 8805 5116,119.353265,26.072042,ChIJ6UHA8JNTQDQROJi7zkRr7N4,,ChIJ6UHA8JNTQDQROJi7zkRr7N4,google
470,马尾罗星塔门诊部,福建省,福州市,马尾区,港口路47号,,119.45672,25.982646,ChIJ453aQ3ytQTQRPF6XdSnstC8,B024F0VAM5,B024F0VAM5,gaode
471,闽候东方妇科医院,福建省,福州市,闽侯县,"国宾大道, 闽侯县, 福州市",+86 591 6219 6998,119.204042,26.068587,ChIJi3YJOfJaQDQR_d-IrYJl05E,,ChIJi3YJOfJaQDQR_d-IrYJl05E,google
472,闽清中山门诊部,福建省,福州市,闽清县,解放大街闽运长途汽车站2楼,4006029696,118.858718,26.21919,ChIJV71ZxDBjQDQRl5Hm_a8YOSE,B024F058HJ,B024F058HJ,gaode
473,南安五洲医院,福建省,泉州市,南安市,河滨路238号,0595-86363120,118.38379,24.964212,ChIJU7KqBC_fFDQR2x8KzaNiTJI,B02530RWPQ,B02530RWPQ,gaode
474,南昌艾玛妇产医院,江西省,南昌市,西湖区,三眼井街39号(近新四军旧址),0791-82113333,115.896304,28.667642,ChIJpXy13V64OjQRz2s1uc3rb6Y,B03170TM57,B03170TM57,gaode
475,南昌博爱泌尿专科医院,江西省,南昌市,东湖区,胜利路355号(近江西出版大厦),0791-86658922;0791-86823322,115.886684,28.686216,ChIJqRxZTk24OjQR14CM0s_5whU,B031702UMH,B031702UMH,gaode
476,南昌博大耳鼻咽喉专科医院,江西省,南昌市,青云谱区,洪都南大道237号,0791-86658908,115.918533,28.641913,ChIJP3hWhaW4OjQRlnot8LG35k0,B031705BVW,B031705BVW,gaode
477,南昌东大肛肠专科医院,江西省,南昌市,东湖区,胜利路298号(步步高商场对面),0791-86822072;0791-86806111;4006066896,115.886411,28.68615,ChIJ4TdPQE24OjQRpd7uM9Jdags,B031704YFO,B031704YFO,gaode
478,南昌丰益肛肠医院,江西省,南昌市,青山湖区,上海路377号(17中学对面),0791-88326120;0791-88299333;18970031808,115.940974,28.664574,ChIJkW_t_824OjQR_1cinAohLoE,B0317053TC,B0317053TC,gaode
479,南昌华山不孕不育专科医院,江西省,南昌市,青云谱区,迎宾北大道285号,0791-86658913;0791-85211313,115.907703,28.629109,ChIJhX9iQHzHOjQReLSynWKiU7I,B0FFFZL1M6,B0FFFZL1M6,gaode
480,南昌佳美美容医院,江西省,南昌市,青云谱区,洪都南大道273号,0791-86660000;4006796066,115.922172,28.646649,ChIJXQrxHZi4OjQRwhUA88mJZpk,B031705BW5,B031705BW5,gaode
481,南昌仁爱女子医院,江西省,南昌市,西湖区,洪城路636号,0791-85207758;0791-86573333,115.883031,28.654542,ChIJ_zP14XG4OjQRWdeFkdLN3jE,B031703B59,B031703B59,gaode
482,南昌市第五医院,江西省,南昌市,青云谱区,井冈山大道239号,0791-88450196;0791-86658901;0791-86353355,115.915934,28.63186,ChIJnaYaC2THOjQRn013cLg5p5Y,B031704S4W,B031704S4W,gaode
483,南昌曙光手足外科医院,江西省,南昌市,青云谱区,解放西路99号,0791-88230000;13367096889,115.923431,28.654356,ChIJa2WiK764OjQRCS88YkD10lc,B031704F9U,B031704F9U,gaode
484,南充东大肛肠医院,四川省,南充市,顺庆区,果城路127-129号,0817-2336120;0817-6178888,106.095575,30.795742,ChIJuSjvRGKX8jYRgSCVa1nBuqc,B03310PSVR,B03310PSVR,gaode
485,南京邦德骨科医院,江苏省,南京市,玄武区,龙蟠中路97号,025-52228222;025-58525722,118.806023,32.047726,ChIJy6wd-N2MtTUR0RxmXZH9QpU,B0019173Q3,B0019173Q3,gaode
486,南京东大医学院专科门诊部,江苏省,南京市,鼓楼区,南京市鼓楼区广州路144,,118.776636,32.050607,ChIJZ11Ti5mMtTURrOibEhb7qkY,,ChIJZ11Ti5mMtTURrOibEhb7qkY,google
487,南京肛泰中医院,江苏省,南京市,建邺区,黄山路2号,025-66660097;025-66662226,118.748369,32.016028,ChIJL-ZacOyLtTURxbXIBPSUklo,B001911R45,B001911R45,gaode
488,南京港龙医院,江苏省,南京市,秦淮区,苜蓿园大街48号,025-52323232;025-83416888,118.831677,32.033977,ChIJA3oAMxKNtTUR_xuP5TQTj4s,B001913SCA,B001913SCA,gaode
489,南京华美医疗美容医院,江苏省,南京市,玄武区,珠江路655号,025-83336888,118.805234,32.046478,ChIJWU85c-eMtTUR3qt4fqxnDy0,B00190CY11,B00190CY11,gaode
490,南京华厦白癜风研究所,江苏省,南京市,玄武区,红山路175-2号,025-85515999;025-85423040,118.809049,32.093184,ChIJ9Y8uix7ztTURMm2gFqZ6xo4,B001909SGJ,B001909SGJ,gaode
491,南京华世佳宝妇产医院,江苏省,南京市,建邺区,水西门大街文体西路9号,025-86577607;025-86577666,118.759183,32.029136,ChIJkfpViYWLtTUR5wGzf9WbUJY,B00190AD3C,B00190AD3C,gaode
492,南京建国男科医院,江苏省,南京市,秦淮区,长乐路238号,025-52238888;025-52246802;4000025802,118.796334,32.01387,ChIJF4yjp0aMtTURlOLQRrv4OvU,B001906Q4M,B001906Q4M,gaode
493,南京江宁博爱医院,江苏省,南京市,江宁区,东山街道同夏路19号(东山总站),025-52188554;025-52187885,118.863047,31.957798,ChIJK9WiseORtTURNuo8NDJNqNI,B00190BYIK,B00190BYIK,gaode
494,南京军区机关医院,江苏省,南京市,玄武区,龙蟠中路46号,025-84825150;025-83858885;4000253120,118.807786,32.050813,ChIJFejiTeeMtTURlO6DSaVb2eA,B0019062DS,B0019062DS,gaode
495,南京康美整形美容医院,江苏省,南京市,秦淮区,洪武路288号康美整形美容医院内,,118.786262,32.032525,ChIJ_RgzeYqMtTURZ2Eif9tX-d0,B0FFGU5OE7,B0FFGU5OE7,gaode
496,南京空军机关医院,江苏省,南京市,玄武区,北京东路38号(北大门),025-83193566;4000572120,118.802478,32.053324,ChIJk2JpudyMtTURbbxlBri-19E,B0019146U9,B0019146U9,gaode
497,南京迈皋桥医院,江苏省,南京市,栖霞区,和燕路290号,025-85504083;025-85502008,118.808524,32.102194,ChIJW-qOeQPztTURPGu6KvPv168,B0019045A9,B0019045A9,gaode
498,南京美迪亚妇科医院,江苏省,南京市,白下区,南京市白下区苜蓿园大街48号,+86 25 8428 9066,118.831745,32.0339,ChIJP_deNBKNtTURP6f9O05cITE,,ChIJP_deNBKNtTURP6f9O05cITE,google
499,南京栖霞区康豪医疗,江苏省,南京市,栖霞区,尧化门尧佳路33号,025-85566677,118.88519,32.121339,ChIJcX4228LttTURv_zi4HfaCzI,B0FFGMC0NO,B0FFGMC0NO,gaode
500,南京仁品耳鼻喉医院,江苏省,南京市,秦淮区,中华路528号,025-85262032,118.782233,32.015132,ChIJjVR1X2yMtTURW4JjWPPo9JY,B0019136HZ,B0019136HZ,gaode
501,南京世纪现代妇产医院,江苏省,南京市,江宁区,天元东路358号(义乌小商品城西行450米),025-52167333;025-86900000,118.872309,31.938616,ChIJt7imXMWRtTURepQs2Yu_ex0,B00190YX1X,B00190YX1X,gaode
502,南京市第一医院东院,江苏省,南京市,秦淮区,石门坎2号,025-84685018;025-84685007,118.820768,32.019065,ChIJn-CsN6mNtTUR9ByTrwOoT5w,B0FFF5DDM4,B0FFF5DDM4,gaode
503,南京曙光医院,江苏省,南京市,秦淮区,中华门外正学路1号(近晨光厂),025-84410000;025-52410093;18915959119,118.782878,32.006486,ChIJP38PQhGMtTURTC6GqEMBR2I,B00190D0B3,B00190D0B3,gaode
504,南京亚韩医学美容医院,江苏省,南京市,江宁区,金箔路女人街468号,025-52177777,118.85106,31.949966,ChIJtUb9oCOOtTURQd303K1Yzhc,B00190CYAY,B00190CYAY,gaode
505,南京阳光肿瘤医院,江苏省,南京市,白下区,南京市白下区苜蓿园大街,,118.831797,32.033882,ChIJ47ZWNBKNtTURXrsSv7amZuw,,ChIJ47ZWNBKNtTURXrsSv7amZuw,google
506,南京医科大学附属友谊整形外科医院,江苏省,南京市,鼓楼区,汉中路146号(近南京省中医院),025-86677828;025-86677822;4008887822,118.77388,32.042808,ChIJh-HYXYSMtTURarQHUC6HRCE,B001906819,B001906819,gaode
507,南京长海医院,江苏省,南京市,浦口区,宁六路38号,025-86461195;025-84863999,118.713599,32.1525,ChIJaUa00Ff0tTURw1JNHGuXUFk,B00190Z2ST,B00190Z2ST,gaode
508,南京长江医院,江苏省,南京市,鼓楼区,新门口18号,025-83416999;025-85262102,118.768445,32.087111,ChIJ7eomulfztTUR8cU3_gMzynk,B001906DTN,B001906DTN,gaode
509,南京众彩社区卫生服务中心,江苏省,南京市,江宁区,东麒路66号众彩物流园内,,118.88731,31.984221,ChIJE2a5Hj-StTURS7PUpUw3VOY,B0FFFLJOIO,B0FFFLJOIO,gaode
510,南宁肛泰肛肠医院,广西壮族自治区,南宁市,西乡塘区,安吉大道11号,0771-3139669;0771-3356666;4006782366,108.302147,22.856121,ChIJlT4-T2_vszYRkvVfuD_e6Rs,B03030TCCD,B03030TCCD,gaode
511,南宁协和医院,广西壮族自治区,南宁市,江南区,五一路156号,0771-2251111;0771-5876666;13878147145,108.274968,22.803764,ChIJw4LJeCjpszYRbYOkS_GtYIk,B03030XAA5,B03030XAA5,gaode
512,南通肛泰肛肠医院,江苏省,南通市,港闸区,工农路689号,0513-85670000;0513-51001130,120.8799,32.04133,ChIJgfFrEe53sTURh0AcXSB2c8Q,B0FFFOPS8Z,B0FFFOPS8Z,gaode
513,南通和美家妇产科医院,江苏省,南通市,崇川区,啬园路8号(体育会展中心南门正对面),0513-68688888;4000196868;15262762822,120.89481,31.963755,ChIJVdOsHKB4sTUR7WDkc7rgSRI,B02010UIMS,B02010UIMS,gaode
514,南通现代泌尿专科医院,江苏省,南通市,港闸区,濠西路288号百安谊家广场2号楼(奥特莱斯路对面),0513-89069999,120.851333,32.042485,ChIJ79vRKIJ3sTURXwW-MlSCadc,B0201083D8,B0201083D8,gaode
515,南通长城医院,江苏省,南通市,崇川区,人民西路366号(长途汽车站旁),0513-88100000;4000138810;15862716208,120.833926,32.014737,ChIJ8aShort5sTURTYkCI76oxMg,B020104Y8T,B020104Y8T,gaode
516,南阳768医院,河南省,南阳市,卧龙区,卧龙路1269号(近中建大酒店),,112.499847,32.97373,ChIJiXYZ5bWFfzYRV2NELZ0U0Jo,B01790QAHE,B01790QAHE,gaode
517,内蒙古天骄医院,内蒙古自治区,呼和浩特市,新城区,通道北街235号,0471-5195999,111.652153,40.842842,ChIJo0UM92NIBjYRtc00cPfXX8w,B01D70PFI8,B01D70PFI8,gaode
518,内蒙古祥云皮肤病医院,内蒙古自治区,呼和浩特市,新城区,车站西街五楼,0471-3293677;0471-3293698,111.658896,40.830035,ChIJ55N9ef9FBjYRRLXbTPY6wi8,B01D70PCUZ,B01D70PCUZ,gaode
519,宁波海曙欧亚男科医院,浙江省,宁波市,海曙区,广济街56号,0574-27859999,121.54659,29.86911,ChIJFW4ntLF8TTQRHACH_xjCmlI,B0FFFYBZT6,B0FFFYBZT6,gaode
520,宁波虹桥男科医院,浙江省,宁波市,江东区,中兴路505号,0574-89115115;0574-56110888;4007112590,121.58262,29.864736,ChIJgROM4yljTTQRv4YagsluU60,B023E04N4R,B023E04N4R,gaode
521,宁波华西博爱医院,浙江省,宁波市,海曙区,宁波市海曙区蓝天路58号,,121.525308,29.869516,ChIJR12i9k17TTQR2w_GcEgtQb0,,ChIJR12i9k17TTQR2w_GcEgtQb0,google
522,宁波美莱整形美容医院,浙江省,宁波市,海曙区,灵桥路713号(近宁波日报社),,121.557242,29.865482,ChIJMZqx1kpjTTQRaCiZY3Jw2HM,B023E05OVZ,B023E05OVZ,gaode
523,宁波甬城医院,浙江省,宁波市,江北区,大庆南路636号(东鹰宾馆西侧、日湖旁),0574-27859678;0574-87354321;4000923120,121.566423,29.891912,ChIJp_BffRFjTTQR21U8S3zbJNg,B023E066SB,B023E066SB,gaode
524,宁德东方医院,福建省,宁德市,蕉城区,后岗蕉城南路87号,0593-2916120;0593-2982120,119.536376,26.644575,ChIJTVRl_YolQTQRnlCj6Lq0w5Q,B025101BUH,B025101BUH,gaode
525,宁夏华美整形美容医院,宁夏回族自治区,银川市,兴庆区,民族南街771号,0951-5153333;4008565828,106.269359,38.444401,ChIJxZ8kAxY8QDYRj55P40pmOQg,B03B70PTM1,B03B70PTM1,gaode
526,宁夏康源肛肠医院,宁夏回族自治区,银川市,金凤区,通达北街21号(新城西站西侧十字路口向北50米),0951-3829999,106.182035,38.486432,ChIJh4AEoqI_QDYRl5uAGtB-HdQ,B03B703U2H,B03B703U2H,gaode
527,宁乡现代妇科医院,湖南省,长沙市,宁乡县,花明南路89号,0731-87303333;4000050092,112.550942,28.253284,ChIJ-1TOJV3-nTYRXL0f8jBOaGA,B02DB079KN,B02DB079KN,gaode
528,平顶山东大肛肠医院,河南省,平顶山市,新华区,光明路与联盟路交叉口向南50米路东,0375-2839393;0375-2839922,113.29328,33.74262,ChIJn3SZiHN81jURNeQJYun6z4E,B017700W3L,B017700W3L,gaode
529,平顶山市交通医院,河南省,平顶山市,卫东区,矿工路182号,0375-3813606;0375-3813631,113.318696,33.743837,ChIJ5wpyw0R81jUR51HD-BX4Oio,B017700VST,B017700VST,gaode
530,平顶山市武警医院,河南省,平顶山市,新华区,凌云路与建设路交叉口南150米,0375-7191369,113.281204,33.737374,ChIJsxkm-PN71jURPYsWNpSvs6I,B01770NZ0M,B01770NZ0M,gaode
531,平果中山医院,广西壮族自治区,百色市,平果县,铝城大道1170号五十米路口,0776-5880222,107.55944,23.327773,ChIJ24fvXqaQtjYRzSZpxqaxGKE,B03080MLCS,B03080MLCS,gaode
532,萍乡妇科医院,江西省,萍乡市,安源区,滨河东路516号鹅湖小区秋收起义广场北侧,13979906699,113.851585,27.647855,ChIJa5pD2_BBITQRxtRNr8fNsSk,B031F00D7G,B031F00D7G,gaode
533,萍乡新世纪男科医院,江西省,萍乡市,安源区,萍乡市安源区康庄路2号,+86 799 703 8888,113.861034,27.632464,ChIJm7fB0f9pITQRk-2wKqnw-mE,,ChIJm7fB0f9pITQRk-2wKqnw-mE,google
534,莆田肛泰中西医结合医院,福建省,莆田市,城厢区,龙华街道太平居委会胜利南街230弄9号,0594-7590166;0594-2205199,119.01276,25.428891,ChIJacScwfeiajQRS4hK_Z84js4,B02520N8H8,B02520N8H8,gaode
535,莆田口腔医院,福建省,莆田市,城厢区,兴安路15号,0594-2298866,119.01487,25.438853,ChIJ45HJF1uiajQRePKdndSvGrQ,B025201GEF,B025201GEF,gaode
536,莆田丽人妇科医院,福建省,莆田市,城厢区,莆阳路嘉新商业城B1座,0594-2827283;0594-2224222,119.004465,25.424626,ChIJReUWcvyiajQRZ5v3vd3S1LI,B025201FEO,B025201FEO,gaode
537,莆田盛兴医院,福建省,莆田市,秀屿区,笏石镇顶城路1368号,0594-5955555;0594-5566666;4009180606,119.103006,25.310517,ChIJxewPMvCWajQRdS8bWaAOr-c,B025201EHY,B025201EHY,gaode
538,齐河县阳光综合门诊部,山东省,德州市,齐河县,阳光路545号,0534-5169920;0534-5339920,116.755847,36.78551,ChIJHz_ZHgJ1wjURnvWtNGUmKRs,B02160PB0U,B02160PB0U,gaode
539,齐齐哈尔协和医院,黑龙江省,齐齐哈尔市,建华区,二马路裕民一街27号,0452-8093456;0452-8069192,123.963624,47.347961,ChIJL-hMDoiraF4RCbKJd03zdMU,B01C40O0V3,B01C40O0V3,gaode
540,启东瑞金医院,江苏省,南通市,启东市,紫薇中路818号(西车站向西200米),0513-83242777;0513-83243111,121.658497,31.820935,ChIJjfGipDMdrjURkICTGT-R8kQ,B02010UI5S,B02010UI5S,gaode
541,启东市中医院,江苏省,南通市,启东市,汇龙镇紫薇中路458号,0513-83244995;0513-83214819,121.668892,31.81702,ChIJLaljbCsdrjUR_Ius_6JsdBg,B0201068H1,B0201068H1,gaode
542,秦皇岛女子医院,河北省,秦皇岛市,海港区,民族北路1号(市检查院旁边),0335-3080888,119.605966,39.959545,ChIJG2WWrv-PizURILu2qT6itU0,B014F05JN7,B014F05JN7,gaode
543,青岛第九人民医院,山东省,青岛市,市南区,朝城路号2甲,0532-82105701;0532-82105789,120.310263,36.060098,ChIJv42VIogPljURWqpVaQYD8bk,B021401FD3,B021401FD3,gaode
544,青岛妇婴医院,山东省,青岛市,市南区,中山路19号,0532-58870036;0532-86067599,120.319096,36.064885,ChIJE2h7IY0PljUR89qHIXiyRlQ,B0FFFAH1UY,B0FFFAH1UY,gaode
545,青岛集美整形美容医院,山东省,青岛市,市南区,青岛市市南区香港中路5号,+86 532 8265 9999,120.376352,36.063216,ChIJgepHyVsQljURbH40CeY-g8E,,ChIJgepHyVsQljURbH40CeY-g8E,google
546,青岛坤如玛丽妇产医院,山东省,青岛市,市北区,延吉路108号,0532-85812233;0532-85835666;13969625330,120.376205,36.087319,ChIJ2eV_vLERljUR2YZIgDSIw-A,B02140ZU4S,B02140ZU4S,gaode
547,青岛诺德医学美容,山东省,青岛市,崂山区,香港东路69号凯旋山庄35栋,0532-88017788;0532-88010022;15064890908,120.442996,36.076754,ChIJI2AcuM4WljURJ2tXbfbJoGg,B021409HB3,B021409HB3,gaode
548,青岛曙光男科医院,山东省,青岛市,市南区,银川西路9号,0532-82652555;0532-85732222,120.410743,36.083585,ChIJD0FmNRYRljURjrynFWTiA7s,B021407NRL,B021407NRL,gaode
549,青岛新视界眼科医院,山东省,青岛市,李沧区,峰山路13号,0532-87897999;4006621616;0532-87628458,120.420998,36.154726,ChIJIYb1p3ETljURLqT1MwC9uA4,B02140ZVN2,B02140ZVN2,gaode
550,青岛新阳光医院,山东省,青岛市,李沧区,书院路115号,0532-68696968;0532-87061886,120.417138,36.154414,ChIJA3M27HMTljURhRVExU3_oow,B021403DMQ,B021403DMQ,gaode
551,青岛长征医院,山东省,青岛市,市北区,华阳路36号甲,0532-88994428;0532-83711000,120.346631,36.090322,ChIJzRT3ltMRljURTSiO-ylt5OM,B021403SP3,B021403SP3,gaode
552,青岛中大泌尿医院,山东省,青岛市,市南区,延安三路101乙,0532-83871111;0532-80621111;4006675120,120.367864,36.069913,ChIJY1IEbUcQljUR6eX8EP-PcdE,B02140ZN60,B02140ZN60,gaode
553,青海东大肛肠医院,青海省,西宁市,城西区,海晏路2号国贸大厦人民公园对面,4001097100,101.756865,36.639248,ChIJQdUUtpwLUjYRouYu1UfxkPw,B03CB070Z9,B03CB070Z9,gaode
554,青海省第四医院,青海省,西宁市,城东区,南山路14号,0971-8231606;0971-8250779,101.789031,36.606222,ChIJP_wJRRgMUjYRApLIlPwe79Y,B03CB06B8V,B03CB06B8V,gaode
555,清远现代妇科医院,广东省,清远市,清城区,小市桥南路4号,0763-3258888,113.038489,23.69479,ChIJ22aCjmfIAjQRu-XND378s0I,B0FFGLLZOX,B0FFGLLZOX,gaode
556,曲靖东大肛肠医院,云南省,曲靖市,麒麟区,紫云路408号(消防支队旁),,103.806427,25.484375,ChIJAQN9b-Q7xTYR3tJp3_XOBJM,B036A0IK1V,B036A0IK1V,gaode
557,曲靖九州医院,云南省,曲靖市,麒麟区,花柯路1号,0874-8965555;15911471152,103.79956,25.48011,ChIJY9GUI77EzzYR9wCj8GU5P-A,B036A009M5,B036A009M5,gaode
558,泉州华美美莱整形医院,福建省,泉州市,鲤城区,新华南路27号(新华桥站),0595-28266666;0595-28888501,118.581491,24.904611,ChIJg-VA3ifUFDQRgIWWREEkr_U,B02530247D,B02530247D,gaode
559,泉州坤如玛丽医院,福建省,泉州市,丰泽区,田安北路305号,0595-22871313;0595-22197666;4009901113,118.608848,24.90839,ChIJkft1YUvUFDQRfJJIyfUfdeQ,B0253042WB,B0253042WB,gaode
560,泉州南亚医院,福建省,泉州市,丰泽区,田安北路305号,,118.609095,24.908222,ChIJ--e4nUzUFDQRPIjFNcxEj1M,,ChIJ--e4nUzUFDQRPIjFNcxEj1M,google
561,泉州欧菲医疗美容医院,福建省,泉州市,丰泽区,宝洲路万达广场1号门正对面(浦西路口公交站旁),0595-28551111,118.598734,24.883645,ChIJE41mDdSaFDQRyIM3gKH16Bk,B0FFF35N31,B0FFF35N31,gaode
562,泉州新阳光女子医院,福建省,泉州市,丰泽区,宝洲街与浦西路交叉口东北50米,0595-28061111;0595-28966788,118.598017,24.884095,ChIJ_Uh53RPUFDQRryIb5u-Uels,B025302ETP,B025302ETP,gaode
563,瑞安华东康复医院,浙江省,温州市,瑞安市,温州市瑞安市安强路,+86 577 6591 3333,120.654238,27.780048,ChIJl1xim1qORTQRMobQ_79HgHU,,ChIJl1xim1qORTQRMobQ_79HgHU,google
564,瑞安同济医院,浙江省,温州市,瑞安市,玉海街道商城大道362号(老商城对面),0577-65893999;0577-80519999;13799692820,120.63732,27.773767,ChIJd6kAfWuORTQR4W3RY0_ZXv4,B0FFF5PNC8,B0FFF5PNC8,gaode
565,三亚东大肛肠医院,海南省,三亚市,天涯区,迎宾路37号,0898-88561616;0898-38221889;4000898755,109.496954,18.261998,ChIJ40UDMg1MRTERAXpHkuZs8S4,B03830MR3W,B03830MR3W,gaode
566,厦门登特口腔医院,福建省,厦门市,思明区,莲花南路7号经协大厦11层,,118.125626,24.482852,ChIJC6_jmMiaFDQR7GVMe_ftdP8,B0FFF4JG3Z,B0FFF4JG3Z,gaode
567,厦门康乐门诊部,福建省,厦门市,湖里区,兴隆路470-474号,0592-2616658,118.117658,24.506864,ChIJC3-W5MuaFDQRdXFWiat-IFQ,B025004NFD,B025004NFD,gaode
568,厦门欧菲医疗美容门诊部,福建省,厦门市,思明区,仙岳路聚祥花园463号3层,0592-5368111,118.115939,24.494458,ChIJ2xqBqumaFDQR6iIEsrOxmIE,B025003MT0,B025003MT0,gaode
569,厦门益康生殖健康门诊部,福建省,厦门市,思明区,湖滨中路7-9号,0592-2220180;0592-2211888,118.10337,24.467634,ChIJoQzwA7eEFDQRL1Y5aiibPPM,B025002S4Y,B025002S4Y,gaode
570,厦门友好妇科医院,福建省,厦门市,思明区,长青路283之9-12号嘉华大厦,0592-3688888,118.123367,24.488101,ChIJxzPqBCibFDQRDl-qTJLB3-w,B025002SIG,B025002SIG,gaode
571,山东东方男科医院,山东省,济南市,市中区,济南市市中区英雄山路162号,+86 531 8298 8882,117.004442,36.618185,ChIJB0nBx0YFwjURyY9wo1E3a6k,,ChIJB0nBx0YFwjURyY9wo1E3a6k,google
572,山东红十字会医院,山东省,济南市,市中区,济南市市中区英雄山路16号,+86 531 6666 2666,116.997289,36.641737,ChIJt-4rXHcFwjURRx6d1JTT7D4,,ChIJt-4rXHcFwjURRx6d1JTT7D4,google
573,山东济南泉城白癜风医院,山东省,济南市,天桥区,堤口路143号,0531-88753333;0531-55702177;4006913999,116.973501,36.67403,ChIJLV6VYAIEwjURl5CHOl3xvjw,B02130UDY8,B02130UDY8,gaode
574,山东日照关爱医院,山东省,日照市,东港区,"黄海二路6号(日照石臼北京路与黄海二路交会处,汽车东站往西100米)",0633-8336560,119.524455,35.399156,ChIJcSH9b1j5vjURLGyyh75gcDs,B027903D32,B027903D32,gaode
575,山东紫荆花医院,山东省,济南市,历下区,解放路17号(近荣军医院),0531-88384222;0531-88316981,117.064395,36.66696,ChIJzcykVRwEwjURi-idbzNqZNo,B021305H5K,B021305H5K,gaode
576,山西华一肛肠病医院,山西省,太原市,迎泽区,建设南路65号,0351-4169666;0351-4838868,112.585716,37.846897,ChIJ7XIYopepCjYR3DlbLtSchaY,B0FFFAM38Z,B0FFFAM38Z,gaode
577,山西惠民中西医结合医院,山西省,太原市,迎泽区,迎泽南街2号,0351-4150555,112.576863,37.858397,ChIJ4ZB1iqapCjYRb2ytj1xaz9Y,B015F00CDE,B015F00CDE,gaode
578,山西民生医院,山西省,太原市,小店区,南内环街南内环桥东,0351-2248666;0351-2199999,112.545127,37.837867,ChIJ3agrdF-pCjYRQDsmflVAYV4,B015F01SWH,B015F01SWH,gaode
579,山西省第二人民医院,山西省,太原市,迎泽区,寇庄西路9号,0351-7241735,112.556479,37.843688,ChIJWz2cl2WpCjYRnNYYR1eacZ8,B015F008D1,B015F008D1,gaode
580,山西现代女子医院,山西省,太原市,迎泽区,太原市迎泽区南内环街25号,+86 351 409 6660,112.579838,37.839455,ChIJ62I0xoSpCjYRm9XJVl72hB4,,ChIJ62I0xoSpCjYRm9XJVl72hB4,google
581,山西新阳光妇科医院,山西省,晋中市,太谷县,108国道与319省道交叉口南100米,,112.581866,37.433015,ChIJGb433iuqCjYRtQbJx68hPDM,B0FFGAEX6W,B0FFGAEX6W,gaode
582,山西长庚耳鼻喉医院,山西省,太原市,迎泽区,建设南路248号,,112.586484,37.844366,ChIJiymJL5epCjYRPxgavVRSdwk,B0FFFOIYD8,B0FFFOIYD8,gaode
583,陕西省红十字医院,陕西省,西安市,雁塔区,吉祥路21号,029-88250189;029-88243120,108.929392,34.223117,ChIJrWsjzupwYzYRixOQZ5pfl9U,B001D0WPAW,B001D0WPAW,gaode
584,陕西冶金医院,陕西省,西安市,莲湖区,莲湖路206-74号,029-89395009,108.92573,34.26944,ChIJ-R3h8lZlYzYRK3N8iTxPhiY,B0FFGFRJUY,B0FFGFRJUY,gaode
585,陕西中西医结合糖尿病医院,陕西省,西安市,碑林区,西安市碑林区含光路,,108.931975,34.249908,ChIJvYBQ-3N6YzYR_aH_i6wMCzU,,ChIJvYBQ-3N6YzYR_aH_i6wMCzU,google
586,汕头妇产医院,广东省,汕头市,龙湖区,珠池路15号,0754-86111111,116.731316,23.372189,ChIJCeL2GOzcETQRP0BWwAH6XSY,B02F20204D,B02F20204D,gaode
587,上海阿波罗男子医院,上海市,上海市,黄浦区,陆家浜路1283号(陆家浜路与西藏南路交叉口),021-63463677;021-63458111;4008205191,121.484515,31.211873,ChIJM9xVO3lwsjUR2vXXrnrD6O0,B001556L9Q,B001556L9Q,gaode
588,上海安平医院,上海市,上海市,浦东新区,川沙路4425号,021-58981111,121.696158,31.202076,ChIJ93D8nRyJrTURbVs632vYIQY,B00156E1TU,B00156E1TU,gaode
589,上海安真医院,上海市,上海市,松江区,茸梅路208号,021-60904120;13373397217,121.247191,31.031336,ChIJnx6v4BHzsjUR6Za8kyfIIeo,B0FFG8YU33,B0FFG8YU33,gaode
590,上海博爱医院,上海市,上海市,徐汇区,徐汇区淮海中路1590号,+86 21 6433 3999,121.444463,31.208523,ChIJDXJaQE1lsjURROykpBCBwzg,,ChIJDXJaQE1lsjURROykpBCBwzg,google
591,上海博大医院,上海市,上海市,松江区,阔街55号(人民南路良友商厦苏宁电器后面),021-57818599;4001688002,121.229852,31.005671,ChIJqX8_QhLzsjURF7LXUASxado,B00155BBN8,B00155BBN8,gaode
592,上海城市女子医院,上海市,上海市,浦东新区,上南路3288号,021-60515996,121.4982,31.159103,ChIJk3IgLWhvsjURzxcDrwZbAHU,B0FFF5QP8N,B0FFF5QP8N,gaode
593,上海福华医院,上海市,上海市,浦东新区,惠南镇城南路98号(近衡山度假村),021-51961999,121.746705,31.039953,ChIJF6_-8pODrTURusWLpsMQnU8,B00156O9ND,B00156O9ND,gaode
594,上海国济男子医院,上海市,上海市,虹口区,虹口区曲阳路801号,+86 21 6560 0909,121.490583,31.290404,ChIJYed6uCpysjURwSBCukqcu6E,,ChIJYed6uCpysjURwSBCukqcu6E,google
595,上海国正医院,上海市,上海市,浦东新区,浦东新区人民西路99号,+86 21 5800 9999,121.752223,31.048479,ChIJGaPyyoiDrTURxBmcIsENNnA,,ChIJGaPyyoiDrTURxBmcIsENNnA,google
596,上海海淞医院,上海市,上海市,宝山区,淞宝路196号,021-66799399;021-56561030,121.500387,31.383068,ChIJj9CwA9sMsjURG8xlE9wD3TI,B0FFG3H7QY,B0FFG3H7QY,gaode
597,上海宏康医院,上海市,上海市,普陀区,大渡河路1933号,021-52827766;021-52801926;4006163262,121.398136,31.256185,ChIJg_8LSQpvsjURw-q1kds6iWc,B0015262CE,B0015262CE,gaode
598,上海虹桥医院,上海市,上海市,闵行区,虹梅路2181号(近吴中路),021-64659999;021-62080111,121.394826,31.174789,ChIJC7BAn15ksjURmdxw2KZ-Rbc,B001511C6C,B001511C6C,gaode
599,上海鸿慈儿童医院,上海市,上海市,闸北区,宝山路455号,021-66055588;021-66051000,121.477558,31.257113,ChIJ2fBjhrFxsjURF-xxHClDVVg,B00155MUSQ,B00155MUSQ,gaode
600,上海沪申五官科医院,上海市,上海市,徐汇区,石龙路269,021-54305338;021-62119666,121.442923,31.156646,ChIJMejVKrdksjURNdmMhDmOPxY,B001507078,B001507078,gaode
601,上海华美医疗美容医院,上海市,上海市,浦东新区,源深路155号1-3层(浦东大道与源深路交叉口东南侧),021-58856666,121.530756,31.239442,ChIJJYnq6_5lsjURLlE19LwVq8E,B00152A82B,B00152A82B,gaode
602,上海黄浦区中西医结合医院,上海市,上海市,黄浦区,黄家路163号(近跨龙路),021-63774871,121.494477,31.21632,ChIJlaLyKYZwsjUR13QUCflZX7U,B00152779E,B00152779E,gaode
603,上海健桥医院,上海市,上海市,闸北区,中兴路1122号,021-56659999,121.46474,31.252057,ChIJ6XZn2cNxsjURyimahK1yaEc,B0015794AL,B0015794AL,gaode
604,上海江城皮肤病医院,上海市,上海市,杨浦区,黄兴路286号(近周家嘴路),021-65191999;021-32513213;13917174642,121.530064,31.274266,ChIJfdxID-NzsjURRH3AwTDdv0o,B00155KUH4,B00155KUH4,gaode
605,上海江东医院,上海市,上海市,浦东新区,金桥路300号,021-50349666;4006021929,121.571173,31.264831,ChIJWc7G0YJ2sjURUIFGHwd1Gq0,B001540E6B,B001540E6B,gaode
606,上海九龙男子医院,上海市,上海市,长宁区,中山西路333号,021-52733999;021-52750399;021-60643591;021-60545303,121.411435,31.216621,ChIJCb1W329lsjURm0yz2unXcoo,B00155ABKY,B00155ABKY,gaode
607,上海九州泌尿医院,上海市,上海市,普陀区,真南路685号,021-66266666;021-66370778;13636387088,121.3869,31.269384,ChIJq6bXFRtvsjURM9dABWzc-VI,B0FFFOSXAK,B0FFFOSXAK,gaode
608,上海康沈医院,上海市,上海市,浦东新区,周浦镇康沈路1626号,021-58115599,121.576356,31.116379,ChIJv2eKBSR5sjURMQgZFAtda0M,B00155IO7A,B00155IO7A,gaode
609,上海康新医院,上海市,上海市,静安区,余姚路139号(常德路口),,121.44137,31.23631,ChIJTZCGaOFvsjUROYgY5An2ZN4,B001552DHS,B001552DHS,gaode
610,上海蓝十字脑科医院,上海市,上海市,闵行区,七宝镇七莘路2880号(近宝南路),021-64879999;4008892219,121.35479,31.148449,ChIJZZDxJh9lsjURtTSC8_P_pYo,B0FFFLIJ7K,B0FFFLIJ7K,gaode
611,上海玛丽女子医院,上海市,上海市,青浦区,公园路380号,021-60518120;021-69726088,121.118921,31.148965,ChIJFQ_hjXtYsjURhmuOr-YZo5I,B00155LBP0,B00155LBP0,gaode
612,上海玫瑰医疗美容医院,上海市,上海市,闸北区,长安路1138号(近天目西路),021-63176613;021-36365666;4006208666,121.451829,31.247078,ChIJfTlN3SVwsjURa71h0JfHdxQ,B001557J6S,B001557J6S,gaode
613,上海美联臣医疗美容医院,上海市,上海市,虹口区,四平路776号,021-55159666,121.499013,31.272337,ChIJ3yIaqnpxsjURUxFGoj2Z4Ck,B00156DZ0R,B00156DZ0R,gaode
614,上海南浦妇科医院,上海市,上海市,浦东新区,浦东南路2250号,021-58891199,121.513697,31.204532,ChIJPVJjY59wsjURsYuyM5aQf9M,B00154DTL2,B00154DTL2,gaode
615,上海青城医院,上海市,上海市,青浦区,盈港路468号(世纪华联斜对面),021-69725010;021-66371899,121.115297,31.159966,ChIJZUIdQGZYsjURi0CRm23gWRQ,B00154AF25,B00154AF25,gaode
616,上海仁爱医院,上海市,徐汇区,徐汇区,徐汇区漕溪路133号,+86 21 6468 8888,121.436059,31.175556,ChIJO1Wz6dBksjURvTl-lIlN-gw,,ChIJO1Wz6dBksjURvTl-lIlN-gw,google
617,上海圣爱医院,上海市,上海市,嘉定区,嘉定区群裕路60号,+86 21 6952 1471,121.251771,31.372006,ChIJb7Op0udBsjUROKE5Z4dusqo,,ChIJb7Op0udBsjUROKE5Z4dusqo,google
618,上海圣贝国际牙科,上海市,上海市,长宁区,虹桥路1386号文广大厦2楼(近伊犁南路),021-56683999,121.406698,31.197156,ChIJxZHU7gVlsjURifa9LkvqPXU,B0FFGM7ZZH,B0FFGM7ZZH,gaode
619,上海时光整形外科医院,上海市,上海市,黄浦区,普安路187-189曙光大厦3层,021-63848888;4008205579;18964943923,121.47887,31.22254,ChIJibzSm29wsjURs0KMjaGyaE8,B00154MU6Q,B00154MU6Q,gaode
620,上海市闵行区中医院,上海市,上海市,闵行区,合川路3071号,021-51876888;4006566210,121.379479,31.17763,ChIJIVSTBkFksjURxBq9chjVyCk,B00155LA1T,B00155LA1T,gaode
621,上海市浦东新区传染病医院,上海市,上海市,浦东新区,华夏东路3018弄46号,021-58924080,121.712768,31.201279,ChIJq5ZzDjGJrTURC9C2CnqWBAA,B00154SL1M,B00154SL1M,gaode
622,上海曙康口腔门诊部,上海市,上海市,黄浦区,普安路189号曙光大厦5层,4006135660,121.478888,31.222431,ChIJ5WFWnm9wsjURBFf7e1fsmtI,B001574OX5,B001574OX5,gaode
623,上海松江方塔中医医院,上海市,上海市,松江区,中山东路39号,021-57833754,121.252281,31.006851,ChIJjw1KlEjzsjURxGAp5P15ZMk,B00155DCPX,B00155DCPX,gaode
624,上海天大整形美容医院,上海市,上海市,长宁区,中山西路339号,021-64080808,121.41164,31.216069,ChIJK0QUCw1lsjURgTu-DWsG79Y,B0015279E0,B0015279E0,gaode
625,上海天伦医院,上海市,上海市,虹口区,凉城路545号,021-65259999;021-65667633,121.470861,31.290789,ChIJyxPOcotxsjURq8j6Xw-OseA,B00155KD64,B00155KD64,gaode
626,上海天佑医院,上海市,上海市,普陀区,真南路528号,021-66699900;021-55609999;18001768605,121.389886,31.269833,ChIJb3-AogRvsjURqk4SxfYLD9k,B0FFFLIHDQ,B0FFFLIHDQ,gaode
627,上海同德医院,上海市,上海市,青浦区,盈港路1006号,021-69220999;021-69229050,121.105799,31.161389,ChIJfZYfh2tYsjURnvr6fcXv7JA,B001543509,B001543509,gaode
628,上海万众口腔医院,上海市,上海市,徐汇区,吴中路2-6号,021-64389999,121.420856,31.189263,ChIJxXxkJh9lsjURP3eABZSoM7E,B0FFF2HSQK,B0FFF2HSQK,gaode
630,上海西郊骨科医院,上海市,上海市,长宁区,剑河路595号,021-32513263;021-52208866,121.368794,31.207684,ChIJiXAPC89lsjURj07TkMAnm9U,B00150D952,B00150D952,gaode
631,上海新虹桥男科医院,上海市,上海市,长宁区,天山路18号,021-56506666,121.378209,31.216322,ChIJc1Mqr6dlsjURSe666QEP5rA,B0FFGENK89,B0FFGENK89,gaode
632,上海新科医院,上海市,上海市,长宁区,长宁路1355号,021-52739999;021-52731799,121.411397,31.216881,ChIJa_h14G9lsjURvRGHW55Sq0Q,B0FFFYNEXQ,B0FFFYNEXQ,gaode
633,上海新视界眼科医院,上海市,上海市,长宁区,汇川路18号,021-52069999;021-65670199,121.417526,31.215687,ChIJoQCCrgplsjUR7iRpozTenIg,B00155QH1D,B00155QH1D,gaode
634,上海阳光中医医院,上海市,上海市,闸北区,芷江中路274,021-56639828;021-56634500;021-51078220,121.471649,31.2592,ChIJAWpapi5ysjURgeWC3ikfvEQ,B001558EIN,B001558EIN,gaode
635,上海一品健检(百联中环店),上海市,上海市,普陀区,真光路1288号百联购物广场4楼B区L415、L416(近梅川路),021-64010697;13817605189,121.382983,31.245784,ChIJJbgbem9vsjURLsu-oKABWdA,B0FFF6BY6N,B0FFF6BY6N,gaode
636,上海英港医院,上海市,上海市,宝山区,淞滨路130-02号门诊部,,121.497189,31.373785,ChIJ0Rww9dMMsjURQ1XaiVWVKS4,B0FFGMG89X,B0FFGMG89X,gaode
637,上海远大心胸医院,上海市,上海市,徐汇区,龙漕路218号,021-64829999;4007206999,121.442363,31.169576,ChIJbXuPZdJksjUR1kuXZ8GvQuw,B00155GQKC,B00155GQKC,gaode
638,上海长安妇科医院,上海市,上海市,浦东新区,惠南镇南团公路8号(城南路交叉口),021-58026999,121.763228,31.041678,ChIJfflH6YKDrTURJjFG6GqA3jo,B00155N8TI,B00155N8TI,gaode
639,上海长江医院,上海市,上海市,虹口区,周家嘴路515号,021-65022556,121.498543,31.256257,ChIJPyKw9AVxsjURBvjlzS5MAlQ,B00154DBRL,B00154DBRL,gaode
640,上海真爱女子医院,上海市,上海市,长宁区,长宁区延安西路,+86 21 6226 9000,121.431788,31.213131,ChIJjefg0FplsjURbMAJDILh3vg,,ChIJjefg0FplsjURbMAJDILh3vg,google
641,上海真美妇科医院,上海市,上海市,杨浦区,宁国路313弄4号,021-55970067,121.535747,31.265116,ChIJff-QLdxzsjURKPta7QnBauM,B00156ZESR,B00156ZESR,gaode
642,上海中骏医学科学研究所,上海市,上海市,徐汇区,徐汇区虹漕路461号,,121.407226,31.17854,ChIJJ7VxC_pksjUR34ybLaGtJ1Y,,ChIJJ7VxC_pksjUR34ybLaGtJ1Y,google
643,上海中亚医院,上海市,上海市,嘉定区,沪宜公路3888号,021-59525020;4006675021;15000567972,121.235214,31.373091,ChIJzf6x7ZNBsjURw7kdggEkCAI,B001558EHO,B001558EHO,gaode
644,上海中医药大学附属曙光医院(整形科),上海市,上海市,浦东新区,张衡路528,021-20256666,121.59392,31.186401,ChIJlTVAsIV3sjURq44x4r_-RtY,B00151E68A,B00151E68A,gaode
645,上海中医药大学附属曙光医院浦东肝病专科分院,上海市,上海市,浦东新区,华夏东路3018弄46号,021-68397900,121.712772,31.201276,ChIJ4zrEQTGJrTURglk8_hqTSXA,B0FFGAPQ0W,B0FFGAPQ0W,gaode
646,上海中佑肛肠医院,上海市,上海市,静安区,"陕西北路777号(恒隆广场向北500米,陕西北路与康定路交叉路口)",021-52131616;021-65863999,121.449785,31.234525,ChIJQxTDlR5wsjURQZPDz1nqv0g,B00155L1Y3,B00155L1Y3,gaode
647,上饶东大肛肠专科医院,江西省,上饶市,信州区,"带湖路60号,汽车站往北300米",0793-8277666,117.968526,28.460165,ChIJYbQ1TH4rODQRVQ1Mjy255Q4,B031901HHS,B031901HHS,gaode
648,上饶协和医院,江西省,上饶市,信州区,滨江西路11号(近工商大夏),0793-8299966,117.97654,28.441364,ChIJT8Ga7mMsODQRsUNwz1KypxQ,B031900B10,B031900B10,gaode
649,深圳博爱医院,广东省,深圳市,罗湖区,红岭中路2056号,0755-25890396,114.104969,22.552201,ChIJEWmq_bb1AzQRUxwQAbqAK8A,B02F300333,B02F300333,gaode
650,深圳凤凰医院,广东省,深圳市,宝安区,凤凰山大道,,113.833887,22.691368,ChIJ_-ODOY_1AzQRV0Ygrs62jfk,B02F37V7UL,B02F37V7UL,gaode
651,深圳福华中西医结合医院,广东省,深圳市,福田区,福华路3号,0755-83337088;0755-88297667;4008338339,114.084298,22.537469,ChIJo0gtfjr0AzQREAvoJESt3rs,B02F306LRL,B02F306LRL,gaode
652,深圳福永妇科医院,广东省,深圳市,宝安区,和沙路11-1号附近,,113.803994,22.699566,ChIJxUjlDsKUAzQRwrI8kBETVfo,B0FFGFB3S8,B0FFGFB3S8,gaode
653,深圳港龙医院,广东省,深圳市,龙岗区,龙岗大道3012号宏昌大厦A栋1-4层和B栋1-5层,0755-85205555;0755-89919272;4008031955,114.245642,22.709794,ChIJf8QbATJxBDQRD8vvyTG8_mk,B02F38RCDS,B02F38RCDS,gaode
654,深圳国丹妇科医院,广东省,深圳市,宝安区,东环一路油松第二工业区,0755-89700551;0755-29111222;4009996120,114.043004,22.644245,ChIJLRo11JiMAzQRBindYT_xMC4,B0FFFDAK7Z,B0FFFDAK7Z,gaode
655,深圳韩美医疗美容医院,广东省,深圳市,罗湖区,中民时代广场A座2层,0755-25892309;13652365617,114.10512,22.556937,ChIJYUVGKDT0AzQRRpBLVDvPpx0,B0FFFYT704,B0FFFYT704,gaode
656,深圳和美妇儿科医院,广东省,深圳市,南山区,深南大道12018号,0755-33919133;0755-33391333,113.922113,22.541057,ChIJbU1qDHHuAzQRzGAqzNp1Ljw,B02F37W6HW,B02F37W6HW,gaode
657,深圳华南妇科医院,广东省,深圳市,龙岗区,深汕公路224号(坪山电子城旁),0755-84606976,114.345218,22.693126,ChIJKzIrRSVuBDQR-5zwANNDkAk,B02F37VKZH,B02F37VKZH,gaode
658,深圳建国泌尿外科医院,广东省,深圳市,南山区,南山大道1112-1,,113.923167,22.520756,ChIJXxtTCETuAzQR47w1sB9JBPo,B02F37W5IN,B02F37W5IN,gaode
659,深圳健安医院,广东省,深圳市,宝安区,沙吓工业区169号,0755-28196620;0755-89709546,114.038012,22.629059,ChIJ6d_kxa-MAzQR0BL4UoybTnA,B02F37VMJS,B02F37VMJS,gaode
660,深圳健丰医院,广东省,深圳市,龙岗区,高思特工业区(坪山长途汽车站旁),0755-84648333,114.33062,22.700744,ChIJedcSj9ZxBDQRmR1gEH-wDIQ,B02F309ZQS,B02F309ZQS,gaode
661,深圳景田医院,广东省,深圳市,福田区,商报路9号,0755-83921555;0755-83775992,114.042051,22.549231,ChIJVRU1m_PzAzQR7stifGP-X9Y,B02F302ABF,B02F302ABF,gaode
662,深圳龙济医院,广东省,深圳市,宝安区,龙观西路342号,0755-28111000;0755-29111999,114.012545,22.658409,ChIJsxntpvqMAzQR2aI1dj3JNis,B02F30278C,B02F30278C,gaode
663,深圳罗岗医院,广东省,深圳市,龙岗区,罗岗路76号,0755-89708040,114.125982,22.595937,ChIJw3RMrUj1AzQRkod4zMrESy8,B02F30A3ZA,B02F30A3ZA,gaode
664,深圳美莱医疗美容医院,广东省,深圳市,福田区,深南中路2044号(兴华宾馆西行200米),0755-88995888,114.09049,22.541225,ChIJYUVGKDT0AzQRRpBLVDvPpx0,B02F37WNHB,B02F37WNHB,gaode
665,深圳仁爱医院,广东省,深圳市,福田区,金地四路2号,0755-88308111;0755-88308188,114.041211,22.520267,ChIJLVdgFVDxAzQRt-69l_CDpkQ,B02F302120,B02F302120,gaode
666,深圳仁康医院,广东省,深圳市,罗湖区,草埔吓屋村8号综合楼,0755-25679833;0755-25481365,114.118218,22.584808,ChIJN-jOYxX1AzQRZmcu5T8LzZY,B02F30A6U2,B02F30A6U2,gaode
667,深圳曙光医院,广东省,深圳市,罗湖区,红宝路38号,0755-82473398,114.107701,22.546976,ChIJT7s1X7f1AzQRd4y-3XzdCmg,B02F37USH7,B02F37USH7,gaode
668,深圳同仁妇科医院,广东省,深圳市,宝安区,宝安大道3186号,0755-23462210;0755-27909999,113.871841,22.575374,ChIJY3_1ahLsAzQRMNAKYDs9n40,B02F37VJT4,B02F37VJT4,gaode
669,深圳五洲中西医结合医院,广东省,深圳市,南山区,科华路7号,0755-26719191,113.945994,22.546417,ChIJdYPv2f3tAzQRcA2q0tRbmh4,B02F306BL8,B02F306BL8,gaode
670,深圳武警医院,广东省,深圳市,罗湖区,金湖路8号,0755-82699582;0755-82699717;0755-82699000,114.102813,22.573542,ChIJ-b2VaAT1AzQRL9q6Dtidcyo,B02F38MHFG,B02F38MHFG,gaode
671,深圳雪象医院,广东省,深圳市,龙岗区,雪岗路1136号,0755-61260222;0755-89707061;4009916120,114.078581,22.651396,ChIJA50aoA6LAzQR4Lsqg1LvUdE,B02F37UI6H,B02F37UI6H,gaode
672,深圳阳光医院,广东省,深圳市,罗湖区,宝安南路1048号,0755-25563998,114.111963,22.540299,ChIJ14qbZcf1AzQR92nqo67QahU,B02F3007F1,B02F3007F1,gaode
673,深圳怡康妇科医院,广东省,深圳市,罗湖区,红桂路1018号武汉大厦1-5层,0755-25595888;0755-25599158,114.111467,22.550964,ChIJoQHuHrv1AzQRMfg2ofaxNQ8,B02F37WL02,B02F37WL02,gaode
674,深圳远大肛肠医院,广东省,深圳市,罗湖区,沿河南路1015号,0755-82348232;0755-83211111;0755-85205678,114.121088,22.53489,ChIJHdPtGur1AzQRWmegic1BI2g,B02F37WKXT,B02F37WKXT,gaode
675,深圳远东妇儿科医院,广东省,深圳市,罗湖区,深南东路2097号,0755-88808888,114.123901,22.543538,ChIJ33GSOZT1AzQRPh9wUqekbA8,B02F37W5P3,B02F37W5P3,gaode
676,深圳中仁泌尿外科医院,广东省,深圳市,宝安区,龙华街道工业西路97号(公交站建泰轮胎厂),0755-25111120;0755-25119120,114.020002,22.646219,ChIJ20JFceqMAzQR5GI29gPGfYs,B02F38MTJM,B02F38MTJM,gaode
677,沈阳北陵医院,辽宁省,沈阳市,皇姑区,沈阳市皇姑区泰山路13号,+86 24 8223 5899,123.431896,41.839666,ChIJtytayoxiJV4R_rAWGqXQLMo,,ChIJtytayoxiJV4R_rAWGqXQLMo,google
678,沈阳曙光男科医院,辽宁省,沈阳市,和平区,和平北大街122号(和平北大街与北二马路交汇口),024-62697777,123.413698,41.791337,ChIJB_b-_4yHL14RZTYpPWaxvyE,B001817GIW,B001817GIW,gaode
679,沈阳中都皮肤病医院,辽宁省,沈阳市,和平区,哈尔滨路38号(沈阳十二线),024-31882288;024-31962999,123.417578,41.812011,ChIJpQ7fyqxiJV4RuDfveqObj_M,B00181BZTV,B00181BZTV,gaode
680,石家庄东方中西医结合医院,河北省,石家庄市,桥西区,石家庄市桥西区裕华西路8,+86 311 8551 6666,114.486446,38.034976,ChIJrYWGu1He5jURFyYP2B4SjY8,,ChIJrYWGu1He5jURFyYP2B4SjY8,google
681,石家庄丰益肛泰医院,河北省,石家庄市,桥西区,平安南大街192号,0311-86059777;18911407357,114.501995,38.019791,ChIJRarcjMnf5jUR6CcjAATXcfA,B013706XB0,B013706XB0,gaode
682,石家庄美联臣医疗美容医院,河北省,石家庄市,桥西区,裕华西路8号,0311-85277777;0311-85276997,114.486296,38.034894,ChIJs0d_vFHe5jUR7WXeQ7nBEII,B013706XS1,B013706XS1,gaode
683,石家庄长城医院,河北省,石家庄市,裕华区,黄河大道84号,0311-85962996;0311-85383772,114.603442,38.043751,ChIJJZKDFrPm5jURz9ZDRE3eFK4,B013706GPJ,B013706GPJ,gaode
684,石狮科盾医院,福建省,泉州市,石狮市,南环路102号,,118.627655,24.723617,ChIJvSvUCvjMFDQRQ1R92z8JM40,B0253014VV,B0253014VV,gaode
685,顺德东方女子医院,广东省,佛山市,顺德区,大良文秀路2号,0757-22360333;4006009237;15875761919,113.25263,22.839839,ChIJgadvN85OAjQRq9gcefk6cbY,B02F503BE2,B02F503BE2,gaode
686,顺德耳鼻喉专科医院,广东省,佛山市,顺德区,清晖路82号,4008728120,113.255984,22.833292,ChIJyVIrxf1OAjQR_Hrpn1Xz0Og,B0FFGA53DF,B0FFGA53DF,gaode
687,顺德康复医院,广东省,佛山市,顺德区,大良凤山西路10号,0757-22231666;0757-22231068,113.240162,22.841836,ChIJw4lTJdZOAjQR3_BMf7lZlKs,B02F508M83,B02F508M83,gaode
688,顺德新世纪泌尿医院,广东省,佛山市,顺德区,大良南国西路黄岗路口,0757-29282999,113.238929,22.813158,ChIJDzyhG3lJAjQR3BEv4PGVtLQ,B02F50UOM9,B02F50UOM9,gaode
689,顺德新世纪泌尿专科医院,广东省,佛山市,顺德区,大良南国西路黄岗路口,0757-29282999,113.238929,22.813158,ChIJo15C9N9IAjQR8mp0FZmJBVA,B02F50UOM9,B02F50UOM9,gaode
690,顺德阳光康复医院,广东省,佛山市,顺德区,大良凤山西路10号,0757-22231666;0757-22231068,113.240162,22.841836,ChIJw4lTJdZOAjQR3_BMf7lZlKs,B02F508M83,B02F508M83,gaode
691,顺德庄头医院,广东省,佛山市,顺德区,陈村镇庄头管理区太平路49号,0757-23319269;0757-23324832,113.197656,22.989475,ChIJQdk_f5xQAjQRfAslPygtzQo,B02F5076JE,B02F5076JE,gaode
692,四川肛肠医院,四川省,成都市,武侯区,武侯大道双楠段313号,028-68599999,104.015131,30.637393,ChIJlRBBZuEm9hQRBxvPWmiCRzk,B0FFF6O34L,B0FFF6O34L,gaode
693,四川华美紫馨医学美容医院,四川省,绵阳市,涪城区,安昌路18-16号附近,,104.74805,31.459452,ChIJGz6JC67F7zYRchIRHmDG1_8,B0FFFP99J7,B0FFFP99J7,gaode
694,四川绵阳美康医院,四川省,绵阳市,涪城区,荷花北街9之10-11、11,0816-2377120;0816-2368888,104.714225,31.458185,ChIJfeuTH1ee8TYR7KUmjXq1jrQ,B033000E5C,B033000E5C,gaode
695,四川省生殖健康研究中心附属专科医院,四川省,成都市,金牛区,一环路西三段13号,028-83335888;028-87660699,104.040177,30.670024,ChIJOV7nRc7E7zYRYhsBMEtz5Tc,B001C7WOG6,B001C7WOG6,gaode
696,四川中医药高等专科学校附属医院,四川省,绵阳市,涪城区,长虹大道中段53号,0816-6019998,104.737625,31.473688,ChIJxYsjxNSd8TYRy4tDcSBAdrE,B0FFF2BYXF,B0FFF2BYXF,gaode
697,四平阳光医院,吉林省,四平市,公主岭市,迎宾路1128号,0434-6297799,124.819229,43.500921,ChIJ0Rp1HoqkOV4Rb0XOaBDeEWw,B01B20MTP8,B01B20MTP8,gaode
698,泗洪阳光儿童医院,江苏省,宿迁市,泗洪县,宿迁市泗洪县汴东路,,118.227066,33.457766,ChIJaXeX90pByDURx6MZ2P8G5pE,,ChIJaXeX90pByDURx6MZ2P8G5pE,google
699,苏州大学附属理想眼科医院,江苏省,苏州市,姑苏区,干将东路200号,0512-33333333,120.644507,31.311321,ChIJMU2pZ-CmszURPpRCHx1FkCk,B02000K46L,B02000K46L,gaode
700,苏州东吴中西医结合医院,江苏省,苏州市,姑苏区,桐泾南路81号(近新康花园),0512-68120120,120.598805,31.280094,ChIJS8bDeKCgszURBHshFOmU-QM,B02000IC8Y,B02000IC8Y,gaode
701,苏州宏葑医疗,江苏省,苏州市,沧浪区,苏州市沧浪区庄先湾路宏葑二村24幢,,120.649213,31.30544,ChIJj1Y00x2nszURD_B0V7utIJ4,,ChIJj1Y00x2nszURD_B0V7utIJ4,google
702,苏州华美美莱整形医院,江苏省,苏州市,姑苏区,干将西路889号,0512-88169999;4008816499,120.594304,31.303063,ChIJvwQi3uqgszURrOHk3iy4M_c,B020001GGQ,B020001GGQ,gaode
703,苏州黄埭江南门诊部,江苏省,苏州市,相城区,黄埭镇春丰路239号(近春丰景城),0512-65712999,120.550315,31.433338,ChIJpb5xt5SiszURkD1uLwrVRjs,B02000JGCL,B02000JGCL,gaode
704,苏州康立医院,江苏省,苏州市,吴中区,东吴南路96号,0512-66050100;0512-66051000,120.630738,31.242935,ChIJRdeHzI8JszURX2vHfDVVqAI,B0FFG3XPB4,B0FFG3XPB4,gaode
705,苏州乐桥皮肤专科医院,江苏省,苏州市,姑苏区,憩桥巷9号(近广场酒店),0512-65220202;0512-65220101,120.621869,31.304957,ChIJhzbCfC2nszURa53OlzCWQCE,B0200173MZ,B0200173MZ,gaode
706,苏州平江医院,江苏省,苏州市,姑苏区,平川路1166,0512-65771001;0512-33331166,120.600865,31.334455,ChIJp7aOWjyhszURdq50TyMQiHo,B02000K5SX,B02000K5SX,gaode
707,苏州圣爱医院,江苏省,苏州市,虎丘区,新区金山路36号,0512-68080101;0512-68081010,120.55871,31.297108,ChIJbwk1F3GgszURaWQwHyTpA9I,B020007BVY,B020007BVY,gaode
708,宿迁市妇产医院,江苏省,宿迁市,宿城区,平安大道88号(老院向南200米),0527-84399120;0527-84399599,118.27101,33.954415,ChIJmf_5Wr_dxzUR0R4ThjRlXdw,B020F03JTF,B020F03JTF,gaode
709,宿州艾玛妇医院,安徽省,宿州市,埇桥区,拂晓大道与淮河西路交汇处(新景第),0557-3863333;0557-3651333,116.948597,33.622466,ChIJwzYtR7clzzURzo1mLTwlR2g,B0FFFSZR9I,B0FFFSZR9I,gaode
710,台州东方妇产医院,浙江省,台州市,椒江区,经一路326号(开元大酒店旁),0576-88585555,121.432267,28.643274,ChIJgTS0r1k7TjQRfIBdl_n-Gt4,B024002DGW,B024002DGW,gaode
711,台州协和医院,浙江省,台州市,椒江区,开元路290、296-304,0576-88600555;0576-88520033,121.435739,28.656197,ChIJob4cJRm_SDQRNQN6euWJq0Q,B024002JRQ,B024002JRQ,gaode
712,太原丽都整形美容医院,山西省,太原市,小店区,并州南路33号,0351-6876666;0351-6976666;4006874888,112.573458,37.835555,ChIJqe4P7YGpCjYRp4uUUiuQbPI,B0FFFGZKEU,B0FFFGZKEU,gaode
713,太原糖尿病专科医院,山西省,太原市,迎泽区,并州东街3号,0351-6063168;0351-4066265;4000460120,112.583221,37.85189,ChIJTQBN2KKpCjYRDLjCZceC-OI,B015F0ISQ1,B015F0ISQ1,gaode
714,太原新医医院,山西省,太原市,小店区,建南汽车站旁,0351-7083222;4008088011;13209827533,112.583707,37.831414,ChIJ9UzUT4ipCjYRLvuNrK8fw8U,B0FFGO9BHZ,B0FFGO9BHZ,gaode
715,太原益民中医院,山西省,太原市,小店区,南内环街8号(南内环街东口),0351-5616999,112.582977,37.838863,ChIJycD3DrquCjYRQk4QKnOigHM,B015F16FEQ,B015F16FEQ,gaode
716,太原中山生殖医学医院,山西省,太原市,迎泽区,五一东街9号,0351-4172477;0351-4180222,112.58332,37.861912,ChIJ5d680q-pCjYREAuNmu3S6gk,B015F009F0,B015F009F0,gaode
717,太原中铁三局集团中心医院,山西省,太原市,小店区,坞城东街2号,0351-8784899;0351-7655999,112.588604,37.811924,ChIJHRO_bDmqCjYRMZ27Q5TDAbA,B015F02TRU,B015F02TRU,gaode
718,泰州东方医院,江苏省,泰州市,海陵区,济川西路386号,0523-80809696,119.905759,32.470115,ChIJ5fFWYWrHtjURVp69sBC4Sro,B020B0O25R,B020B0O25R,gaode
719,泰州海陵女子医院,江苏省,泰州市,海陵区,东进西路222号汽车西站旁,0523-86566120,119.902765,32.493522,ChIJh4H7biDHtjURf2fhDRJ6OUg,B020B0OTTU,B020B0OTTU,gaode
720,泰州市妇幼保健院,江苏省,泰州市,海陵区,东风南路568号,0523-86859999;0523-86853350;4000691616,119.934609,32.483343,ChIJr-__XazHtjURbPXa4w3ik38,B020B00BNI,B020B00BNI,gaode
721,唐山红十字妇产医院,河北省,唐山市,路北区,北新西道10号,0315-8077777;0315-2719519,118.172603,39.633559,ChIJK0RfDE0c8zURfvLtJQbmXLM,B013B03C3O,B013B03C3O,gaode
722,唐山华泰医院,河北省,唐山市,丰润区,端明路165号,0315-5013999,118.133771,39.828774,ChIJ--yVGfUR8zURGq42-jbypao,B013B0Q7JZ,B013B0Q7JZ,gaode
723,唐山冀东妇产医院,河北省,唐山市,路南区,新华西道118号,0315-2579000;0315-2335588,118.138617,39.625093,ChIJBdkuyxUd8zURb9K2rQzYNuY,B013B0Q8HP,B013B0Q8HP,gaode
724,唐山京城皮肤病医院,河北省,唐山市,路北区,大里路42-2号,0315-3731111;0315-7831111,118.150019,39.630018,ChIJ2-wqBAUd8zURSKFimISjMbE,B013B03GR2,B013B03GR2,gaode
725,唐山美联臣医疗美容医院,河北省,唐山市,路北区,大理南路44号(西山道与大理南路交叉口),0315-2887777,118.15001,39.630543,,B0FFFWJTR5,B0FFFWJTR5,gaode
726,唐山女子医院,河北省,唐山市,路南区,路南区,,118.139195,39.625207,ChIJUfY0MRQd8zUROWYPek88pLI,,ChIJUfY0MRQd8zUROWYPek88pLI,google
727,唐山同仁医院,河北省,唐山市,路北区,站前路3号,0315-2313333;0315-2313999,118.121962,39.617994,ChIJwwR2u08d8zURH221xQy-01I,B013B02BVR,B013B02BVR,gaode
728,唐山中西医骨科医院,河北省,唐山市,路南区,唐山市路南区国防西道,,118.139263,39.620712,ChIJtyjqL2sd8zURTfurffUjSX0,,ChIJtyjqL2sd8zURTfurffUjSX0,google
729,天津艾丽莎美容养生会所,天津市,天津市,南开区,迎水道9号益生堂大药店内二楼,15922061177,117.15144,39.09248,,B0FFGDG1IH,B0FFGDG1IH,gaode
730,天津华北医院,天津市,天津市,河东区,全境新开路373号,022-24418755;022-24331990,117.22616,39.131537,ChIJN-HSBDT87TURGR1egqUYuRA,B0016051EF,B0016051EF,gaode
731,天津华厦医院,天津市,天津市,河西区,环湖中道华夏未来对面,,117.183748,39.084094,ChIJGWpbW8T87TURWHEyW1WiWSI,B0FFFW6NVA,B0FFFW6NVA,gaode
732,天津华山医院,天津市,天津市,南开区,长江道30号,022-58815666;022-58815889,117.162962,39.12802,ChIJz5aa83kH7jUR0DCzhqkz120,B001606AIN,B001606AIN,gaode
733,天津蓟县友好医院,天津市,天津市,蓟县,中昌北大道商贸街东口,022-29129222;022-29122333,117.419037,40.034979,ChIJQWj8PpjD8zURPL3pFn4Z6_g,B00160DY8K,B00160DY8K,gaode
734,天津津好医院,天津市,天津市,河西区,天津市河西区友谊路和黑牛城道交口,+86 22 2837 1666,117.212706,39.076976,ChIJbSQuJCz97TUR8H09GRxCWVE,,ChIJbSQuJCz97TUR8H09GRxCWVE,google
735,天津津门中医医院,天津市,天津市,河西区,黑牛城道189号中国工商银行(紫金山支行)旁,022-58508899;022-58777999;15922100580,117.198737,39.07325,ChIJcza4esri7TURiWc0S7AJ2IE,B0FFF03C78,B0FFF03C78,gaode
736,天津静海真美妇儿医院,天津市,天津市,静海区,东城开发区金海园小区S82号,022-68627777,116.967243,38.934103,ChIJ801aZplt7jURooUAF2nV0Pk,B001610Y2D,B001610Y2D,gaode
737,天津坤如玛丽妇产医院,天津市,天津市,河西区,解放南路488号,022-58785555;022-58785510,117.231451,39.053014,ChIJqVVUyzzj7TURM2NCD_U6Ooo,B001611V3O,B001611V3O,gaode
738,天津乐园医院,天津市,天津市,河西区,河西区隆昌路86号,+86 22 2827 8888,117.219976,39.091923,ChIJXyjk0B_97TURsnePuNssdhs,,ChIJXyjk0B_97TURsnePuNssdhs,google
739,天津丽人女子医院,天津市,天津市,河东区,大直沽中路128号,022-24149011;022-24158811,117.237525,39.109928,ChIJ5xtimE15JV4Rattn6lJWRn0,B0FFFGMWL9,B0FFFGMWL9,gaode
740,天津欧菲整形美容医院,天津市,天津市,南开区,长江道115号众望大厦(长江道南丰路站对面),022-58883333,117.165782,39.125693,ChIJzW2fHHkH7jURWHZkrF_FsY4,B00160ED6E,B00160ED6E,gaode
741,天津欧亚肛肠医院,天津市,天津市,和平区,和平路26号(近东马路和平路交口),022-27262211;022-27283131,117.190783,39.135039,ChIJ7ZtGNJT97TURHXLAV5DxFc4,B00160EEF7,B00160EEF7,gaode
742,天津瑞京代谢病医院,天津市,天津市,河西区,紫金山路3号(与平泉道交口天塔旁)(近平泉道菜市场),022-83755555;13622022222,117.182544,39.095256,ChIJjUJgPq3i7TURFRko5M7oWJo,B00161678T,B00161678T,gaode
743,天津维美医疗美容医院,天津市,天津市,河西区,友谊北路广银大厦1-3层,022-28298899;022-23528886;15122442082,117.203181,39.101466,ChIJSwL_gRH97TURipYrGAQINKo,B00160F0K5,B00160F0K5,gaode
744,天津西站皮肤病专科医院,天津市,天津市,红桥区,西青道65号,022-27329222;022-27739933,117.156409,39.155182,ChIJyZP0Tk8H7jUR2P09BkzHDPE,B001607IVP,B001607IVP,gaode
745,天津现代女子医院,天津市,天津市,河北区,进步道21号(世纪钟旁),022-24459999;022-24462722,117.203036,39.134636,ChIJpd4ULcf97TURwjTB8fTjHY4,B00160DCGP,B00160DCGP,gaode
746,天津怡泰生殖专科医院,天津市,天津市,南开区,长江道90号,022-27113333,117.152242,39.131074,ChIJubHWm3QH7jURMxvw6Tz8_QA,B001604F05,B001604F05,gaode
747,天津怡泰医院,天津市,天津市,南开区,长江道90号,022-27113333,117.152242,39.131074,ChIJLzXRm3QH7jURY6gRVthcNOA,B001604F05,B001604F05,gaode
748,天津长庚耳鼻喉医院,天津市,天津市,河北区,天泰路130号,022-26429999;4009976120,117.180359,39.17679,ChIJz_Scehr-7TUR8PVR0XU_3ho,B0FFF5KJMM,B0FFF5KJMM,gaode
749,天水同仁医院,甘肃省,天水市,麦积区,天风路与成纪大道东路交叉路口向北200米(风动厂西门)银座对面,0938-2613666,105.902716,34.561497,ChIJPzB1A-FmXjYRrdI4CrDaE3E,B0FFFTAQ52,B0FFFTAQ52,gaode
750,天水退休医师医院,甘肃省,天水市,秦州区,名远大酒店附近,0938-8222227;0938-8281999,105.724779,34.584725,ChIJKd9J8aiLXjYRaozkGEf1dks,B03AA019N2,B03AA019N2,gaode
751,天长现代妇产医院,安徽省,滁州市,天长市,天康大道9号(天润城购物中心向东100米),0550-7777772,119.019676,32.673406,ChIJjaTo2GYVtjURw8A5bJPUFws,B02260QMC2,B02260QMC2,gaode
752,铁岭市协和医院,辽宁省,铁岭市,银州区,新华街44号天宝西门向北二百米,024-76118888,123.844372,42.295911,ChIJ26YJ7GGlOl4RbUqaoSafCqo,B019A0S6G9,B019A0S6G9,gaode
753,铜仁华夏医院,贵州省,铜仁市,碧江区,东太大道,0856-5205555,109.194694,27.738105,ChIJl-K0p46VlzYRYqzBKiWQq0c,B0358006BF,B0358006BF,gaode
754,万州阳光眼科医院,重庆市,重庆市,万州区,天星路366号(三峡医专大门斜对面),023-85739982,108.44595,30.75496,ChIJp6rjXexojjYRjaVzVXDKE3o,B0FFFA31DF,B0FFFA31DF,gaode
755,威海现代妇科医院,山东省,威海市,环翠区,威海市环翠区青岛北路,+86 631 516 1111,122.139153,37.46714,ChIJQT1uvy_vmjURCO7hGtbulyk,,ChIJQT1uvy_vmjURCO7hGtbulyk,google
756,潍坊和平医院,山东省,潍坊市,奎文区,东风东街209号,0536-8592999;0536-8891969,119.152458,36.713086,ChIJrXGmFj0alTUROSR1pxLfvUI,B021802ZAT,B021802ZAT,gaode
757,潍坊长安医院,山东省,潍坊市,奎文区,东风东街288号,0536-2222120;0536-2703333,119.121897,36.712341,ChIJu1o-V3e_lTURaicjR1UyYvc,B02180J0E2,B02180J0E2,gaode
758,温岭和平医院,浙江省,台州市,温岭市,泽国镇水仓路1号,0576-86429999,121.366439,28.500381,ChIJAz83FkUyTjQR7mUjRsaXePU,B02400VPNA,B02400VPNA,gaode
759,温岭小桥头医院,浙江省,台州市,温岭市,中兴西路与人民西路交叉口西南150米,,121.520947,28.394226,ChIJ3cZXa5YsTjQR0SE47XoxLWI,B0240057FC,B0240057FC,gaode
760,温州爱尔五官科医院,浙江省,温州市,龙湾区,温州市龙湾区机场大道机场大道上江大楼,+86 577 8650 0865,120.728627,27.988987,ChIJ0xF7j1t7TzQROWsusI_Pyew,,ChIJ0xF7j1t7TzQROWsusI_Pyew,google
761,温州东方妇产医院,浙江省,温州市,瓯海区,温瑞大道塘东大楼,0577-86750555;0577-86750188,120.679365,27.978895,ChIJedGO7OBiTzQRTq1frNWGfxc,B024106660,B024106660,gaode
762,温州恒大医院,浙江省,温州市,鹿城区,温州市鹿城区鹿城路153号,+86 577 8807 7999,120.645392,28.008552,ChIJe3hvcXNkTzQRM2FFluYA2x0,,ChIJe3hvcXNkTzQRM2FFluYA2x0,google
763,温州红房子医院,浙江省,温州市,鹿城区,鹿城路153号,0577-88580068;0577-88077999,120.645392,28.008552,ChIJx5fIc3NkTzQRTUh9_Hpxx74,B02410XDLZ,B02410XDLZ,gaode
764,温州红旗医院,浙江省,温州市,鹿城区,百里西路198号,,120.647296,28.018798,ChIJ3_HWlGtkTzQRIXsTfr0kLSI,B0FFF6LH6K,B0FFF6LH6K,gaode
765,温州建国医院,浙江省,温州市,鹿城区,温州大道洛河路2号,0577-56811996;0577-56889999,120.665612,27.982036,ChIJ2X8c-p1jTzQR4L0xwZzOsVU,B024102BJB,B024102BJB,gaode
766,温州玛丽亚妇科医院,浙江省,温州市,瑞安市,里新路与104国道交汇处北100米,,120.672592,27.838437,ChIJ5eaGF9qIRTQRBusWxqW0kKo,B0FFFFPOVK,B0FFFFPOVK,gaode
767,温州协和医院,浙江省,温州市,乐清市,北白象镇白象大道338号东方大厦斜对面,0577-62968009;13819766808,120.861384,28.035187,ChIJySJutb5kTzQRYYuDYCGjhaY,B0FFFSX3IM,B0FFFSX3IM,gaode
768,温州长征妇产医院,浙江省,温州市,鹿城区,温州市鹿城区公园路128号,,120.662256,28.013359,ChIJ9ZAsxWNkTzQRW6iCv6IzlVc,,ChIJ9ZAsxWNkTzQRW6iCv6IzlVc,google
769,涡阳县阳光医院,安徽省,亳州市,涡阳县,淮中大道172号(近公安局),0558-7217779;0558-7278111,116.219934,33.499662,ChIJ0SkXyEhFzjUR3CNauzy1rec,B022E02KVQ,B022E02KVQ,gaode
770,乌海现代医院,内蒙古自治区,乌海市,海勃湾区,千里山东街40号(人民公园南门路口)1完小斜对面,0473-6933333;0473-6961111,106.824903,39.672001,ChIJ56jIC3qUFTYRUesaZV7GLRI,B01D900BN8,B01D900BN8,gaode
771,乌鲁木齐凤凰妇产医院,新疆维吾尔自治区,乌鲁木齐市,沙依巴克区,西北路132号(近头宫加气站),0991-8558555;0991-5590000;4009919355,87.579031,43.828111,ChIJa8HD-Z0BBjgR5-zisOfk6EQ,B0FFF0DO1B,B0FFF0DO1B,gaode
772,乌鲁木齐市爱德华医院,新疆维吾尔自治区,乌鲁木齐市,水磨沟区,西虹东路148号,0991-7787199;0991-7787230;4000398112,87.608186,43.814898,ChIJE5CtmToBBjgR7cshhfZ7obQ,B03DF05TRO,B03DF05TRO,gaode
773,乌鲁木齐天佑肛肠医院,新疆维吾尔自治区,乌鲁木齐市,沙依巴克区,乌鲁木齐市沙依巴克区珠江路24,+86 991 561 1111,87.602066,43.770793,ChIJPxWU2aMABjgRyJXDTHp7MTM,,ChIJPxWU2aMABjgRyJXDTHp7MTM,google
774,乌鲁木齐新军都白癜风医院,新疆维吾尔自治区,乌鲁木齐市,沙依巴克区,沙区西北路73号血站与头宫之间哈密大厦对面,0991-7898333;4008640991,87.577851,43.828468,ChIJwRYywJ0BBjgRR-zS-07iKZM,B03DF0SHWZ,B03DF0SHWZ,gaode
775,无锡东方肛肠医院,江苏省,无锡市,北塘区,通盛路孙巷108号2层,0510-83728885,120.27229,31.587759,ChIJu0CKJ8KOszURyDck3Subgp4,B0FFGPRTKD,B0FFGPRTKD,gaode
776,无锡虹桥医院,江苏省,无锡市,滨湖区,长江北路150号(百安居对面),0510-82136888;0510-82125909;4000510150,120.343744,31.560735,ChIJHVb2KNaRszURCCw5n_yyDF4,B01FE0223T,B01FE0223T,gaode
777,无锡嘉仕恒信医院,江苏省,无锡市,滨湖区,蠡溪路203号,0510-88206666;0510-85011073,120.263551,31.552289,ChIJ4YvW3UePszURXWYknZ8XsoE,B01FE0IUO0,B01FE0IUO0,gaode
778,无锡建国男科医院,江苏省,无锡市,滨湖区,太湖大道往招商城方向20米,0510-85046999;0510-85056360,120.322486,31.562426,ChIJKQTprzWOszURWIHZ6heZVzo,B01FE0HT1M,B01FE0HT1M,gaode
779,无锡玛丽亚医院,江苏省,无锡市,崇安区,解放西路323号,0510-82792222;0510-82749666;4008288889,120.295141,31.578161,ChIJSymio_eOszURWYSaXtIo7aE,B01FE027EA,B01FE027EA,gaode
780,无锡美联臣医疗美容医院,江苏省,无锡市,崇安区,人民东路301号崇文大夏3-5层,0510-81187777,120.317749,31.584077,ChIJu4kiB2uOszURN-ZDwhayS3g,B01FE17ORP,B01FE17ORP,gaode
781,无锡民众体检中心,江苏省,无锡市,滨湖区,鸿桥路889号神洲大厦9-11层,0510-85882768;0510-81175820,120.250394,31.546516,ChIJRfhFUa2IszURrVg1RYZ_098,B01FE190HU,B01FE190HU,gaode
782,无锡南站医院,江苏省,无锡市,滨湖区,塘南路97号无锡建国男子医院(近招商城路),0510-85015358;0510-85048480,120.322486,31.562426,ChIJKQTprzWOszUR8TpC6sBZZGc,B01FE01V6V,B01FE01V6V,gaode
783,无锡天一医院,江苏省,无锡市,崇安区,勤学路27号-10,0510-88773456;4006051091,120.301998,31.568499,ChIJuZ_YYVSOszUR-LHW2KkdHmk,B01FE0HXOO,B01FE0HXOO,gaode
784,无锡同济医疗美容医院,江苏省,无锡市,南长区,永丰路黄泥埄57-1号,0510-85030999,120.308658,31.562937,ChIJC2mDrFKOszURDgDVsm4vZmM,B01FE0HXPT,B01FE0HXPT,gaode
785,无锡新区凤凰医院,江苏省,无锡市,滨湖区,长江北路20号,0510-85227441;0510-85229602,120.352747,31.550319,ChIJD7OyJS2QszUREzWMRMcwH-M,B01FE0IEHW,B01FE0IEHW,gaode
786,芜湖丹凤朝阳妇产医院,安徽省,芜湖市,镜湖区,赤铸山西路86号,0553-5886907,118.369632,31.360807,ChIJxZVALlZkyzUR2tcFJyl1M7A,B0FFGWHZG1,B0FFGWHZG1,gaode
787,芜湖阳光眼科医院,安徽省,六安市,金安区,六安市金安区大别山路,,116.499352,31.745583,ChIJq0ZzKjrXzDURaxRX_UXWqu4,,ChIJq0ZzKjrXzDURaxRX_UXWqu4,google
788,武汉博仕肛肠医院,湖北省,武汉市,武昌区,中山路312号凤凰大厦A座,027-88855999,114.316126,30.552972,ChIJDWMa7pmvLjQRbeRjtwCHUcA,B001B0ISV0,B001B0ISV0,gaode
789,武汉当代佳丽医院,湖北省,武汉市,武昌区,武汉市武昌区雄楚大道113号,+86 27 8756 3555,114.325678,30.518949,ChIJG6O3pOKvLjQRGbum2pZkcbE,,ChIJG6O3pOKvLjQRGbum2pZkcbE,google
790,武汉华美医院,湖北省,武汉市,硚口区,汉口解放大道1063号(武汉蓝天医院旁),027-85268888,114.255451,30.578181,ChIJJf-KDy-vLjQR4gtzsG0pmzo,B0FFGWPCA7,B0FFGWPCA7,gaode
791,武汉华仁医院,湖北省,武汉市,武昌区,武汉市武昌区武珞路319号,+86 27 8766 8305,114.312503,30.541058,ChIJu2qfxOqvLjQRlPa1rgNxSrA,,ChIJu2qfxOqvLjQRlPa1rgNxSrA,google
792,武汉华夏医院,湖北省,武汉市,武昌区,丁字桥路2号,027-87275566,114.334046,30.531849,ChIJbzNf5_WvLjQRiVu547fc2dE,B001B0IRLA,B001B0IRLA,gaode
793,武汉环亚白癜风医院,湖北省,武汉市,硚口区,解放大道479,027-83833333,114.229843,30.578541,ChIJs-zTH9OtLjQR9VcBYFVjPtk,B0FFGQ5NI6,B0FFGQ5NI6,gaode
794,武汉黄浦中西医结合医院,湖北省,武汉市,江岸区,黄浦大街266号,027-82889968,114.299718,30.61888,ChIJQ_h-wc-oLjQRJEd-Ml6vqC4,B0FFF1NCAH,B0FFF1NCAH,gaode
795,武汉送子鸟医院,湖北省,武汉市,硚口区,解放大道35,,114.191221,30.600927,ChIJ3-Bm0fesLjQRpTB7Znl21bU,B0FFGQFIJC,B0FFGQFIJC,gaode
796,武汉现代女子妇科医院,湖北省,武汉市,硚口区,中山大道89号(近武胜路家乐福),027-68836686,114.26154,30.569306,ChIJzVaruGCuLjQRNpFLOg-Ac2s,B0FFGWORP7,B0FFGWORP7,gaode
797,武汉友好医院,湖北省,武汉市,汉阳区,鹦鹉大道197号,027-84777999;027-84777777,114.26672,30.542267,ChIJT78B8DyuLjQRHkKXTXEa1YA,B001B09QOP,B001B09QOP,gaode
798,武警兵团指挥部医院,新疆维吾尔自治区,乌鲁木齐市,水磨沟区,南湖北路9号,0991-4612211,87.612972,43.827461,ChIJVwF21UABBjgRQQzU327qbag,B03DF0T106,B03DF0T106,gaode
799,武警重庆总队医院,重庆市,重庆市,南岸区,卫国路90号,023-62511185;023-62505949;023-62511985,106.587144,29.582238,ChIJraZHtp4zkzYR-x4VkelWUSc,B00178XF9G,B00178XF9G,gaode
800,武警海南总队医院,海南省,海口市,美兰区,文明东路49号,0898-65343033;0898-36616120,110.367535,20.039488,ChIJgWr4u_LSUzERmiQ8ZqQtVYY,B03820Q29A,B03820Q29A,gaode
801,武警河北总队医院,河北省,石家庄市,桥西区,新华西路130号,0311-83632120,114.422158,38.050732,ChIJMdYjbC7Z5jURSLDWWTQAXnY,B0FFGJAG68,B0FFGJAG68,gaode
802,武警河南总队医院,河南省,郑州市,二七区,康复中街1号,0371-66964364,113.649637,34.743004,ChIJ7atdHvRl1zURP-XRfDVqqfc,B017317A15,B017317A15,gaode
803,武警黑龙江总队医院,黑龙江省,哈尔滨市,道里区,新阳路558号,0451-84363489;0451-84832120,126.598898,45.739797,ChIJhz_NZp6AQ14Rw81m9SYgB20,B01C3180XL,B01C3180XL,gaode
804,武警湖南总队医院,湖南省,长沙市,岳麓区,枫林一路222号,0731-88639199;4000991366,112.94926,28.19951,ChIJleIBiKtLJzQRqnvGj09lCbI,B02DB0U568,B02DB0U568,gaode
805,武警吉林总队医院,吉林省,长春市,宽城区,农安南街766号,0431-82638825;0431-82628222;13578790133,125.296953,43.936794,ChIJ9RlCwQNhOF4RekDCcUp_kR0,B01AF14RHX,B01AF14RHX,gaode
806,武警江苏总队医院,江苏省,扬州市,广陵区,江都南路8号,0514-87218215;0514-87232421,119.462026,32.386707,ChIJFVmb68yHtjUR2mPIx8UUJjU,B020215205,B020215205,gaode
807,武警江西省消防总队医院,江西省,南昌市,西湖区,抚生路168号,0791-86578388;0791-86586995;18252074008,115.876915,28.653649,ChIJUQR2dmy4OjQRfVkA3cg_o3M,B03170S11J,B03170S11J,gaode
808,武警辽宁总队医院,辽宁省,沈阳市,于洪区,黄河北大街黑山路3号,024-86868659;024-86526638,123.413899,41.86317,ChIJpSSpfbBjJV4RZIDyO5cQRWQ,B001819RMN,B001819RMN,gaode
809,武警内蒙古总队医院,内蒙古自治区,呼和浩特市,赛罕区,双台什街与金桥一路交叉口东北100米,0471-3326775,111.700088,40.785571,ChIJEfnV8zZIBjYR_DjpN3BE50w,B0FFGSFU6W,B0FFGSFU6W,gaode
810,武警青海总队医院,青海省,西宁市,城东区,七一路252号,0971-8177648;0971-8177678;4006003120,101.800122,36.619031,ChIJI_lzcPgLUjYRmDbqoROP02I,B03CB109JY,B03CB109JY,gaode
811,武警山西总队医院,山西省,太原市,小店区,狄村街1-28号附近,,112.583565,37.83142,ChIJU7RSq06qCjYRd4NtVvlTqa0,B0FFGRQSCX,B0FFGRQSCX,gaode
812,武警陕西省总队医院,陕西省,西安市,雁塔区,南二环东段88号,029-89390081;029-82223616,108.985486,34.237041,ChIJU7RSq06qCjYRd4NtVvlTqa0,B001D0WC56,B001D0WC56,gaode
813,武警四川省消防总队医院,四川省,成都市,青羊区,石人南路21号,028-86265120;028-86273119;028-87336843,104.027127,30.671524,ChIJDUya9LbE7zYRdbfI9HDPFf4,B001C8ULPC,B001C8ULPC,gaode
814,武警云南省边防总队医院,云南省,昆明市,西山区,西坝路与西福路交叉口西北50米,,102.686134,25.026974,ChIJ3SoMFoyD0DYRtUpK2GL1yH4,B0FFGQ2XLI,B0FFGQ2XLI,gaode
815,西安东大肛肠医院,陕西省,西安市,碑林区,兴庆路9号(兴庆公园东门斜对面),,108.988458,34.252691,ChIJH71oHLd6YzYRqq9kqs77CVU,B001D09UF0,B001D09UF0,gaode
816,西安国医肿瘤医院,陕西省,西安市,雁塔区,雁南一路13号(原纬一街),4006362029;029-85332792;029-85332790,108.950777,34.212116,ChIJ_SRphFhwYzYRI0oQ6goQw6g,B0FFF9S0KN,B0FFF9S0KN,gaode
817,西安俪人医院,陕西省,西安市,雁塔区,科技路30号,029-88850059;029-88635555,108.906219,34.229767,ChIJKVhRWrRwYzYRfRq0reWMyLw,B001D09H3E,B001D09H3E,gaode
818,西安莲湖京科医院,陕西省,西安市,莲湖区,丰登北路中段72号,029-81329999;4001181990,108.894393,34.266588,ChIJFQA80vN5YzYRiFiyi7MM5T0,B0FFF64Z9N,B0FFF64Z9N,gaode
819,西安三桥武警医院,陕西省,西安市,未央区,三桥街道武警路4号,029-84512083,108.833648,34.283242,,B001D10W3Q,B001D10W3Q,gaode
820,西安神龙中医院,陕西省,西安市,雁塔区,朱雀大街南段36号明德门小区南新区13号楼1-2层,029-85454573;13325387551,108.938754,34.201269,ChIJ2dA5Sv1wYzYRVOQhgRB0EYE,B001D06WNM,B001D06WNM,gaode
821,西安阳光医院,陕西省,西安市,新城区,自强东路1040号,029-86262043,108.950753,34.279886,ChIJ09gL0p98YzYRIqYohgscnZE,B001D07BDL,B001D07BDL,gaode
822,西藏博爱医院,西藏自治区,拉萨市,城关区,江苏东路50号附近,,91.143225,29.654836,ChIJSWu_UQaLXjYRVAQNc52JV0g,B037B027T9,B037B027T9,gaode
823,西京妇产医院,宁夏回族自治区,银川市,兴庆区,银川市兴庆区胜利街,+86 951 407 2622,106.282563,38.450634,ChIJJ2j0zUU8QDYRe_Aiq5mUS14,,ChIJJ2j0zUU8QDYRe_Aiq5mUS14,google
824,西南骨科医院,四川省,成都市,武侯区,成都市武侯区武侯大道双楠段38号,,104.018116,30.637985,ChIJgQV4MobE7zYRzv6QFgEaaj8,,ChIJgQV4MobE7zYRzv6QFgEaaj8,google
825,湘潭阳光医疗美容中心,湖南省,湘潭市,雨湖区,和平路186号(市中心医院对面),0731-58220666,112.91239,27.86368,ChIJLzNlTpm-IDQRXHk0YgDM3gM,B0FFGL8OZ2,B0FFGL8OZ2,gaode
827,襄樊东大肛肠医院,湖北省,襄阳市,樊城区,长虹北路16号(诸葛亮广场对面),4000710919,112.134814,32.06035,ChIJ7zyGjfhDgDYRlT73ixQCbbM,B02C60345P,B02C60345P,gaode
828,襄樊市第五人民医院,湖北省,襄阳市,樊城区,东风路66号,0710-3231198;0710-3455563,112.161403,32.041766,ChIJOVTti7BGgDYRdAR3HXLuFgk,B0FFFP6Y96,B0FFFP6Y96,gaode
829,新疆阿克苏白水医院,新疆维吾尔自治区,阿克苏地区,阿克苏市,南大街33号,0997-2618699,80.266768,41.161737,ChIJ9WIly3HIYzgRROce0oHq-GM,B03E500FND,B03E500FND,gaode
830,新疆大西北皮肤病医院,新疆维吾尔自治区,乌鲁木齐市,沙依巴克区,西北路749号(与南昌路交叉口),0991-4518819;18167971112,87.586689,43.816506,ChIJ3ZQRUA4BBjgRS6Kh2O6B-mU,B03DF0UA1A,B03DF0UA1A,gaode
831,新疆华夏医院,新疆维吾尔自治区,乌鲁木齐市,沙依巴克区,友好南路323号(原新华书店对面)西北路车站旁,0991-4532288;0991-4503333,87.593813,43.811273,ChIJsb5ggBkBBjgRDT8cXNVBLoM,B03DF01142,B03DF01142,gaode
832,新疆石河子生殖专科医院,新疆维吾尔自治区,石河子市,石河子市,西一路51号,0993-7557166;0993-7557199,86.027838,44.311316,ChIJoXxD-ZXMCzgRHiQOXTb38_8,B03E10LLED,B03E10LLED,gaode
833,新疆维吾尔自治区人民医院,新疆维吾尔自治区,乌鲁木齐市,天山区,天池路91号,0991-8565737,87.613716,43.783597,ChIJH8e8ibUABjgRptv8X_sWej0,B03DF04GDA,B03DF04GDA,gaode
834,新密协和医院,河南省,郑州市,新密市,西大街308号,0371-69293333,113.364227,34.536572,ChIJC5Bzykin1zUREfkFX18l8OU,B01730JOHT,B01730JOHT,gaode
835,新医科苏州门诊部,江苏省,苏州市,沧浪区,苏州市沧浪区憩桥巷,,120.621886,31.305011,ChIJK5b-Yi2nszURLODWixtnNXY,,ChIJK5b-Yi2nszURLODWixtnNXY,google
836,信阳博士医院,河南省,信阳市,浉河区,申城大道(原大庆路)沁园春旁(信阳博士医院(沁园春旁(信阳博士医院),0376-3225999;13526022210,114.08656,32.11262,ChIJIXdU5tJUKzQRFAh2ekKvtLA,B01780Q8KS,B01780Q8KS,gaode
837,兴城阳光医院,辽宁省,葫芦岛市,兴城市,兴海路1段24号,0429-5115888,120.706616,40.616315,ChIJu1-uNv_ZiTUR16LCvn45S7w,B01AD0IECN,B01AD0IECN,gaode
838,徐州京城皮肤病医院,江苏省,徐州市,云龙区,铜山路246号,0516-83469999,117.224696,34.262705,ChIJ2Z5MyTMGxjURElP1Nmy9PFE,B0FFFXU1JV,B0FFFXU1JV,gaode
839,许昌凤凰医院,河南省,许昌市,魏都区,颖昌路926号,0374-3261113;0374-3261111,113.820693,34.022918,ChIJp_34skvD1jURY0hielrsts0,B0FFF0FRNR,B0FFF0FRNR,gaode
840,许昌新时代妇科医院,河南省,许昌市,魏都区,解放路中段,,113.817391,34.016703,ChIJN8-A3CPD1jUR_MuaZjJK5Sc,B0FFF39MSP,B0FFF39MSP,gaode
841,许昌中山医院,河南省,许昌市,魏都区,西大街16号,0374-2158889;0374-2158888,113.823809,34.028424,ChIJI1pCETLD1jURPwgl02liB4M,B017600407,B017600407,gaode
842,烟台仁爱医院,山东省,烟台市,芝罘区,大海阳路68号,0535-2600120;0535-6266999,121.375638,37.536542,ChIJS2dWlOxjkDURdrL16zReVOA,B021703EU3,B021703EU3,gaode
843,烟台新东方女子医院,山东省,烟台市,芝罘区,烟台市芝罘区南大街240号,+86 535 622 2736,121.394449,37.538334,ChIJHyGN9INjkDURLF0OyOe1dbk,,ChIJHyGN9INjkDURLF0OyOe1dbk,google
844,烟台阳光丽人医院,山东省,烟台市,,烟台市西南河路,+86 535 608 8888,121.392123,37.537578,ChIJg8Hh8IRjkDURJw63KL_DCt8,,ChIJg8Hh8IRjkDURJw63KL_DCt8,google
845,延安阳光泌尿外科医院,陕西省,延安市,宝塔区,审计局附近,0911-5866666;4008369120,109.469215,36.610668,ChIJ4yXbkPsjbjYR3n4HpENwHkc,B038F0NPFL,B038F0NPFL,gaode
846,延吉博生现代妇科医院,吉林省,延边朝鲜族自治州,延吉市,爱丹路1009号粉红大厦(老客运站东100米),0433-2900900,129.517297,42.912823,ChIJzU81qlu2Sl4RWHb7mvcUHMg,B05990078F,B05990078F,gaode
847,盐城协和康复医院,江苏省,盐城市,亭湖区,建军中路与建军路交叉口东南50米,,120.151351,33.385715,ChIJcxGzlV9VtzURjMg6U5f0Iw4,B0FFG7R6NZ,B0FFG7R6NZ,gaode
848,扬州国建男科医院,江苏省,扬州市,邗江区,新城河路508号,13222686081,119.402863,32.390716,ChIJl0pS0m59tjURywExflKpHew,B0FFFFGASQ,B0FFFFGASQ,gaode
849,扬州施尔美整形美容医院,江苏省,扬州市,邗江区,江阳中路266号,0514-87578888,119.402418,32.368364,ChIJ6xI-sZt9tjURJhFNJ19mlGA,B02020JBMV,B02020JBMV,gaode
850,阳泉东方生殖医院,山西省,阳泉市,,阳泉市泉中路1号,+86 353 203 7999,113.581559,37.857919,ChIJ7dSw9q6S4DURivfEw5-_YfY,,ChIJ7dSw9q6S4DURivfEw5-_YfY,google
851,伊宁市第十一医院,新疆维吾尔自治区,伊犁哈萨克自治州,伊宁市,江苏路解放西路7巷内,0999-8221041,81.316503,43.934419,ChIJlXu7CpUaeTgRmpVBDiCm7SA,B03E700366,B03E700366,gaode
852,仪征市中山门诊部,江苏省,扬州市,仪征市,真州西路42号(黎明大酒店东侧),0514-83427188,119.173304,32.277423,ChIJxSCNReXYtTUR9IPSPUUB2tA,B02020J88W,B02020J88W,gaode
853,宜宾肛泰肛肠医院,四川省,宜宾市,翠屏区,西郊前进路445号,0831-8306666,104.598273,28.748466,ChIJxxyUsk8M6TYRkrv33xrxPZU,B033F0NIKU,B033F0NIKU,gaode
854,宜昌康复医院,湖北省,宜昌市,西陵区,宜昌市西陵区隆康路,+86 717 622 5591,111.290458,30.695667,ChIJ-ddNHdKagzYRjWwZjz3W9As,,ChIJ-ddNHdKagzYRjWwZjz3W9As,google
855,宜兴丽都皮肤美容医院,江苏省,无锡市,宜兴市,人民南路141号,0510-87961111;15370871766,119.811769,31.345129,ChIJnx_7IYuOszURGnj4FN4nLEs,B01FE1E4JA,B01FE1E4JA,gaode
856,宜兴仁济医院,江苏省,无锡市,宜兴市,解放东路150号(解放广场东侧),0510-87900111;18861577073,119.826803,31.363114,ChIJL_LUVfqMtDUR7MpEPPgfSYE,B01FE0IAZ3,B01FE0IAZ3,gaode
857,宜兴武警医院,江苏省,无锡市,宜兴市,宜城街道龙池路337号,0510-87075011;0510-87075018,119.797871,31.35774,ChIJA7r5JymNtDURYVYIXp1nAm0,B0FFFEPNVJ,B0FFFEPNVJ,gaode
858,银川凤城医院,宁夏回族自治区,银川市,兴庆区,清河北街782号(北门金三角处),0951-6714458;0951-6717797;4009958911,106.295168,38.482528,ChIJPdVUbp89QDYR7dQFIKH_144,B03B70PFTO,B03B70PFTO,gaode
859,银川现代丽人医院,宁夏回族自治区,银川市,兴庆区,新华东街307号,4009985033,106.290514,38.459475,ChIJ_VncqlM8QDYR38IWnngge9Y,B03B70PT33,B03B70PT33,gaode
860,永泰东南医院,福建省,福州市,永泰县,龙峰园清水坑125号,0591-24813888;0591-24831888,118.957245,25.863533,ChIJb3oww3kUQDQR0zPgdEIyznE,B024F05ZC8,B024F05ZC8,gaode
861,榆林阳光医院,陕西省,榆林市,榆阳区,上郡北路8号上郡北路凌霄塔对面,4008553120,109.760379,38.281087,ChIJSWHAclVNDTYRSEThnlOJj_w,B039001A4D,B039001A4D,gaode
862,玉林中山医院,广西壮族自治区,玉林市,玉州区,一环东路1号,0775-2859999;0775-2829999;15994371692,110.164374,22.627637,ChIJIebqYN3PrTYRD47Ngj_9WOA,B0307003S2,B0307003S2,gaode
863,玉溪九州医院,云南省,玉溪市,红塔区,明珠路12号(高快客运站旁0),0877-6106666;0877-6103567,102.537622,24.353543,ChIJuYkNTdwd0TYRqUCuhCdpcSY,B036D010I0,B036D010I0,gaode
864,云南九洲泌尿生殖专科医院,云南省,昆明市,盘龙区,白云路229号,0871-66066888;4006645550,102.732482,25.060651,ChIJ9VY3S3SB0DYRspGNXYwphOw,B036702B94,B036702B94,gaode
865,云南玛莉亚女子医院,云南省,昆明市,盘龙区,环城北路169号,0871-68069999;15198904644,102.71817,25.054319,ChIJ4dfuvnyB0DYRboM_bZa7zz8,B03670W6H2,B03670W6H2,gaode
866,云南仁爱医院,云南省,昆明市,五华区,龙泉路62号,0871-65116111;0871-65186680;4000871616,102.708668,25.066933,ChIJd67nQyuC0DYRzS-BHISvHaA,B036705MSW,B036705MSW,gaode
867,云南同仁新华医院,云南省,昆明市,盘龙区,金实小区南门小庄立交桥旁,0871-65723039;0871-65621563;4006525018,102.730801,25.070911,ChIJPbfIXpmB0DYRiXuKXIMaRew,B03670W0U2,B03670W0U2,gaode
868,云南协和医院,云南省,昆明市,官渡区,环城南路709号,0871-63546666;0871-63579999,102.724449,25.024173,ChIJ68VD-1GB0DYRIDBBBjZaElY,B036704OFQ,B036704OFQ,gaode
869,运城禹都人民医院,山西省,运城市,盐湖区,槐东路68号,0359-2094999;0359-2087999,111.015119,35.035861,ChIJgVMgGnYhejYR3x6uk-yfdO0,B01670M9SE,B01670M9SE,gaode
870,湛江东大肛肠医院,广东省,湛江市,霞山区,椹川大道中海河汽配东大肛肠医院左侧第二家,4000126216,110.382391,21.22952,ChIJq8sCHXcpUzER98pAmGoGFT0,B02F7024LO,B02F7024LO,gaode
871,张家港朝阳五官科医院,江苏省,苏州市,张家港市,港城大道158号,0512-58983999;0512-58983991,120.533577,31.874134,ChIJ5wz6dP7dszURNjRqGXF6D4I,B020001S1W,B020001S1W,gaode
872,张家港万春专科医院,江苏省,苏州市,张家港市,暨阳中路399号(市二中西侧),0512-58282999,120.53997,31.86991,ChIJA6UgOOPdszURn12MbhXGU3o,B020007FMT,B020007FMT,gaode
873,张家港中心医院,江苏省,苏州市,张家港市,泗杨路99号,0512-58585758;0512-58581064,120.516526,31.880772,ChIJYRgWWa3gszURpZ4iY-5h-T8,B020005EMN,B020005EMN,gaode
874,长春461医院,吉林省,长春市,朝阳区,自由大路108号,0431-82676699,125.311174,43.863356,ChIJTdK7FaNdOF4RH_9BrU2B3tY,B0FFF6XP6F,B0FFF6XP6F,gaode
875,长春东大肛肠医院,吉林省,长春市,南关区,大经路1386号(汉斯啤酒城斜对面),0431-88720707;0431-88767676,125.340219,43.886277,ChIJjSWlOmVnOF4R95UPYOB8_7w,B01AF0C3QI,B01AF0C3QI,gaode
876,长春公安边防总队医院,吉林省,长春市,宽城区,吴淞路278号,,125.32807,43.901352,ChIJYVn4wEdnOF4Ru_1Q9trala0,B0FFF5EQHU,B0FFF5EQHU,gaode
877,长春骨伤医院,吉林省,长春市,南关区,亚泰大街1085号(亚泰大街与五马路交汇处),13524402436,125.342433,43.899015,ChIJwbqLBkRnOF4RwUOAJC6YjGY,B0FFGO8UI9,B0FFGO8UI9,gaode
878,长春关东妇科医院,吉林省,长春市,宽城区,芙蓉路256号(联合书城西侧),0431-87939120;0431-86110777;4000431119,125.312379,43.901199,ChIJU2ppV0xnOF4RlIoAu1B0BsM,B01AF05CAB,B01AF05CAB,gaode
879,长春华山皮肤病医院,吉林省,长春市,南关区,大经路356号,0431-81089997;0431-81089999,125.332535,43.894095,ChIJhXg_ZEJnOF4RxPzsVuDcQYE,B01AF1088N,B01AF1088N,gaode
880,长春九龙泌尿外科医院,吉林省,长春市,朝阳区,红旗街1599号,0431-85945822;0431-87921333,125.286987,43.862857,ChIJHUy9ycldOF4Rjh9BumKYBhE,B01AF10Y2X,B01AF10Y2X,gaode
881,长春同济医院,吉林省,长春市,朝阳区,康平街477号,0431-88599120;0431-85914788,125.312512,43.894454,ChIJR3-35VBnOF4RNI-iDSHy57M,B01AF04979,B01AF04979,gaode
882,长春协和妇科医院,吉林省,长春市,南关区,民康路1369号,0431-85079222;0431-86023592,125.34207,43.879946,ChIJxUskgX5nOF4Ruqd4UiOkDK4,B01AF08HX5,B01AF08HX5,gaode
883,长春阳光妇科医院,吉林省,长春市,南关区,大经路1318号(汉斯国际啤酒城对面),0431-88727120,125.339892,43.886655,ChIJUWHGPWVnOF4R37ZfM3bzaLs,B01AF0Z00T,B01AF0Z00T,gaode
884,长春阳光口腔,吉林省,长春市,朝阳区,延安大街99号盛世国际2层,,125.30443,43.861801,ChIJK4VX4LpdOF4RrfYounxWbxo,B0FFG2CIZU,B0FFG2CIZU,gaode
885,长春阳光女子医院,吉林省,长春市,南关区,大经路1318号(汉斯国际啤酒城对面),0431-88727120,125.339892,43.886655,ChIJbwW7FWVnOF4RzBj_sbyoEw8,B01AF0Z00T,B01AF0Z00T,gaode
886,长春长庚耳鼻喉医院,吉林省,长春市,南关区,大经路988号,0431-87660123;0431-88753333;4006703120,125.337319,43.889439,ChIJFcKhVm9nOF4REgCoTgWSDKY,B01AF0D4U2,B01AF0D4U2,gaode
887,长春中德骨科医院,吉林省,长春市,宽城区,北京大街1169号,0431-81915678;0431-82729666,125.328469,43.897052,ChIJ976KA0RnOF4RUHN11PYWE0s,B01AF02F54,B01AF02F54,gaode
888,长乐协立门诊部,福建省,福州市,长乐市,航城街道朝阳中路216号,0591-28176655;0591-28881120,119.508545,25.961003,ChIJU8CQMAKyQTQRYizkljKV4_I,B024F03ZWP,B024F03ZWP,gaode
889,长乐中山妇科医院,福建省,福州市,长乐市,郑和路250号,0591-28210000,119.513231,25.957303,ChIJI47pSPixQTQRAJ_19yBNSpM,B024F03ZX1,B024F03ZX1,gaode
890,长沙179医院,湖南省,长沙市,雨花区,城南东路133号,0731-82562179,113.004163,28.175312,ChIJK65X43w1JzQRRjj_JGi62qU,B02DB11ADZ,B02DB11ADZ,gaode
891,长沙安贞妇产医院,湖南省,长沙市,雨花区,韶山中路612号,0731-82931999;0731-82931666,112.993571,28.153373,ChIJlYsq86VKJzQRqY5w22KKd54,B02DB05PS2,B02DB05PS2,gaode
892,长沙博大泌尿专科医院,湖南省,长沙市,雨花区,韶山北路288号,0731-88837120;0731-88778877,112.996813,28.181547,ChIJfTNlFoFKJzQRq8RRm4F0Oz8,B02DB07PJE,B02DB07PJE,gaode
893,长沙东大肛肠医院,湖南省,长沙市,芙蓉区,远大一路820号,0731-88150120;0731-88282120,113.036231,28.197658,ChIJXdX_0rk1JzQRDP-JnrjyrnA,B02DB07F0D,B02DB07F0D,gaode
894,长沙恒生手外科医院,湖南省,长沙市,雨花区,香樟路229号,0731-88827120;0731-84478888;4006666120,113.00712,28.136668,ChIJATb9f6zKIDQRmxTga2T21hg,B02DB11921,B02DB11921,gaode
895,长沙华夏医院,湖南省,长沙市,长沙县,星沙镇北斗路16号(星沙汽车站斜对面),0731-82391620,113.080099,28.230824,ChIJq7I33bs2JzQRK2EBl1ZY33Q,B02DB07DJB,B02DB07DJB,gaode
896,长沙丽人妇产医院,湖南省,长沙市,芙蓉区,人民中路499号(家润多朝阳店对面),0731-88182688,113.006202,28.185438,ChIJsStD8IE1JzQRPW2r1ARJljY,B02DB05OAE,B02DB05OAE,gaode
897,长沙玛丽亚妇产医院,湖南省,长沙市,岳麓区,桐梓坡路1号,0731-83999120;0731-88776666,112.954269,28.219027,ChIJmZ5AxzRKJzQRGJY4JPps82s,B02DB07QAJ,B02DB07QAJ,gaode
898,长沙南方骨外科医院,湖南省,长沙市,长沙县,长沙市长沙县漓湘西路10号,+86 731 8406 0120,113.073907,28.223822,ChIJ0fc7ZqI2JzQR7QzWJw_JcB0,,ChIJ0fc7ZqI2JzQR7QzWJw_JcB0,google
899,长沙仁爱妇产医院,湖南省,长沙市,开福区,湘雅路212号(凯达园1层),0731-84812888;0731-84812666,112.979512,28.214383,ChIJjRwGsBVKJzQRboTkiusZUt8,B02DB03KXV,B02DB03KXV,gaode
900,长沙送子鸟生殖与不孕医院,湖南省,长沙市,雨花区,劳动中路59号,0731-88688855;0731-85555529,112.99904,28.167773,,B02DB0TQ2H,B02DB0TQ2H,gaode
901,长沙现代女子医院,湖南省,长沙市,雨花区,劳动中路59号,0731-88688855;0731-85555529,112.99904,28.167773,ChIJR21tRZ5KJzQRvMD5x6qQ-yU,B02DB0TQ2H,B02DB0TQ2H,gaode
902,长沙湘江医院,湖南省,长沙市,长沙县,长沙市长沙县天华中路,+86 731 8239 9999,113.081822,28.238083,ChIJZdhi_8Y2JzQRIy6cnbkpeiQ,,ChIJZdhi_8Y2JzQRIy6cnbkpeiQ,google
903,长沙星沙年轮骨科医院,湖南省,长沙市,长沙县,星沙镇漓湘西路10号(近明城国际大酒店),0731-85127206;0731-88827120,113.073908,28.223689,ChIJ0fc7ZqI2JzQRwS5JMD6-0cg,B02DB0UQB7,B02DB0UQB7,gaode
904,长沙阳光医院,湖南省,长沙市,天心区,城南西路155号,0731-85828388;0731-85813999,112.978046,28.183274,ChIJNUQuqIxKJzQR78U1Sd9ce6Q,B02DB0260D,B02DB0260D,gaode
905,长沙长海医院,湖南省,长沙市,芙蓉区,东二环恒达路1号,0731-84430502;0731-84662222,113.018859,28.189313,ChIJlf_12Zs1JzQROiwcqVD-tJ0,B02DB05N2F,B02DB05N2F,gaode
906,长沙长江医院,湖南省,长沙市,芙蓉区,车站北路251号,4000986199,113.009515,28.204202,ChIJj4tj3Yw1JzQR-uSAivnrY94,B02DB02666,B02DB02666,gaode
907,长治女子医院,山西省,长治市,城区,城西路258号,0355-3786666;0355-3521972,113.100457,36.193101,ChIJ14JelkvP2DURT4VLs4eTrvI,B016300KCQ,B016300KCQ,gaode
908,长治县博爱医院,山西省,长治市,长治县,长陵路27号,0355-8087999,113.073407,36.051237,ChIJhWr_hZjB2DUR5gqrp3-ICu4,B01630MI3H,B01630MI3H,gaode
909,肇庆市福康医院,广东省,肇庆市,端州区,前进北路1号(武警支队旁),0758-2758558,112.492036,23.055888,ChIJqcu2s5PQqTYR_uzns8R7nXw,B0FFGLLGNH,B0FFGLLGNH,gaode
910,浙江黄岩现代妇科医院,浙江省,台州市,黄岩区,世纪大道29号,0576-84039202,121.247831,28.650021,ChIJIbxyo51HTjQRh0aPc-GGsQU,B02400SGXO,B02400SGXO,gaode
911,浙江省玉环县中医院,浙江省,台州市,玉环县,西城路138号,0576-87255255,121.227444,28.136319,ChIJ27UcMbe_TzQR22FZ4rUgj1g,B02400T8YT,B02400T8YT,gaode
912,浙江新安国际医院,浙江省,嘉兴市,秀洲区,洪兴路2369号,0573-82299999;0573-82068999,120.694764,30.764809,ChIJodF4baQ6szURHx-jXWYBw9c,B023D03NNH,B023D03NNH,gaode
913,郑州丰益肛肠医院,河南省,郑州市,二七区,嵩山南路103-6号,0371-87503333;0371-67717033;4000371280,113.62847,34.738627,ChIJ416Qbnxv1zUR5s-50Z0HHU4,B01730IQX2,B01730IQX2,gaode
914,郑州华肤皮肤病医院,河南省,郑州市,金水区,南阳路37号,4009919037,113.64783,34.778632,ChIJeR3LDHxl1zURmdUMFlSPSBg,B0FFF5SO20,B0FFF5SO20,gaode
915,郑州华山医院,河南省,郑州市,中原区,陇海西路180号,0371-67666999;0371-67680621,113.600141,34.737011,ChIJC323ebtm1zURrJp4lOAzrkM,B01730771U,B01730771U,gaode
916,郑州华夏中医白癜风医院,河南省,郑州市,管城回族区,紫荆山路与航海路交叉口向南300米路东,0371-60226000;0371-66912345;13633821409,113.68465,34.716385,ChIJ23lZkbpo1zURfaxxduTInlA,B0FFFZZ1XB,B0FFFZZ1XB,gaode
917,郑州集美整形美容医院,河南省,郑州市,管城回族区,西大街238号,0371-60907777;13676929687,113.676514,34.749942,ChIJIc61NQxm1zURxqpaDl50Urk,B01730JWGW,B01730JWGW,gaode
918,郑州金水中医院,河南省,郑州市,金水区,政七街17号(省汇中心对面),0371-65739888;4000037153;0371-86586979,113.687537,34.78541,ChIJN7nsypNm1zUReJWt-A_uyj4,B0173048B8,B0173048B8,gaode
919,郑州警备区医院,河南省,郑州市,二七区,建设东路34号附8号,0371-86003855,113.639445,34.753628,ChIJuSrTqJNl1zURw1m_7fU58j8,B01731CXFE,B01731CXFE,gaode
920,郑州丽天整形医院,河南省,郑州市,金水区,经八路17-3号,0371-60983377;13103712201,113.66955,34.769787,ChIJXUJLwHhm1zURim7U_BKV6OE,B01730JVDB,B01730JVDB,gaode
921,郑州市二七人民医院,河南省,郑州市,二七区,延陵街19号,0371-66964075,113.66829,34.750977,ChIJXXehoO9l1zURj4VkZoOPIi8,B017307BTG,B017307BTG,gaode
922,郑州西京白癜风医院,河南省,郑州市,二七区,建设东路23号附21号(碧沙岗公园北门斜对面),0371-86628888;4000508708,113.633456,34.754364,ChIJ8QKaZpBl1zUReOufZSnciJI,B0173188SB,B0173188SB,gaode
923,中山国丹中医院,广东省,中山市,中山市,沙边路3号,0760-88588333;0760-88588386,113.458175,22.552989,ChIJ8ct5burNAzQRjT01ZPi1vCU,B02F801Z74,B02F801Z74,gaode
924,中山和平中医院,广东省,中山市,中山市,小榄镇民安北路45号,,113.238387,22.684296,ChIJVf6I8OE2AjQRcl8XHoLzrb4,B02F801VH7,B02F801VH7,gaode
925,中山市阳光门诊部,广东省,中山市,中山市,石岐街道博爱三路沙岗路口(南下新码头对面),,113.378373,22.503272,ChIJ_2WIlistAjQR7hUx3335zGs,B02F8008IX,B02F8008IX,gaode
926,中山现代妇科医院,广东省,中山市,中山市,东区街道中山东区中山四路12号,0760-88391588,113.39496,22.51189,ChIJG_9188XSAzQRZQBOeI_OP-g,B0FFGSYJCF,B0FFGSYJCF,gaode
927,舟山市千岛医院,浙江省,舟山市,定海区,千岛路173号附近,,122.2032,29.991746,,B0244649G0,B0244649G0,gaode
928,舟山新东方专科医院,浙江省,舟山市,定海区,解放西路250-9号,0580-8859999;0580-8262999,122.097373,30.014802,ChIJnag2zs3FUjQRwSlbuDA4Yk4,B02445IQ3B,B02445IQ3B,gaode
929,珠海惠爱医院,广东省,珠海市,香洲区,拱北联安路22号水湾酒吧街旁惠爱医院,0756-8877099,113.560593,22.226506,ChIJi20BDkF7ATQRWPrQhmncy7M,B0FFGWP4CZ,B0FFGWP4CZ,gaode
930,珠海九龙医院,广东省,珠海市,香洲区,吉大九洲大道中1004号(吉大农行旁),0756-3296666;0756-3296689,113.57369,22.246692,ChIJ67aKR1VjATQRO-CeoZOzhUc,B02F402U6U,B02F402U6U,gaode
931,珠海阳光男科医院,广东省,珠海市,香洲区,九洲大道东1118号(珠海电台对面),0756-3339999,113.586851,22.249485,ChIJT7RuUm57ATQR_Fy20_6abU0,B0FFGRO0SL,B0FFGRO0SL,gaode
932,驻马店泌尿专科医院,河南省,驻马店市,驿城区,练江路与文明大道口北100米处,0396-2906789,114.019084,32.962729,ChIJuzd54mt61DURtzKY_0imjXc,B018C0NY2J,B018C0NY2J,gaode
933,资阳皮肤泌尿专科医院,四川省,资阳市,雁江区,和平南路10号,028-26246968,104.648711,30.113522,ChIJq24INS1e7jYRSULMcQsNkXQ,B0340003E1,B0340003E1,gaode
934,淄博金盾医院,山东省,淄博市,张店区,潘南西路5号淄博金盾医院(潘南小学向东100米),0533-3164777,118.061389,36.815102,ChIJtblJQdSM6jURyQNAhxW3aGY,B021501FC8,B021501FC8,gaode
935,淄博丽人医院,山东省,淄博市,张店区,华光路81号,0533-3180999,118.047614,36.820547,ChIJVZ4AZMuM6jURPbFNw0O-x38,B02150QERD,B02150QERD,gaode
936,淄博赢和中医医院,山东省,淄博市,张店区,新村西路107号(市博物馆对面),0533-2177699,118.038127,36.801588,ChIJFzeqSJSM6jURFl4nEuVSpI8,B0FFG9HI0K,B0FFG9HI0K,gaode
937,遵义妇产医院,贵州省,遵义市,汇川区,深圳路145号(茅草铺中心血站旁),4000852829,106.934921,27.719502,ChIJsyl060dnlTYRLrsxrUfb6Xk,B03541AJ69,B03541AJ69,gaode
938,遵义女子医院,贵州省,遵义市,红花岗区,中华北路世贸华庭B栋4单元19-2,0851-28825161;18685611166,106.935458,27.691933,ChIJE6W07kdnlTYRxyjLeKVDAtk,B0FFGEZDH5,B0FFGEZDH5,gaode
939,杭州萧山华东医院,浙江省,杭州市,萧山区,萧绍路608号(近天虹商场),0571-22896666;0571-22899999,120.287011,30.163940,ChIJwwA5SeWETDQRT8c3QMQ-gmU,B023B06Q40,B023B06Q40,gaode
940,深圳昆仑泌尿外科医院,广东省,深圳市,宝安区,宝安大道4003号,0755-29638666,113.863872,22.581384,ChIJS2KtunTsAzQRfLXA1SBQu8g,B0FFFOJ76J,B0FFFOJ76J,gaode